<?xml version="1.0" encoding="UTF-8"?>
<gpx version="1.1" creator="http://thydzik.com" schemaLocation="http://www.topografix.com/GPX/1/0 http://www.topografix.com/GPX/1/0/gpx.xsd" xmlns="http://www.topografix.com/GPX/1/1" xmlns:xsi="http://www.w3.org/2001/XMLSchema-instance" xsi:schemaLocation="http://www.topografix.com/GPX/1/1 http://www.topografix.com/GPX/1/1/gpx.xsd http://www.garmin.com/xmlschemas/GpxExtensions/v3 http://www.garmin.com/xmlschemas/GpxExtensionsv3.xsd http://www.garmin.com/xmlschemas/TrackPointExtension/v1 http://www.garmin.com/xmlschemas/TrackPointExtensionv1.xsd http://www.garmin.com/xmlschemas/PowerExtension/v1 http://www.garmin.com/xmlschemas/PowerExtensionv1.xsd http://www.topografix.com/GPX/gpx_style/0/2 http://www.topografix.com/GPX/gpx_style/0/2/gpx_style.xsd" xmlns:gpxtpx="http://www.garmin.com/xmlschemas/TrackPointExtension/v1" xmlns:gpxx="http://www.garmin.com/xmlschemas/GpxExtensions/v3" xmlns:gpxpx="http://www.garmin.com/xmlschemas/PowerExtension/v1" xmlns:gpx_style="http://www.topografix.com/GPX/gpx_style/0/2">
  <metadata>
    <name>Ruta_pirata_modificado</name>
    <author>
      <name>gpx.studio</name>
      <link href="https://gpx.studio"/>
    </author>
  </metadata>
  <wpt lat="36.80208" lon="-2.063519">
    <ele>5.731302329011814</ele>
    <name>Castillo de San Felipe</name>
  </wpt>
  <wpt lat="36.765084" lon="-2.089144">
    <ele>112.45392450997318</ele>
    <name>Torre de Cala Higuera y Bahía de San José</name>
  </wpt>
  <trk>
    <name>La Isleta - San José - Wikiloc</name>
    <trkseg>
      <trkpt lat="36.813982" lon="-2.051661">
        <time>2026-07-23T02:10:30.000Z</time>
      </trkpt>
      <trkpt lat="36.814142" lon="-2.051734">
        <time>2026-07-23T02:10:30.000Z</time>
      </trkpt>
      <trkpt lat="36.814131" lon="-2.051801">
        <time>2026-07-23T02:10:30.000Z</time>
      </trkpt>
      <trkpt lat="36.814128" lon="-2.051813">
        <time>2026-07-23T02:10:30.000Z</time>
      </trkpt>
      <trkpt lat="36.814116" lon="-2.05185">
        <time>2026-07-23T02:10:30.000Z</time>
      </trkpt>
      <trkpt lat="36.814117" lon="-2.051849">
        <time>2026-07-23T02:10:30.000Z</time>
      </trkpt>
      <trkpt lat="36.81409" lon="-2.051935">
        <time>2026-07-23T02:10:30.000Z</time>
      </trkpt>
      <trkpt lat="36.814022" lon="-2.052151">
        <time>2026-07-23T02:10:30.000Z</time>
      </trkpt>
      <trkpt lat="36.813952" lon="-2.052305">
        <time>2026-07-23T02:10:30.000Z</time>
      </trkpt>
      <trkpt lat="36.813929" lon="-2.052377">
        <time>2026-07-23T02:10:30.000Z</time>
      </trkpt>
      <trkpt lat="36.813923" lon="-2.052444">
        <time>2026-07-23T02:10:30.000Z</time>
      </trkpt>
      <trkpt lat="36.813923" lon="-2.052442">
        <time>2026-07-23T02:10:30.000Z</time>
      </trkpt>
      <trkpt lat="36.81394" lon="-2.052711">
        <time>2026-07-23T02:10:30.000Z</time>
      </trkpt>
      <trkpt lat="36.814018" lon="-2.053059">
        <time>2026-07-23T02:10:30.000Z</time>
      </trkpt>
      <trkpt lat="36.814112" lon="-2.053633">
        <time>2026-07-23T02:10:30.000Z</time>
      </trkpt>
      <trkpt lat="36.814082" lon="-2.053998">
        <time>2026-07-23T02:10:30.000Z</time>
      </trkpt>
      <trkpt lat="36.814237" lon="-2.05427">
        <time>2026-07-23T02:10:30.000Z</time>
      </trkpt>
      <trkpt lat="36.814477" lon="-2.054281">
        <time>2026-07-23T02:10:30.000Z</time>
      </trkpt>
      <trkpt lat="36.814546" lon="-2.054527">
        <time>2026-07-23T02:10:30.000Z</time>
      </trkpt>
      <trkpt lat="36.814421" lon="-2.054721">
        <time>2026-07-23T02:10:30.000Z</time>
      </trkpt>
      <trkpt lat="36.814224" lon="-2.054903">
        <time>2026-07-23T02:10:30.000Z</time>
      </trkpt>
      <trkpt lat="36.814144" lon="-2.055327">
        <time>2026-07-23T02:10:30.000Z</time>
      </trkpt>
      <trkpt lat="36.814075" lon="-2.055536">
        <time>2026-07-23T02:10:30.000Z</time>
      </trkpt>
      <trkpt lat="36.814152" lon="-2.05575">
        <time>2026-07-23T02:10:30.000Z</time>
      </trkpt>
      <trkpt lat="36.814156" lon="-2.055895">
        <time>2026-07-23T02:10:30.000Z</time>
      </trkpt>
      <trkpt lat="36.814195" lon="-2.055974">
        <time>2026-07-23T02:10:30.000Z</time>
      </trkpt>
      <trkpt lat="36.814277" lon="-2.056054">
        <time>2026-07-23T02:10:30.000Z</time>
      </trkpt>
      <trkpt lat="36.814313" lon="-2.056194">
        <time>2026-07-23T02:10:30.000Z</time>
      </trkpt>
      <trkpt lat="36.814292" lon="-2.056312">
        <time>2026-07-23T02:10:30.000Z</time>
      </trkpt>
      <trkpt lat="36.8143" lon="-2.05643">
        <time>2026-07-23T02:10:30.000Z</time>
      </trkpt>
      <trkpt lat="36.814348" lon="-2.056513">
        <time>2026-07-23T02:10:30.000Z</time>
      </trkpt>
      <trkpt lat="36.8143735482441" lon="-2.05661860384317">
        <time>2026-07-23T02:10:30.000Z</time>
      </trkpt>
      <trkpt lat="36.81444" lon="-2.056728">
        <time>2026-07-23T02:10:30.000Z</time>
      </trkpt>
      <trkpt lat="36.814494" lon="-2.056891">
        <time>2026-07-23T02:10:30.000Z</time>
      </trkpt>
      <trkpt lat="36.81465" lon="-2.057047">
        <time>2026-07-23T02:10:30.000Z</time>
      </trkpt>
      <trkpt lat="36.814757" lon="-2.057181">
        <time>2026-07-23T02:10:30.000Z</time>
      </trkpt>
      <trkpt lat="36.814819" lon="-2.057412">
        <time>2026-07-23T02:10:30.000Z</time>
      </trkpt>
      <trkpt lat="36.814836" lon="-2.057605">
        <time>2026-07-23T02:10:30.000Z</time>
      </trkpt>
      <trkpt lat="36.814832" lon="-2.057701">
        <time>2026-07-23T02:10:30.000Z</time>
      </trkpt>
      <trkpt lat="36.814961" lon="-2.058123">
        <time>2026-07-23T02:10:30.000Z</time>
      </trkpt>
      <trkpt lat="36.814997" lon="-2.058311">
        <time>2026-07-23T02:10:30.000Z</time>
      </trkpt>
      <trkpt lat="36.814985" lon="-2.058515">
        <time>2026-07-23T02:10:30.000Z</time>
      </trkpt>
      <trkpt lat="36.815066" lon="-2.058754">
        <time>2026-07-23T02:10:30.000Z</time>
      </trkpt>
      <trkpt lat="36.815025" lon="-2.058995">
        <time>2026-07-23T02:10:30.000Z</time>
      </trkpt>
      <trkpt lat="36.815007" lon="-2.059542">
        <time>2026-07-23T02:10:30.000Z</time>
      </trkpt>
      <trkpt lat="36.814982" lon="-2.059617">
        <time>2026-07-23T02:10:30.000Z</time>
      </trkpt>
      <trkpt lat="36.814879" lon="-2.059759">
        <time>2026-07-23T02:10:30.000Z</time>
      </trkpt>
      <trkpt lat="36.814696" lon="-2.0598">
        <time>2026-07-23T02:10:30.000Z</time>
      </trkpt>
      <trkpt lat="36.81455" lon="-2.059931">
        <time>2026-07-23T02:10:30.000Z</time>
      </trkpt>
      <trkpt lat="36.814248" lon="-2.060138">
        <time>2026-07-23T02:10:30.000Z</time>
      </trkpt>
      <trkpt lat="36.81419" lon="-2.060258">
        <time>2026-07-23T02:10:30.000Z</time>
      </trkpt>
      <trkpt lat="36.814033" lon="-2.060379">
        <time>2026-07-23T02:10:30.000Z</time>
      </trkpt>
      <trkpt lat="36.813694" lon="-2.060545">
        <time>2026-07-23T02:10:30.000Z</time>
      </trkpt>
      <trkpt lat="36.8132" lon="-2.060282">
        <time>2026-07-23T02:10:30.000Z</time>
      </trkpt>
      <trkpt lat="36.812904" lon="-2.060115">
        <time>2026-07-23T02:10:30.000Z</time>
      </trkpt>
      <trkpt lat="36.812792" lon="-2.060169">
        <time>2026-07-23T02:10:30.000Z</time>
      </trkpt>
      <trkpt lat="36.81268" lon="-2.060319">
        <time>2026-07-23T02:10:30.000Z</time>
      </trkpt>
      <trkpt lat="36.812504" lon="-2.060378">
        <time>2026-07-23T02:10:30.000Z</time>
      </trkpt>
      <trkpt lat="36.812294" lon="-2.060341">
        <time>2026-07-23T02:10:30.000Z</time>
      </trkpt>
      <trkpt lat="36.811442" lon="-2.059618">
        <time>2026-07-23T02:10:30.000Z</time>
      </trkpt>
      <trkpt lat="36.810815" lon="-2.0591">
        <time>2026-07-23T02:10:30.000Z</time>
      </trkpt>
      <trkpt lat="36.810652" lon="-2.059089">
        <time>2026-07-23T02:10:30.000Z</time>
      </trkpt>
      <trkpt lat="36.810523" lon="-2.059304">
        <time>2026-07-23T02:10:30.000Z</time>
      </trkpt>
      <trkpt lat="36.810399" lon="-2.059534">
        <time>2026-07-23T02:10:30.000Z</time>
      </trkpt>
      <trkpt lat="36.810373" lon="-2.059717">
        <time>2026-07-23T02:10:30.000Z</time>
      </trkpt>
      <trkpt lat="36.810467" lon="-2.059979">
        <time>2026-07-23T02:10:30.000Z</time>
      </trkpt>
      <trkpt lat="36.810453" lon="-2.060072">
        <time>2026-07-23T02:10:30.000Z</time>
      </trkpt>
      <trkpt lat="36.810324" lon="-2.060292">
        <time>2026-07-23T02:10:30.000Z</time>
      </trkpt>
      <trkpt lat="36.810187" lon="-2.060212">
        <time>2026-07-23T02:10:30.000Z</time>
      </trkpt>
      <trkpt lat="36.810048" lon="-2.06031">
        <time>2026-07-23T02:10:30.000Z</time>
      </trkpt>
      <trkpt lat="36.810013" lon="-2.060482">
        <time>2026-07-23T02:10:30.000Z</time>
      </trkpt>
      <trkpt lat="36.809769" lon="-2.060536">
        <time>2026-07-23T02:10:30.000Z</time>
      </trkpt>
      <trkpt lat="36.809925" lon="-2.060781">
        <time>2026-07-23T02:10:30.000Z</time>
      </trkpt>
      <trkpt lat="36.810162" lon="-2.061047">
        <time>2026-07-23T02:10:30.000Z</time>
      </trkpt>
      <trkpt lat="36.810244" lon="-2.061465">
        <time>2026-07-23T02:10:30.000Z</time>
      </trkpt>
      <trkpt lat="36.810218" lon="-2.06161">
        <time>2026-07-23T02:10:30.000Z</time>
      </trkpt>
      <trkpt lat="36.8099" lon="-2.061734">
        <time>2026-07-23T02:10:30.000Z</time>
      </trkpt>
      <trkpt lat="36.809505" lon="-2.061809">
        <time>2026-07-23T02:10:30.000Z</time>
      </trkpt>
      <trkpt lat="36.809205" lon="-2.06183">
        <time>2026-07-23T02:10:30.000Z</time>
      </trkpt>
      <trkpt lat="36.809097" lon="-2.061873">
        <time>2026-07-23T02:10:30.000Z</time>
      </trkpt>
      <trkpt lat="36.8089" lon="-2.061916">
        <time>2026-07-23T02:10:30.000Z</time>
      </trkpt>
      <trkpt lat="36.808749" lon="-2.061771">
        <time>2026-07-23T02:10:30.000Z</time>
      </trkpt>
      <trkpt lat="36.808194" lon="-2.061728">
        <time>2026-07-23T02:10:30.000Z</time>
      </trkpt>
      <trkpt lat="36.807859" lon="-2.061712">
        <time>2026-07-23T02:10:30.000Z</time>
      </trkpt>
      <trkpt lat="36.807415" lon="-2.061877">
        <time>2026-07-23T02:10:30.000Z</time>
      </trkpt>
      <trkpt lat="36.807089" lon="-2.062107">
        <time>2026-07-23T02:10:30.000Z</time>
      </trkpt>
      <trkpt lat="36.806603" lon="-2.062456">
        <time>2026-07-23T02:10:30.000Z</time>
      </trkpt>
      <trkpt lat="36.806032" lon="-2.062769">
        <time>2026-07-23T02:10:30.000Z</time>
      </trkpt>
      <trkpt lat="36.805602" lon="-2.062967">
        <time>2026-07-23T02:10:30.000Z</time>
      </trkpt>
      <trkpt lat="36.805362" lon="-2.063184">
        <time>2026-07-23T02:10:30.000Z</time>
      </trkpt>
      <trkpt lat="36.80516" lon="-2.063195">
        <time>2026-07-23T02:10:30.000Z</time>
      </trkpt>
      <trkpt lat="36.804864" lon="-2.063168">
        <time>2026-07-23T02:10:30.000Z</time>
      </trkpt>
      <trkpt lat="36.804666" lon="-2.063093">
        <time>2026-07-23T02:10:30.000Z</time>
      </trkpt>
      <trkpt lat="36.804477" lon="-2.063119">
        <time>2026-07-23T02:10:30.000Z</time>
      </trkpt>
      <trkpt lat="36.804331" lon="-2.063393">
        <time>2026-07-23T02:10:30.000Z</time>
      </trkpt>
      <trkpt lat="36.804314" lon="-2.063801">
        <time>2026-07-23T02:10:30.000Z</time>
      </trkpt>
      <trkpt lat="36.804062" lon="-2.06409">
        <time>2026-07-23T02:10:30.000Z</time>
      </trkpt>
      <trkpt lat="36.803826" lon="-2.064055">
        <time>2026-07-23T02:10:30.000Z</time>
      </trkpt>
      <trkpt lat="36.803628" lon="-2.063422">
        <time>2026-07-23T02:10:30.000Z</time>
      </trkpt>
      <trkpt lat="36.802872" lon="-2.063336">
        <time>2026-07-23T02:10:30.000Z</time>
      </trkpt>
      <trkpt lat="36.802473" lon="-2.063339">
        <time>2026-07-23T02:10:30.000Z</time>
      </trkpt>
      <trkpt lat="36.802026" lon="-2.063538">
        <time>2026-07-23T02:10:30.000Z</time>
      </trkpt>
      <trkpt lat="36.801665" lon="-2.063468">
        <time>2026-07-23T02:10:30.000Z</time>
      </trkpt>
      <trkpt lat="36.801412" lon="-2.063286">
        <time>2026-07-23T02:10:30.000Z</time>
      </trkpt>
      <trkpt lat="36.801344" lon="-2.063193">
        <time>2026-07-23T02:10:30.000Z</time>
      </trkpt>
      <trkpt lat="36.80125" lon="-2.063279">
        <time>2026-07-23T02:10:30.000Z</time>
      </trkpt>
      <trkpt lat="36.800799" lon="-2.0633">
        <time>2026-07-23T02:10:30.000Z</time>
      </trkpt>
      <trkpt lat="36.800419" lon="-2.063282">
        <time>2026-07-23T02:10:30.000Z</time>
      </trkpt>
      <trkpt lat="36.800119" lon="-2.063432">
        <time>2026-07-23T02:10:30.000Z</time>
      </trkpt>
      <trkpt lat="36.7999" lon="-2.063518">
        <time>2026-07-23T02:10:30.000Z</time>
      </trkpt>
      <trkpt lat="36.799526" lon="-2.063422">
        <time>2026-07-23T02:10:30.000Z</time>
      </trkpt>
      <trkpt lat="36.799185" lon="-2.063368">
        <time>2026-07-23T02:10:30.000Z</time>
      </trkpt>
      <trkpt lat="36.798885" lon="-2.063336">
        <time>2026-07-23T02:10:30.000Z</time>
      </trkpt>
      <trkpt lat="36.798429" lon="-2.063325">
        <time>2026-07-23T02:10:30.000Z</time>
      </trkpt>
      <trkpt lat="36.798008" lon="-2.063314">
        <time>2026-07-23T02:10:30.000Z</time>
      </trkpt>
      <trkpt lat="36.797669" lon="-2.063309">
        <time>2026-07-23T02:10:30.000Z</time>
      </trkpt>
      <trkpt lat="36.797341" lon="-2.063395">
        <time>2026-07-23T02:10:30.000Z</time>
      </trkpt>
      <trkpt lat="36.796301" lon="-2.063352">
        <time>2026-07-23T02:10:30.000Z</time>
      </trkpt>
      <trkpt lat="36.795418" lon="-2.063397">
        <time>2026-07-23T02:10:30.000Z</time>
      </trkpt>
      <trkpt lat="36.794915" lon="-2.063418">
        <time>2026-07-23T02:10:30.000Z</time>
      </trkpt>
      <trkpt lat="36.794101" lon="-2.063445">
        <time>2026-07-23T02:10:30.000Z</time>
      </trkpt>
      <trkpt lat="36.793766" lon="-2.063434">
        <time>2026-07-23T02:10:30.000Z</time>
      </trkpt>
      <trkpt lat="36.793296" lon="-2.06345">
        <time>2026-07-23T02:10:30.000Z</time>
      </trkpt>
      <trkpt lat="36.793021" lon="-2.063622">
        <time>2026-07-23T02:10:30.000Z</time>
      </trkpt>
      <trkpt lat="36.79272" lon="-2.064051">
        <time>2026-07-23T02:10:30.000Z</time>
      </trkpt>
      <trkpt lat="36.792304" lon="-2.064484">
        <time>2026-07-23T02:10:30.000Z</time>
      </trkpt>
      <trkpt lat="36.791663" lon="-2.064398">
        <time>2026-07-23T02:10:30.000Z</time>
      </trkpt>
      <trkpt lat="36.790684" lon="-2.06408">
        <time>2026-07-23T02:10:30.000Z</time>
      </trkpt>
      <trkpt lat="36.789261" lon="-2.063522">
        <time>2026-07-23T02:10:30.000Z</time>
      </trkpt>
      <trkpt lat="36.78863" lon="-2.063245">
        <time>2026-07-23T02:10:30.000Z</time>
      </trkpt>
      <trkpt lat="36.787952" lon="-2.063443">
        <time>2026-07-23T02:10:30.000Z</time>
      </trkpt>
      <trkpt lat="36.787519" lon="-2.063819">
        <time>2026-07-23T02:10:30.000Z</time>
      </trkpt>
      <trkpt lat="36.787218" lon="-2.064291">
        <time>2026-07-23T02:10:30.000Z</time>
      </trkpt>
      <trkpt lat="36.786815" lon="-2.064666">
        <time>2026-07-23T02:10:30.000Z</time>
      </trkpt>
      <trkpt lat="36.786617" lon="-2.064773">
        <time>2026-07-23T02:10:30.000Z</time>
      </trkpt>
      <trkpt lat="36.786394" lon="-2.064752">
        <time>2026-07-23T02:10:30.000Z</time>
      </trkpt>
      <trkpt lat="36.785766" lon="-2.064562">
        <time>2026-07-23T02:10:30.000Z</time>
      </trkpt>
      <trkpt lat="36.785238" lon="-2.064326">
        <time>2026-07-23T02:10:30.000Z</time>
      </trkpt>
      <trkpt lat="36.784825" lon="-2.064443">
        <time>2026-07-23T02:10:30.000Z</time>
      </trkpt>
      <trkpt lat="36.784233" lon="-2.065129">
        <time>2026-07-23T02:10:30.000Z</time>
      </trkpt>
      <trkpt lat="36.783794" lon="-2.065609">
        <time>2026-07-23T02:10:30.000Z</time>
      </trkpt>
      <trkpt lat="36.783597" lon="-2.06571">
        <time>2026-07-23T02:10:30.000Z</time>
      </trkpt>
      <trkpt lat="36.782952" lon="-2.065727">
        <time>2026-07-23T02:10:30.000Z</time>
      </trkpt>
      <trkpt lat="36.781847" lon="-2.065578">
        <time>2026-07-23T02:10:30.000Z</time>
      </trkpt>
      <trkpt lat="36.781408" lon="-2.065315">
        <time>2026-07-23T02:10:30.000Z</time>
      </trkpt>
      <trkpt lat="36.780996" lon="-2.065172">
        <time>2026-07-23T02:10:30.000Z</time>
      </trkpt>
      <trkpt lat="36.780777" lon="-2.065204">
        <time>2026-07-23T02:10:30.000Z</time>
      </trkpt>
      <trkpt lat="36.780115" lon="-2.065494">
        <time>2026-07-23T02:10:30.000Z</time>
      </trkpt>
      <trkpt lat="36.779982" lon="-2.065805">
        <time>2026-07-23T02:10:30.000Z</time>
      </trkpt>
      <trkpt lat="36.780137" lon="-2.066481">
        <time>2026-07-23T02:10:30.000Z</time>
      </trkpt>
      <trkpt lat="36.780012" lon="-2.067103">
        <time>2026-07-23T02:10:30.000Z</time>
      </trkpt>
      <trkpt lat="36.780001" lon="-2.067547">
        <time>2026-07-23T02:10:30.000Z</time>
      </trkpt>
      <trkpt lat="36.780202" lon="-2.068169">
        <time>2026-07-23T02:10:30.000Z</time>
      </trkpt>
      <trkpt lat="36.779992" lon="-2.06848">
        <time>2026-07-23T02:10:30.000Z</time>
      </trkpt>
      <trkpt lat="36.779803" lon="-2.068448">
        <time>2026-07-23T02:10:30.000Z</time>
      </trkpt>
      <trkpt lat="36.779292" lon="-2.067885">
        <time>2026-07-23T02:10:30.000Z</time>
      </trkpt>
      <trkpt lat="36.778573" lon="-2.067363">
        <time>2026-07-23T02:10:30.000Z</time>
      </trkpt>
      <trkpt lat="36.778341" lon="-2.067497">
        <time>2026-07-23T02:10:30.000Z</time>
      </trkpt>
      <trkpt lat="36.778203" lon="-2.067663">
        <time>2026-07-23T02:10:30.000Z</time>
      </trkpt>
      <trkpt lat="36.778195" lon="-2.068012">
        <time>2026-07-23T02:10:30.000Z</time>
      </trkpt>
      <trkpt lat="36.778306" lon="-2.06843">
        <time>2026-07-23T02:10:30.000Z</time>
      </trkpt>
      <trkpt lat="36.778683" lon="-2.068959">
        <time>2026-07-23T02:10:30.000Z</time>
      </trkpt>
      <trkpt lat="36.778971" lon="-2.069651">
        <time>2026-07-23T02:10:30.000Z</time>
      </trkpt>
      <trkpt lat="36.779014" lon="-2.070006">
        <time>2026-07-23T02:10:30.000Z</time>
      </trkpt>
      <trkpt lat="36.778945" lon="-2.070295">
        <time>2026-07-23T02:10:30.000Z</time>
      </trkpt>
      <trkpt lat="36.778825" lon="-2.070547">
        <time>2026-07-23T02:10:30.000Z</time>
      </trkpt>
      <trkpt lat="36.778636" lon="-2.070665">
        <time>2026-07-23T02:10:30.000Z</time>
      </trkpt>
      <trkpt lat="36.778416" lon="-2.070698">
        <time>2026-07-23T02:10:30.000Z</time>
      </trkpt>
      <trkpt lat="36.778017" lon="-2.070681">
        <time>2026-07-23T02:10:30.000Z</time>
      </trkpt>
      <trkpt lat="36.777739" lon="-2.070853">
        <time>2026-07-23T02:10:30.000Z</time>
      </trkpt>
      <trkpt lat="36.777662" lon="-2.071143">
        <time>2026-07-23T02:10:30.000Z</time>
      </trkpt>
      <trkpt lat="36.777653" lon="-2.071438">
        <time>2026-07-23T02:10:30.000Z</time>
      </trkpt>
      <trkpt lat="36.777549" lon="-2.071849">
        <time>2026-07-23T02:10:30.000Z</time>
      </trkpt>
      <trkpt lat="36.777368" lon="-2.072062">
        <time>2026-07-23T02:10:30.000Z</time>
      </trkpt>
      <trkpt lat="36.776943" lon="-2.072529">
        <time>2026-07-23T02:10:30.000Z</time>
      </trkpt>
      <trkpt lat="36.776689" lon="-2.072824">
        <time>2026-07-23T02:10:30.000Z</time>
      </trkpt>
      <trkpt lat="36.77647" lon="-2.072893">
        <time>2026-07-23T02:10:30.000Z</time>
      </trkpt>
      <trkpt lat="36.776242" lon="-2.072926">
        <time>2026-07-23T02:10:30.000Z</time>
      </trkpt>
      <trkpt lat="36.776105" lon="-2.072872">
        <time>2026-07-23T02:10:30.000Z</time>
      </trkpt>
      <trkpt lat="36.77551" lon="-2.072795">
        <time>2026-07-23T02:10:30.000Z</time>
      </trkpt>
      <trkpt lat="36.775248" lon="-2.072908">
        <time>2026-07-23T02:10:30.000Z</time>
      </trkpt>
      <trkpt lat="36.774991" lon="-2.073069">
        <time>2026-07-23T02:10:30.000Z</time>
      </trkpt>
      <trkpt lat="36.774819" lon="-2.073217">
        <time>2026-07-23T02:10:30.000Z</time>
      </trkpt>
      <trkpt lat="36.774761" lon="-2.073403">
        <time>2026-07-23T02:10:30.000Z</time>
      </trkpt>
      <trkpt lat="36.774865" lon="-2.073628">
        <time>2026-07-23T02:10:30.000Z</time>
      </trkpt>
      <trkpt lat="36.775372" lon="-2.073961">
        <time>2026-07-23T02:10:30.000Z</time>
      </trkpt>
      <trkpt lat="36.775721" lon="-2.074208">
        <time>2026-07-23T02:10:30.000Z</time>
      </trkpt>
      <trkpt lat="36.775781" lon="-2.074347">
        <time>2026-07-23T02:10:30.000Z</time>
      </trkpt>
      <trkpt lat="36.775751" lon="-2.074562">
        <time>2026-07-23T02:10:30.000Z</time>
      </trkpt>
      <trkpt lat="36.775575" lon="-2.074862">
        <time>2026-07-23T02:10:30.000Z</time>
      </trkpt>
      <trkpt lat="36.775162" lon="-2.075323">
        <time>2026-07-23T02:10:30.000Z</time>
      </trkpt>
      <trkpt lat="36.774879" lon="-2.075286">
        <time>2026-07-23T02:10:30.000Z</time>
      </trkpt>
      <trkpt lat="36.774526" lon="-2.075114">
        <time>2026-07-23T02:10:30.000Z</time>
      </trkpt>
      <trkpt lat="36.774194" lon="-2.075127">
        <time>2026-07-23T02:10:30.000Z</time>
      </trkpt>
      <trkpt lat="36.774065" lon="-2.075497">
        <time>2026-07-23T02:10:30.000Z</time>
      </trkpt>
      <trkpt lat="36.774019" lon="-2.075933">
        <time>2026-07-23T02:10:30.000Z</time>
      </trkpt>
      <trkpt lat="36.774148" lon="-2.076486">
        <time>2026-07-23T02:10:30.000Z</time>
      </trkpt>
      <trkpt lat="36.77417" lon="-2.076754">
        <time>2026-07-23T02:10:30.000Z</time>
      </trkpt>
      <trkpt lat="36.774084" lon="-2.076952">
        <time>2026-07-23T02:10:30.000Z</time>
      </trkpt>
      <trkpt lat="36.773641" lon="-2.077178">
        <time>2026-07-23T02:10:30.000Z</time>
      </trkpt>
      <trkpt lat="36.773292" lon="-2.077507">
        <time>2026-07-23T02:10:30.000Z</time>
      </trkpt>
      <trkpt lat="36.773275" lon="-2.07777">
        <time>2026-07-23T02:10:30.000Z</time>
      </trkpt>
      <trkpt lat="36.773373" lon="-2.078328">
        <time>2026-07-23T02:10:30.000Z</time>
      </trkpt>
      <trkpt lat="36.773777" lon="-2.079175">
        <time>2026-07-23T02:10:30.000Z</time>
      </trkpt>
      <trkpt lat="36.773886" lon="-2.079399">
        <time>2026-07-23T02:10:30.000Z</time>
      </trkpt>
      <trkpt lat="36.773873" lon="-2.079645">
        <time>2026-07-23T02:10:30.000Z</time>
      </trkpt>
      <trkpt lat="36.77365" lon="-2.080107">
        <time>2026-07-23T02:10:30.000Z</time>
      </trkpt>
      <trkpt lat="36.772967" lon="-2.081094">
        <time>2026-07-23T02:10:30.000Z</time>
      </trkpt>
      <trkpt lat="36.772468" lon="-2.081861">
        <time>2026-07-23T02:10:30.000Z</time>
      </trkpt>
      <trkpt lat="36.772301" lon="-2.082247">
        <time>2026-07-23T02:10:30.000Z</time>
      </trkpt>
      <trkpt lat="36.772064" lon="-2.082392">
        <time>2026-07-23T02:10:30.000Z</time>
      </trkpt>
      <trkpt lat="36.771944" lon="-2.082354">
        <time>2026-07-23T02:10:30.000Z</time>
      </trkpt>
      <trkpt lat="36.77163" lon="-2.082193">
        <time>2026-07-23T02:10:30.000Z</time>
      </trkpt>
      <trkpt lat="36.770814" lon="-2.082324">
        <time>2026-07-23T02:10:30.000Z</time>
      </trkpt>
      <trkpt lat="36.770436" lon="-2.082415">
        <time>2026-07-23T02:10:30.000Z</time>
      </trkpt>
      <trkpt lat="36.770287" lon="-2.082517">
        <time>2026-07-23T02:10:30.000Z</time>
      </trkpt>
      <trkpt lat="36.769788" lon="-2.083579">
        <time>2026-07-23T02:10:30.000Z</time>
      </trkpt>
      <trkpt lat="36.769685" lon="-2.083683">
        <time>2026-07-23T02:10:30.000Z</time>
      </trkpt>
      <trkpt lat="36.769518" lon="-2.083683">
        <time>2026-07-23T02:10:30.000Z</time>
      </trkpt>
      <trkpt lat="36.769247" lon="-2.083592">
        <time>2026-07-23T02:10:30.000Z</time>
      </trkpt>
      <trkpt lat="36.769092" lon="-2.083426">
        <time>2026-07-23T02:10:30.000Z</time>
      </trkpt>
      <trkpt lat="36.76892" lon="-2.08334">
        <time>2026-07-23T02:10:30.000Z</time>
      </trkpt>
      <trkpt lat="36.768101" lon="-2.083198">
        <time>2026-07-23T02:10:30.000Z</time>
      </trkpt>
      <trkpt lat="36.767955" lon="-2.083336">
        <time>2026-07-23T02:10:30.000Z</time>
      </trkpt>
      <trkpt lat="36.767912" lon="-2.083615">
        <time>2026-07-23T02:10:30.000Z</time>
      </trkpt>
      <trkpt lat="36.76777" lon="-2.083846">
        <time>2026-07-23T02:10:30.000Z</time>
      </trkpt>
      <trkpt lat="36.76762" lon="-2.083991">
        <time>2026-07-23T02:10:30.000Z</time>
      </trkpt>
      <trkpt lat="36.767388" lon="-2.084087">
        <time>2026-07-23T02:10:30.000Z</time>
      </trkpt>
      <trkpt lat="36.767164" lon="-2.084355">
        <time>2026-07-23T02:10:30.000Z</time>
      </trkpt>
      <trkpt lat="36.766984" lon="-2.084827">
        <time>2026-07-23T02:10:30.000Z</time>
      </trkpt>
      <trkpt lat="36.766743" lon="-2.085049">
        <time>2026-07-23T02:10:30.000Z</time>
      </trkpt>
      <trkpt lat="36.766558" lon="-2.085425">
        <time>2026-07-23T02:10:30.000Z</time>
      </trkpt>
      <trkpt lat="36.766459" lon="-2.085543">
        <time>2026-07-23T02:10:30.000Z</time>
      </trkpt>
      <trkpt lat="36.766253" lon="-2.08565">
        <time>2026-07-23T02:10:30.000Z</time>
      </trkpt>
      <trkpt lat="36.76603" lon="-2.085929">
        <time>2026-07-23T02:10:30.000Z</time>
      </trkpt>
      <trkpt lat="36.76558" lon="-2.086748">
        <time>2026-07-23T02:10:30.000Z</time>
      </trkpt>
      <trkpt lat="36.765447" lon="-2.08715">
        <time>2026-07-23T02:10:30.000Z</time>
      </trkpt>
      <trkpt lat="36.765305" lon="-2.08744">
        <time>2026-07-23T02:10:30.000Z</time>
      </trkpt>
      <trkpt lat="36.765142" lon="-2.087622">
        <time>2026-07-23T02:10:30.000Z</time>
      </trkpt>
      <trkpt lat="36.765111" lon="-2.088228">
        <time>2026-07-23T02:10:30.000Z</time>
      </trkpt>
      <trkpt lat="36.765169" lon="-2.088549">
        <time>2026-07-23T02:10:30.000Z</time>
      </trkpt>
      <trkpt lat="36.765104" lon="-2.088951">
        <time>2026-07-23T02:10:30.000Z</time>
      </trkpt>
      <trkpt lat="36.765048" lon="-2.089144">
        <time>2026-07-23T02:10:30.000Z</time>
      </trkpt>
      <trkpt lat="36.765878" lon="-2.08967">
        <time>2026-07-23T02:10:30.000Z</time>
      </trkpt>
      <trkpt lat="36.766148594605" lon="-2.08980993602335">
        <time>2026-07-23T02:10:30.000Z</time>
      </trkpt>
      <trkpt lat="36.7663135783379" lon="-2.08998090846526">
        <time>2026-07-23T02:10:30.000Z</time>
      </trkpt>
      <trkpt lat="36.7664614956195" lon="-2.09006053591764">
        <time>2026-07-23T02:10:30.000Z</time>
      </trkpt>
      <trkpt lat="36.7666170513653" lon="-2.09006886977519">
        <time>2026-07-23T02:10:30.000Z</time>
      </trkpt>
      <trkpt lat="36.7667169592176" lon="-2.09029147241584">
        <time>2026-07-23T02:10:30.000Z</time>
      </trkpt>
      <trkpt lat="36.7667189033126" lon="-2.09054574852327">
        <time>2026-07-23T02:10:30.000Z</time>
      </trkpt>
      <trkpt lat="36.7665889852057" lon="-2.09067951815525">
        <time>2026-07-23T02:10:30.000Z</time>
      </trkpt>
      <trkpt lat="36.7666561597183" lon="-2.09090250794896">
        <time>2026-07-23T02:10:30.000Z</time>
      </trkpt>
      <trkpt lat="36.7666823408523" lon="-2.09111581000068">
        <time>2026-07-23T02:10:30.000Z</time>
      </trkpt>
      <trkpt lat="36.7667401661269" lon="-2.09118633127366">
        <time>2026-07-23T02:10:30.000Z</time>
      </trkpt>
      <trkpt lat="36.766888082629" lon="-2.0912659614825">
        <time>2026-07-23T02:10:30.000Z</time>
      </trkpt>
      <trkpt lat="36.7668315004506" lon="-2.09135817700183">
        <time>2026-07-23T02:10:30.000Z</time>
      </trkpt>
      <trkpt lat="36.7667168600286" lon="-2.09134935773986">
        <time>2026-07-23T02:10:30.000Z</time>
      </trkpt>
      <trkpt lat="36.7660272304022" lon="-2.09106251067081">
        <time>2026-07-23T02:10:30.000Z</time>
      </trkpt>
      <trkpt lat="36.7659370614014" lon="-2.09104323121668">
        <time>2026-07-23T02:10:30.000Z</time>
      </trkpt>
      <trkpt lat="36.765855386285" lon="-2.09106453894565">
        <time>2026-07-23T02:10:30.000Z</time>
      </trkpt>
      <trkpt lat="36.7658078419288" lon="-2.09126853697192">
        <time>2026-07-23T02:10:30.000Z</time>
      </trkpt>
      <trkpt lat="36.7657692569498" lon="-2.09157414743343">
        <time>2026-07-23T02:10:30.000Z</time>
      </trkpt>
      <trkpt lat="36.7656607270149" lon="-2.09182972328464">
        <time>2026-07-23T02:10:30.000Z</time>
      </trkpt>
      <trkpt lat="36.7655974749897" lon="-2.09212036596673">
        <time>2026-07-23T02:10:30.000Z</time>
      </trkpt>
      <trkpt lat="36.7654159558662" lon="-2.09246326095013">
        <time>2026-07-23T02:10:30.000Z</time>
      </trkpt>
      <trkpt lat="36.7654228883768" lon="-2.09256744013578">
        <time>2026-07-23T02:10:30.000Z</time>
      </trkpt>
      <trkpt lat="36.7658000361251" lon="-2.09292663947523">
        <time>2026-07-23T02:10:30.000Z</time>
      </trkpt>
      <trkpt lat="36.7660558819219" lon="-2.09320843848596">
        <time>2026-07-23T02:10:30.000Z</time>
      </trkpt>
      <trkpt lat="36.7663963567934" lon="-2.09385670384979">
        <time>2026-07-23T02:10:30.000Z</time>
      </trkpt>
      <trkpt lat="36.7665635806589" lon="-2.09432264562079">
        <time>2026-07-23T02:10:30.000Z</time>
      </trkpt>
      <trkpt lat="36.7667122306275" lon="-2.09449890674466">
        <time>2026-07-23T02:10:30.000Z</time>
      </trkpt>
      <trkpt lat="36.7675558598691" lon="-2.09459070731784">
        <time>2026-07-23T02:10:30.000Z</time>
      </trkpt>
      <trkpt lat="36.7684315245242" lon="-2.09459058333104">
        <time>2026-07-23T02:10:30.000Z</time>
      </trkpt>
      <trkpt lat="36.7686229079599" lon="-2.09500539392536">
        <time>2026-07-23T02:10:30.000Z</time>
      </trkpt>
      <trkpt lat="36.7686910026844" lon="-2.09535044934016">
        <time>2026-07-23T02:10:30.000Z</time>
      </trkpt>
      <trkpt lat="36.7689399741616" lon="-2.09580527600756">
        <time>2026-07-23T02:10:30.000Z</time>
      </trkpt>
      <trkpt lat="36.7689697009827" lon="-2.09648646868611">
        <time>2026-07-23T02:10:30.000Z</time>
      </trkpt>
      <trkpt lat="36.7691134464283" lon="-2.09709511905912">
        <time>2026-07-23T02:10:30.000Z</time>
      </trkpt>
      <trkpt lat="36.7691694936098" lon="-2.09726880363384">
        <time>2026-07-23T02:10:30.000Z</time>
      </trkpt>
      <trkpt lat="36.7693598831926" lon="-2.09871330120644">
        <time>2026-07-23T02:10:30.000Z</time>
      </trkpt>
      <trkpt lat="36.7696033052533" lon="-2.10075999236916">
        <time>2026-07-23T02:10:30.000Z</time>
      </trkpt>
      <trkpt lat="36.7698461467477" lon="-2.10273436658499">
        <time>2026-07-23T02:10:30.000Z</time>
      </trkpt>
      <trkpt lat="36.7695542174468" lon="-2.1038951555752">
        <time>2026-07-23T02:10:30.000Z</time>
      </trkpt>
      <trkpt lat="36.7695019654771" lon="-2.10404043697799">
        <time>2026-07-23T02:10:30.000Z</time>
      </trkpt>
      <trkpt lat="36.7692832053122" lon="-2.10397064600447">
        <time>2026-07-23T02:10:30.000Z</time>
      </trkpt>
      <trkpt lat="36.768771" lon="-2.104443">
        <time>2026-07-23T02:10:30.000Z</time>
      </trkpt>
      <trkpt lat="36.767847" lon="-2.105398">
        <time>2026-07-23T02:10:30.000Z</time>
      </trkpt>
      <trkpt lat="36.767276" lon="-2.106208">
        <time>2026-07-23T02:10:30.000Z</time>
      </trkpt>
      <trkpt lat="36.766919" lon="-2.106589">
        <time>2026-07-23T02:10:30.000Z</time>
      </trkpt>
      <trkpt lat="36.766922" lon="-2.106599">
        <time>2026-07-23T02:10:30.000Z</time>
      </trkpt>
      <trkpt lat="36.766915" lon="-2.106604">
        <time>2026-07-23T02:10:30.000Z</time>
      </trkpt>
      <trkpt lat="36.766627" lon="-2.106842">
        <time>2026-07-23T02:10:30.000Z</time>
      </trkpt>
      <trkpt lat="36.766447" lon="-2.106915">
        <time>2026-07-23T02:10:30.000Z</time>
      </trkpt>
      <trkpt lat="36.7664" lon="-2.106983">
        <time>2026-07-23T02:10:30.000Z</time>
      </trkpt>
      <trkpt lat="36.766344" lon="-2.107146">
        <time>2026-07-23T02:10:30.000Z</time>
      </trkpt>
      <trkpt lat="36.76614" lon="-2.107318">
        <time>2026-07-23T02:10:30.000Z</time>
      </trkpt>
      <trkpt lat="36.765898" lon="-2.107487">
        <time>2026-07-23T02:10:30.000Z</time>
      </trkpt>
      <trkpt lat="36.765547" lon="-2.107768">
        <time>2026-07-23T02:10:30.000Z</time>
      </trkpt>
      <trkpt lat="36.765482" lon="-2.10782">
        <time>2026-07-23T02:10:30.000Z</time>
      </trkpt>
      <trkpt lat="36.765343" lon="-2.107932">
        <time>2026-07-23T02:10:30.000Z</time>
      </trkpt>
      <trkpt lat="36.765105" lon="-2.108146">
        <time>2026-07-23T02:10:30.000Z</time>
      </trkpt>
      <trkpt lat="36.764903" lon="-2.108323">
        <time>2026-07-23T02:10:30.000Z</time>
      </trkpt>
      <trkpt lat="36.764192" lon="-2.107771">
        <time>2026-07-23T02:10:30.000Z</time>
      </trkpt>
      <trkpt lat="36.763826" lon="-2.107464">
        <time>2026-07-23T02:10:30.000Z</time>
      </trkpt>
      <trkpt lat="36.763417" lon="-2.107123">
        <time>2026-07-23T02:10:30.000Z</time>
      </trkpt>
      <trkpt lat="36.763255" lon="-2.106984">
        <time>2026-07-23T02:10:30.000Z</time>
      </trkpt>
      <trkpt lat="36.763092" lon="-2.107242">
        <time>2026-07-23T02:10:30.000Z</time>
      </trkpt>
      <trkpt lat="36.762883" lon="-2.107502">
        <time>2026-07-23T02:10:30.000Z</time>
      </trkpt>
      <trkpt lat="36.762834" lon="-2.107559">
        <time>2026-07-23T02:10:30.000Z</time>
      </trkpt>
      <trkpt lat="36.762575" lon="-2.107878">
        <time>2026-07-23T02:10:30.000Z</time>
      </trkpt>
      <trkpt lat="36.762402" lon="-2.108123">
        <time>2026-07-23T02:10:30.000Z</time>
      </trkpt>
      <trkpt lat="36.762388" lon="-2.108141">
        <time>2026-07-23T02:10:30.000Z</time>
      </trkpt>
      <trkpt lat="36.762381" lon="-2.10813">
        <time>2026-07-23T02:10:30.000Z</time>
      </trkpt>
      <trkpt lat="36.762388" lon="-2.108141">
        <time>2026-07-23T02:10:30.000Z</time>
      </trkpt>
      <trkpt lat="36.762402" lon="-2.108123">
        <time>2026-07-23T02:10:30.000Z</time>
      </trkpt>
      <trkpt lat="36.762424" lon="-2.108149">
        <time>2026-07-23T02:10:30.000Z</time>
      </trkpt>
      <trkpt lat="36.762515" lon="-2.108293">
        <time>2026-07-23T02:10:30.000Z</time>
      </trkpt>
      <trkpt lat="36.762477" lon="-2.108333">
        <time>2026-07-23T02:10:30.000Z</time>
      </trkpt>
      <trkpt lat="36.762504" lon="-2.108373">
        <time>2026-07-23T02:10:30.000Z</time>
      </trkpt>
      <trkpt lat="36.762531" lon="-2.108412">
        <time>2026-07-23T02:10:30.000Z</time>
      </trkpt>
    </trkseg>
  </trk>
  <trk>
    <name>San José - La Fabriquilla - Wikiloc</name>
    <trkseg>
      <trkpt lat="36.762513" lon="-2.108387">
        <time>2026-07-23T02:10:30.000Z</time>
      </trkpt>
      <trkpt lat="36.762504" lon="-2.108373">
        <time>2026-07-23T02:10:30.000Z</time>
      </trkpt>
      <trkpt lat="36.762477" lon="-2.108333">
        <time>2026-07-23T02:10:30.000Z</time>
      </trkpt>
    </trkseg>
  </trk>
</gpx>
