<?xml version="1.0" encoding="UTF-8"?>
<gpx creator="Wikiloc - https://www.wikiloc.com" version="1.1" schemaLocation="http://www.topografix.com/GPX/1/1 http://www.topografix.com/GPX/1/1/gpx.xsd" xmlns="http://www.topografix.com/GPX/1/1" xmlns:xsi="http://www.w3.org/2001/XMLSchema-instance" xsi:schemaLocation="http://www.topografix.com/GPX/1/1 http://www.topografix.com/GPX/1/1/gpx.xsd http://www.garmin.com/xmlschemas/GpxExtensions/v3 http://www.garmin.com/xmlschemas/GpxExtensionsv3.xsd http://www.garmin.com/xmlschemas/TrackPointExtension/v1 http://www.garmin.com/xmlschemas/TrackPointExtensionv1.xsd http://www.garmin.com/xmlschemas/PowerExtension/v1 http://www.garmin.com/xmlschemas/PowerExtensionv1.xsd http://www.topografix.com/GPX/gpx_style/0/2 http://www.topografix.com/GPX/gpx_style/0/2/gpx_style.xsd" xmlns:gpxtpx="http://www.garmin.com/xmlschemas/TrackPointExtension/v1" xmlns:gpxx="http://www.garmin.com/xmlschemas/GpxExtensions/v3" xmlns:gpxpx="http://www.garmin.com/xmlschemas/PowerExtension/v1" xmlns:gpx_style="http://www.topografix.com/GPX/gpx_style/0/2">
  <metadata>
    <name>Wikiloc - Las Negras - Lobos - Rodalquilar</name>
    <author>
      <name>gpx.studio</name>
      <link href="https://gpx.studio"/>
    </author>
    <link href="https://www.wikiloc.com/hiking-trails/las-negras-lobos-rodalquilar-115892248">
      <text>Las Negras - Lobos - Rodalquilar on Wikiloc</text>
    </link>
  </metadata>
  <wpt lat="36.854853" lon="-2.014983">
    <ele>13.886034236619786</ele>
    <name>Torre de los Alumbres</name>
  </wpt>
  <wpt lat="36.840657" lon="-2.003306">
    <ele>242.78486510051647</ele>
    <name>Torre de los Lobos</name>
  </wpt>
  <wpt lat="36.866267" lon="-2.003953">
    <ele>23.79726885092914</ele>
    <name>Castillo de San Ramón</name>
  </wpt>
  <trk>
    <name>Las Negras - Lobos - Rodalquilar - Wikiloc</name>
    <trkseg>
      <trkpt lat="36.87946" lon="-2.004434">
        <ele>7.25</ele>
        <extensions>
          <gpxtpx:TrackPointExtension>
            <gpxtpx:Extensions>
              <highway>residential</highway>
              <surface>asphalt</surface>
              <oneway>yes</oneway>
            </gpxtpx:Extensions>
          </gpxtpx:TrackPointExtension>
        </extensions>
      </trkpt>
      <trkpt lat="36.879431" lon="-2.004459">
        <ele>7.25</ele>
        <extensions>
          <gpxtpx:TrackPointExtension>
            <gpxtpx:Extensions>
              <reversedirection>yes</reversedirection>
              <highway>residential</highway>
              <surface>asphalt</surface>
            </gpxtpx:Extensions>
          </gpxtpx:TrackPointExtension>
        </extensions>
      </trkpt>
      <trkpt lat="36.879349" lon="-2.004528">
        <ele>7.5</ele>
        <extensions>
          <gpxtpx:TrackPointExtension>
            <gpxtpx:Extensions>
              <reversedirection>yes</reversedirection>
              <highway>residential</highway>
              <surface>asphalt</surface>
            </gpxtpx:Extensions>
          </gpxtpx:TrackPointExtension>
        </extensions>
      </trkpt>
      <trkpt lat="36.879128" lon="-2.004526">
        <ele>7</ele>
        <extensions>
          <gpxtpx:TrackPointExtension>
            <gpxtpx:Extensions>
              <reversedirection>yes</reversedirection>
              <highway>residential</highway>
              <surface>asphalt</surface>
            </gpxtpx:Extensions>
          </gpxtpx:TrackPointExtension>
        </extensions>
      </trkpt>
      <trkpt lat="36.878901" lon="-2.004494">
        <ele>6</ele>
        <extensions>
          <gpxtpx:TrackPointExtension>
            <gpxtpx:Extensions>
              <reversedirection>yes</reversedirection>
              <highway>residential</highway>
              <surface>asphalt</surface>
            </gpxtpx:Extensions>
          </gpxtpx:TrackPointExtension>
        </extensions>
      </trkpt>
      <trkpt lat="36.878795" lon="-2.004487">
        <ele>5.5</ele>
        <extensions>
          <gpxtpx:TrackPointExtension>
            <gpxtpx:Extensions>
              <reversedirection>yes</reversedirection>
              <highway>residential</highway>
              <surface>asphalt</surface>
            </gpxtpx:Extensions>
          </gpxtpx:TrackPointExtension>
        </extensions>
      </trkpt>
      <trkpt lat="36.878741" lon="-2.00452">
        <ele>5.5</ele>
        <extensions>
          <gpxtpx:TrackPointExtension>
            <gpxtpx:Extensions>
              <reversedirection>yes</reversedirection>
              <highway>residential</highway>
              <surface>asphalt</surface>
            </gpxtpx:Extensions>
          </gpxtpx:TrackPointExtension>
        </extensions>
      </trkpt>
      <trkpt lat="36.87845" lon="-2.004772">
        <ele>5.75</ele>
        <extensions>
          <gpxtpx:TrackPointExtension>
            <gpxtpx:Extensions>
              <reversedirection>yes</reversedirection>
              <highway>residential</highway>
              <surface>asphalt</surface>
            </gpxtpx:Extensions>
          </gpxtpx:TrackPointExtension>
        </extensions>
      </trkpt>
      <trkpt lat="36.87838" lon="-2.004849">
        <ele>6</ele>
        <extensions>
          <gpxtpx:TrackPointExtension>
            <gpxtpx:Extensions>
              <highway>track</highway>
              <tracktype>grade1</tracktype>
              <surface>paving_stones</surface>
            </gpxtpx:Extensions>
          </gpxtpx:TrackPointExtension>
        </extensions>
      </trkpt>
      <trkpt lat="36.878278" lon="-2.004464">
        <ele>4</ele>
        <extensions>
          <gpxtpx:TrackPointExtension>
            <gpxtpx:Extensions>
              <highway>track</highway>
              <tracktype>grade2</tracktype>
              <surface>compacted</surface>
            </gpxtpx:Extensions>
          </gpxtpx:TrackPointExtension>
        </extensions>
      </trkpt>
      <trkpt lat="36.878229" lon="-2.004467">
        <ele>4.25</ele>
      </trkpt>
      <trkpt lat="36.87823" lon="-2.004458">
        <ele>3.709</ele>
      </trkpt>
      <trkpt lat="36.878067" lon="-2.004608">
        <ele>3.666</ele>
      </trkpt>
      <trkpt lat="36.878059" lon="-2.00493">
        <ele>6.236</ele>
      </trkpt>
      <trkpt lat="36.877793" lon="-2.005123">
        <ele>11.15</ele>
      </trkpt>
      <trkpt lat="36.877638" lon="-2.00464">
        <ele>6.913</ele>
      </trkpt>
      <trkpt lat="36.877509" lon="-2.004533">
        <ele>7.514</ele>
      </trkpt>
      <trkpt lat="36.876891" lon="-2.004769">
        <ele>17.977</ele>
      </trkpt>
      <trkpt lat="36.876136" lon="-2.004769">
        <ele>25.437</ele>
      </trkpt>
      <trkpt lat="36.875733" lon="-2.004522">
        <ele>27.249</ele>
      </trkpt>
      <trkpt lat="36.875038" lon="-2.004415">
        <ele>35.683</ele>
      </trkpt>
      <trkpt lat="36.87436" lon="-2.004061">
        <ele>24.735</ele>
      </trkpt>
      <trkpt lat="36.874008" lon="-2.004286">
        <ele>32.286</ele>
      </trkpt>
      <trkpt lat="36.87375" lon="-2.004286">
        <ele>27.514</ele>
      </trkpt>
      <trkpt lat="36.87327" lon="-2.004672">
        <ele>24.809</ele>
      </trkpt>
      <trkpt lat="36.873124" lon="-2.004973">
        <ele>24.734</ele>
      </trkpt>
      <trkpt lat="36.873012" lon="-2.004994">
        <ele>20.924</ele>
      </trkpt>
      <trkpt lat="36.872995" lon="-2.004844">
        <ele>18.688</ele>
      </trkpt>
      <trkpt lat="36.87315" lon="-2.004404">
        <ele>17.851</ele>
      </trkpt>
      <trkpt lat="36.873072" lon="-2.004243">
        <ele>16.142</ele>
      </trkpt>
      <trkpt lat="36.872901" lon="-2.004404">
        <ele>14.745</ele>
      </trkpt>
      <trkpt lat="36.872532" lon="-2.005316">
        <ele>13.775</ele>
      </trkpt>
      <trkpt lat="36.872373" lon="-2.005337">
        <ele>10.937</ele>
      </trkpt>
      <trkpt lat="36.87224" lon="-2.005075">
        <ele>6.721</ele>
      </trkpt>
      <trkpt lat="36.872235" lon="-2.004667">
        <ele>6.025</ele>
      </trkpt>
      <trkpt lat="36.87218" lon="-2.004055">
        <ele>2.526</ele>
      </trkpt>
      <trkpt lat="36.87221" lon="-2.003653">
        <ele>3.708</ele>
      </trkpt>
      <trkpt lat="36.87227" lon="-2.003342">
        <ele>6.909</ele>
      </trkpt>
      <trkpt lat="36.872296" lon="-2.002988">
        <ele>8.943</ele>
      </trkpt>
      <trkpt lat="36.872253" lon="-2.00287">
        <ele>10.523</ele>
      </trkpt>
      <trkpt lat="36.87218" lon="-2.00272">
        <ele>14.367</ele>
      </trkpt>
      <trkpt lat="36.872111" lon="-2.002655">
        <ele>18.12</ele>
      </trkpt>
      <trkpt lat="36.871987" lon="-2.002612">
        <ele>24.221</ele>
      </trkpt>
      <trkpt lat="36.871871" lon="-2.002612">
        <ele>28.164</ele>
      </trkpt>
      <trkpt lat="36.871763" lon="-2.002704">
        <ele>31.074</ele>
      </trkpt>
      <trkpt lat="36.871768" lon="-2.002596">
        <ele>30.946</ele>
      </trkpt>
      <trkpt lat="36.871626" lon="-2.002704">
        <ele>35.45</ele>
      </trkpt>
      <trkpt lat="36.871467" lon="-2.00294">
        <ele>39.235</ele>
      </trkpt>
      <trkpt lat="36.871223" lon="-2.003181">
        <ele>46.086</ele>
      </trkpt>
      <trkpt lat="36.871012" lon="-2.003326">
        <ele>51.914</ele>
      </trkpt>
      <trkpt lat="36.870806" lon="-2.003337">
        <ele>59.209</ele>
      </trkpt>
      <trkpt lat="36.870695" lon="-2.003288">
        <ele>61.644</ele>
      </trkpt>
      <trkpt lat="36.870493" lon="-2.003331">
        <ele>63.364</ele>
      </trkpt>
      <trkpt lat="36.870321" lon="-2.003326">
        <ele>64.548</ele>
      </trkpt>
      <trkpt lat="36.869982" lon="-2.00331">
        <ele>60.241</ele>
      </trkpt>
      <trkpt lat="36.869875" lon="-2.003331">
        <ele>59.092</ele>
      </trkpt>
      <trkpt lat="36.869639" lon="-2.003449">
        <ele>61.095</ele>
      </trkpt>
      <trkpt lat="36.869433" lon="-2.003342">
        <ele>56.555</ele>
      </trkpt>
      <trkpt lat="36.869287" lon="-2.003283">
        <ele>56.487</ele>
      </trkpt>
      <trkpt lat="36.869167" lon="-2.003272">
        <ele>57.831</ele>
      </trkpt>
      <trkpt lat="36.868867" lon="-2.003294">
        <ele>59.743</ele>
      </trkpt>
      <trkpt lat="36.868635" lon="-2.003202">
        <ele>54.764</ele>
      </trkpt>
      <trkpt lat="36.868601" lon="-2.003181">
        <ele>54.01</ele>
      </trkpt>
      <trkpt lat="36.86851" lon="-2.00317">
        <ele>54.009</ele>
      </trkpt>
      <trkpt lat="36.868304" lon="-2.003154">
        <ele>53.865</ele>
      </trkpt>
      <trkpt lat="36.868214" lon="-2.003213">
        <ele>54.745</ele>
      </trkpt>
      <trkpt lat="36.868133" lon="-2.003363">
        <ele>57.339</ele>
      </trkpt>
      <trkpt lat="36.867983" lon="-2.003438">
        <ele>56.322</ele>
      </trkpt>
      <trkpt lat="36.867699" lon="-2.003599">
        <ele>55.483</ele>
      </trkpt>
      <trkpt lat="36.867386" lon="-2.00353">
        <ele>47.266</ele>
      </trkpt>
      <trkpt lat="36.867262" lon="-2.003615">
        <ele>45.116</ele>
      </trkpt>
      <trkpt lat="36.867013" lon="-2.003701">
        <ele>39.428</ele>
      </trkpt>
      <trkpt lat="36.866927" lon="-2.003707">
        <ele>37.552</ele>
      </trkpt>
      <trkpt lat="36.866738" lon="-2.003664">
        <ele>32.949</ele>
      </trkpt>
      <trkpt lat="36.866116" lon="-2.003996">
        <ele>23.202</ele>
      </trkpt>
      <trkpt lat="36.865953" lon="-2.004431">
        <ele>22.722</ele>
      </trkpt>
      <trkpt lat="36.865768" lon="-2.004731">
        <ele>23.309</ele>
      </trkpt>
      <trkpt lat="36.865562" lon="-2.004908">
        <ele>24.135</ele>
      </trkpt>
      <trkpt lat="36.865476" lon="-2.005005">
        <ele>24.655</ele>
      </trkpt>
      <trkpt lat="36.865408" lon="-2.005064">
        <ele>24.399</ele>
      </trkpt>
      <trkpt lat="36.865283" lon="-2.005021">
        <ele>21.332</ele>
      </trkpt>
      <trkpt lat="36.865167" lon="-2.005016">
        <ele>21.133</ele>
      </trkpt>
      <trkpt lat="36.864798" lon="-2.005278">
        <ele>23.446</ele>
      </trkpt>
      <trkpt lat="36.864429" lon="-2.005568">
        <ele>21.856</ele>
      </trkpt>
      <trkpt lat="36.864386" lon="-2.005729">
        <ele>22.448</ele>
      </trkpt>
      <trkpt lat="36.86448" lon="-2.005906">
        <ele>25.582</ele>
      </trkpt>
      <trkpt lat="36.864493" lon="-2.006067">
        <ele>28.113</ele>
      </trkpt>
      <trkpt lat="36.864489" lon="-2.006233">
        <ele>30.743</ele>
      </trkpt>
      <trkpt lat="36.864489" lon="-2.00633">
        <ele>32.307</ele>
      </trkpt>
      <trkpt lat="36.864472" lon="-2.006453">
        <ele>33.809</ele>
      </trkpt>
      <trkpt lat="36.864463" lon="-2.006598">
        <ele>35.242</ele>
      </trkpt>
      <trkpt lat="36.864414" lon="-2.006579">
        <ele>35.092</ele>
      </trkpt>
      <trkpt lat="36.864313" lon="-2.006512">
        <ele>34.236</ele>
      </trkpt>
      <trkpt lat="36.864244" lon="-2.006392">
        <ele>31.459</ele>
      </trkpt>
      <trkpt lat="36.864174" lon="-2.006349">
        <ele>29.87</ele>
      </trkpt>
      <trkpt lat="36.864047" lon="-2.006284">
        <ele>27.863</ele>
      </trkpt>
      <trkpt lat="36.863944" lon="-2.006276">
        <ele>27.353</ele>
      </trkpt>
      <trkpt lat="36.863646" lon="-2.006231">
        <ele>24.585</ele>
      </trkpt>
      <trkpt lat="36.863345" lon="-2.006067">
        <ele>21.199</ele>
      </trkpt>
      <trkpt lat="36.863255" lon="-2.006054">
        <ele>20.654</ele>
      </trkpt>
      <trkpt lat="36.863008" lon="-2.005799">
        <ele>14.956</ele>
      </trkpt>
      <trkpt lat="36.862614" lon="-2.005734">
        <ele>11.511</ele>
      </trkpt>
      <trkpt lat="36.86233" lon="-2.005579">
        <ele>9.209</ele>
      </trkpt>
      <trkpt lat="36.862086" lon="-2.005826">
        <ele>9.626</ele>
      </trkpt>
      <trkpt lat="36.861965" lon="-2.006115">
        <ele>10.836</ele>
      </trkpt>
      <trkpt lat="36.862098" lon="-2.006603">
        <ele>13.93</ele>
      </trkpt>
      <trkpt lat="36.862026" lon="-2.006813">
        <ele>15.273</ele>
      </trkpt>
      <trkpt lat="36.861755" lon="-2.006931">
        <ele>12.084</ele>
      </trkpt>
      <trkpt lat="36.861489" lon="-2.007043">
        <ele>10.237</ele>
      </trkpt>
      <trkpt lat="36.861257" lon="-2.007108">
        <ele>8.247</ele>
      </trkpt>
      <trkpt lat="36.86112" lon="-2.007097">
        <ele>5.939</ele>
      </trkpt>
      <trkpt lat="36.860961" lon="-2.007199">
        <ele>7.373</ele>
      </trkpt>
      <trkpt lat="36.860656" lon="-2.007414">
        <ele>8.872</ele>
      </trkpt>
      <trkpt lat="36.860437" lon="-2.007435">
        <ele>7.713</ele>
      </trkpt>
      <trkpt lat="36.86027" lon="-2.007349">
        <ele>5.414</ele>
      </trkpt>
      <trkpt lat="36.860043" lon="-2.007317">
        <ele>2.409</ele>
      </trkpt>
      <trkpt lat="36.859716" lon="-2.00707">
        <ele>0.528</ele>
      </trkpt>
      <trkpt lat="36.859322" lon="-2.006861">
        <ele>-0.598</ele>
      </trkpt>
      <trkpt lat="36.85918" lon="-2.006834">
        <ele>-0.342</ele>
      </trkpt>
      <trkpt lat="36.858841" lon="-2.006738">
        <ele>0.745</ele>
      </trkpt>
      <trkpt lat="36.858493" lon="-2.006636">
        <ele>1.716</ele>
      </trkpt>
      <trkpt lat="36.857789" lon="-2.006416">
        <ele>3.569</ele>
      </trkpt>
      <trkpt lat="36.857618" lon="-2.006421">
        <ele>4.089</ele>
      </trkpt>
      <trkpt lat="36.857476" lon="-2.006491">
        <ele>4.091</ele>
      </trkpt>
      <trkpt lat="36.857261" lon="-2.00662">
        <ele>4.585</ele>
      </trkpt>
      <trkpt lat="36.85712" lon="-2.006743">
        <ele>5.084</ele>
      </trkpt>
      <trkpt lat="36.856901" lon="-2.006791">
        <ele>6.107</ele>
      </trkpt>
      <trkpt lat="36.856725" lon="-2.006679">
        <ele>6.517</ele>
      </trkpt>
      <trkpt lat="36.856682" lon="-2.006582">
        <ele>6.609</ele>
      </trkpt>
      <trkpt lat="36.856798" lon="-2.006384">
        <ele>7.119</ele>
      </trkpt>
      <trkpt lat="36.856806" lon="-2.006303">
        <ele>7.139</ele>
      </trkpt>
      <trkpt lat="36.856673" lon="-2.006174">
        <ele>6.623</ele>
      </trkpt>
      <trkpt lat="36.856313" lon="-2.005885">
        <ele>5.636</ele>
      </trkpt>
      <trkpt lat="36.856253" lon="-2.006003">
        <ele>5.637</ele>
      </trkpt>
      <trkpt lat="36.856094" lon="-2.006185">
        <ele>5.76</ele>
      </trkpt>
      <trkpt lat="36.855832" lon="-2.006335">
        <ele>6.87</ele>
      </trkpt>
      <trkpt lat="36.855553" lon="-2.00662">
        <ele>5.052</ele>
      </trkpt>
      <trkpt lat="36.855235" lon="-2.006797">
        <ele>8.216</ele>
      </trkpt>
      <trkpt lat="36.855029" lon="-2.006936">
        <ele>10.468</ele>
      </trkpt>
      <trkpt lat="36.854836" lon="-2.007022">
        <ele>15.142</ele>
      </trkpt>
      <trkpt lat="36.854729" lon="-2.007274">
        <ele>13.526</ele>
      </trkpt>
      <trkpt lat="36.854622" lon="-2.007617">
        <ele>11.709</ele>
      </trkpt>
      <trkpt lat="36.854463" lon="-2.007751">
        <ele>14.567</ele>
      </trkpt>
      <trkpt lat="36.854334" lon="-2.008014">
        <ele>14.227</ele>
      </trkpt>
      <trkpt lat="36.854145" lon="-2.008384">
        <ele>11.861</ele>
      </trkpt>
      <trkpt lat="36.853918" lon="-2.008985">
        <ele>11.914</ele>
      </trkpt>
      <trkpt lat="36.853853" lon="-2.009291">
        <ele>11.895</ele>
      </trkpt>
      <trkpt lat="36.85381" lon="-2.009946">
        <ele>13.138</ele>
      </trkpt>
      <trkpt lat="36.853703" lon="-2.01009">
        <ele>14.948</ele>
      </trkpt>
      <trkpt lat="36.853707" lon="-2.010509">
        <ele>14.65</ele>
      </trkpt>
      <trkpt lat="36.8539" lon="-2.010745">
        <ele>12.564</ele>
      </trkpt>
      <trkpt lat="36.854136" lon="-2.011056">
        <ele>10.674</ele>
      </trkpt>
      <trkpt lat="36.854291" lon="-2.011244">
        <ele>10.456</ele>
      </trkpt>
      <trkpt lat="36.854566" lon="-2.011244">
        <ele>9.321</ele>
      </trkpt>
      <trkpt lat="36.854647" lon="-2.011582">
        <ele>9.609</ele>
      </trkpt>
      <trkpt lat="36.854858" lon="-2.011941">
        <ele>9.558</ele>
      </trkpt>
      <trkpt lat="36.854918" lon="-2.012209">
        <ele>10.858</ele>
      </trkpt>
      <trkpt lat="36.854952" lon="-2.012424">
        <ele>11.862</ele>
      </trkpt>
      <trkpt lat="36.854901" lon="-2.012697">
        <ele>11.525</ele>
      </trkpt>
      <trkpt lat="36.854901" lon="-2.013116">
        <ele>10.856</ele>
      </trkpt>
      <trkpt lat="36.855012" lon="-2.01347">
        <ele>11.029</ele>
      </trkpt>
      <trkpt lat="36.855038" lon="-2.013985">
        <ele>10.469</ele>
      </trkpt>
      <trkpt lat="36.854982" lon="-2.014269">
        <ele>10.841</ele>
      </trkpt>
      <trkpt lat="36.854926" lon="-2.014532">
        <ele>11.335</ele>
      </trkpt>
      <trkpt lat="36.85484" lon="-2.015004">
        <ele>13.995</ele>
      </trkpt>
      <trkpt lat="36.85481" lon="-2.015364">
        <ele>14.349</ele>
      </trkpt>
      <trkpt lat="36.854982" lon="-2.015707">
        <ele>15.923</ele>
      </trkpt>
      <trkpt lat="36.855162" lon="-2.016254">
        <ele>17.409</ele>
      </trkpt>
      <trkpt lat="36.85539" lon="-2.01656">
        <ele>16.34</ele>
      </trkpt>
      <trkpt lat="36.85533" lon="-2.016935">
        <ele>15.35</ele>
      </trkpt>
      <trkpt lat="36.855184" lon="-2.017702">
        <ele>15.894</ele>
      </trkpt>
      <trkpt lat="36.85518" lon="-2.018582">
        <ele>16.127</ele>
      </trkpt>
      <trkpt lat="36.855184" lon="-2.019049">
        <ele>16.458</ele>
      </trkpt>
      <trkpt lat="36.855085" lon="-2.019478">
        <ele>18.741</ele>
      </trkpt>
      <trkpt lat="36.855046" lon="-2.0198">
        <ele>20.931</ele>
      </trkpt>
      <trkpt lat="36.855029" lon="-2.020326">
        <ele>21.353</ele>
      </trkpt>
      <trkpt lat="36.854793" lon="-2.020192">
        <ele>22.577</ele>
      </trkpt>
      <trkpt lat="36.854518" lon="-2.020143">
        <ele>23.766</ele>
      </trkpt>
      <trkpt lat="36.854124" lon="-2.020181">
        <ele>24.329</ele>
      </trkpt>
      <trkpt lat="36.85381" lon="-2.020159">
        <ele>25.521</ele>
      </trkpt>
      <trkpt lat="36.853587" lon="-2.020492">
        <ele>26.009</ele>
      </trkpt>
      <trkpt lat="36.853475" lon="-2.02068">
        <ele>26.797</ele>
      </trkpt>
      <trkpt lat="36.853274" lon="-2.020749">
        <ele>29.117</ele>
      </trkpt>
      <trkpt lat="36.853188" lon="-2.020948">
        <ele>28.971</ele>
      </trkpt>
      <trkpt lat="36.853038" lon="-2.02112">
        <ele>29.274</ele>
      </trkpt>
      <trkpt lat="36.852797" lon="-2.021195">
        <ele>26.625</ele>
      </trkpt>
      <trkpt lat="36.85251" lon="-2.021173">
        <ele>28.778</ele>
      </trkpt>
      <trkpt lat="36.852025" lon="-2.021125">
        <ele>33.188</ele>
      </trkpt>
      <trkpt lat="36.851454" lon="-2.020975">
        <ele>34.17</ele>
      </trkpt>
      <trkpt lat="36.851149" lon="-2.020808">
        <ele>36.364</ele>
      </trkpt>
      <trkpt lat="36.850535" lon="-2.02098">
        <ele>47.589</ele>
      </trkpt>
      <trkpt lat="36.850063" lon="-2.021173">
        <ele>48.806</ele>
      </trkpt>
      <trkpt lat="36.849634" lon="-2.021318">
        <ele>53.826</ele>
      </trkpt>
      <trkpt lat="36.849483" lon="-2.021377">
        <ele>54.309</ele>
      </trkpt>
      <trkpt lat="36.849342" lon="-2.021377">
        <ele>53.949</ele>
      </trkpt>
      <trkpt lat="36.849153" lon="-2.021286">
        <ele>54.189</ele>
      </trkpt>
      <trkpt lat="36.848947" lon="-2.021366">
        <ele>54.353</ele>
      </trkpt>
      <trkpt lat="36.848685" lon="-2.02157">
        <ele>54.366</ele>
      </trkpt>
      <trkpt lat="36.848582" lon="-2.021538">
        <ele>54.877</ele>
      </trkpt>
      <trkpt lat="36.848569" lon="-2.021441">
        <ele>55.16</ele>
      </trkpt>
      <trkpt lat="36.848646" lon="-2.021173">
        <ele>57.03</ele>
      </trkpt>
      <trkpt lat="36.848797" lon="-2.020776">
        <ele>57.792</ele>
      </trkpt>
      <trkpt lat="36.848904" lon="-2.020631">
        <ele>58.846</ele>
      </trkpt>
      <trkpt lat="36.849191" lon="-2.020497">
        <ele>62.183</ele>
      </trkpt>
      <trkpt lat="36.849234" lon="-2.020374">
        <ele>63.025</ele>
      </trkpt>
      <trkpt lat="36.849136" lon="-2.020283">
        <ele>63.417</ele>
      </trkpt>
      <trkpt lat="36.849033" lon="-2.020202">
        <ele>63.509</ele>
      </trkpt>
      <trkpt lat="36.848608" lon="-2.020326">
        <ele>61.329</ele>
      </trkpt>
      <trkpt lat="36.848243" lon="-2.02046">
        <ele>62.479</ele>
      </trkpt>
      <trkpt lat="36.847792" lon="-2.020642">
        <ele>61.653</ele>
      </trkpt>
      <trkpt lat="36.847217" lon="-2.020905">
        <ele>59.696</ele>
      </trkpt>
      <trkpt lat="36.846869" lon="-2.021039">
        <ele>60.557</ele>
      </trkpt>
      <trkpt lat="36.846697" lon="-2.021044">
        <ele>61.22</ele>
      </trkpt>
      <trkpt lat="36.846268" lon="-2.020926">
        <ele>62.78</ele>
      </trkpt>
      <trkpt lat="36.846135" lon="-2.02091">
        <ele>61.922</ele>
      </trkpt>
      <trkpt lat="36.84583" lon="-2.020707">
        <ele>60.416</ele>
      </trkpt>
      <trkpt lat="36.84562" lon="-2.020438">
        <ele>56.619</ele>
      </trkpt>
      <trkpt lat="36.845208" lon="-2.020068">
        <ele>57.809</ele>
      </trkpt>
      <trkpt lat="36.844942" lon="-2.01965">
        <ele>61.519</ele>
      </trkpt>
      <trkpt lat="36.844856" lon="-2.019371">
        <ele>63.409</ele>
      </trkpt>
      <trkpt lat="36.845036" lon="-2.018791">
        <ele>65.982</ele>
      </trkpt>
      <trkpt lat="36.845208" lon="-2.01818">
        <ele>68.732</ele>
      </trkpt>
      <trkpt lat="36.845328" lon="-2.017794">
        <ele>70.956</ele>
      </trkpt>
      <trkpt lat="36.845508" lon="-2.015122">
        <ele>81.159</ele>
      </trkpt>
      <trkpt lat="36.845628" lon="-2.013019">
        <ele>97.57</ele>
      </trkpt>
      <trkpt lat="36.845598" lon="-2.012799">
        <ele>97.963</ele>
      </trkpt>
      <trkpt lat="36.845478" lon="-2.012494">
        <ele>96.673</ele>
      </trkpt>
      <trkpt lat="36.845199" lon="-2.012064">
        <ele>99.075</ele>
      </trkpt>
      <trkpt lat="36.844577" lon="-2.01163">
        <ele>104.469</ele>
      </trkpt>
      <trkpt lat="36.843838" lon="-2.010965">
        <ele>110.729</ele>
      </trkpt>
      <trkpt lat="36.843757" lon="-2.010793">
        <ele>109.5</ele>
      </trkpt>
      <trkpt lat="36.84374" lon="-2.010568">
        <ele>108.92</ele>
      </trkpt>
      <trkpt lat="36.843778" lon="-2.010042">
        <ele>115.009</ele>
      </trkpt>
      <trkpt lat="36.84392" lon="-2.009377">
        <ele>122.123</ele>
      </trkpt>
      <trkpt lat="36.844066" lon="-2.009076">
        <ele>122.623</ele>
      </trkpt>
      <trkpt lat="36.844688" lon="-2.00861">
        <ele>127.777</ele>
      </trkpt>
      <trkpt lat="36.845573" lon="-2.007934">
        <ele>135.85</ele>
      </trkpt>
      <trkpt lat="36.84562" lon="-2.007869">
        <ele>135.721</ele>
      </trkpt>
      <trkpt lat="36.845581" lon="-2.007751">
        <ele>137.294</ele>
      </trkpt>
      <trkpt lat="36.845521" lon="-2.007676">
        <ele>138.374</ele>
      </trkpt>
      <trkpt lat="36.845384" lon="-2.007671">
        <ele>140.726</ele>
      </trkpt>
      <trkpt lat="36.845105" lon="-2.007682">
        <ele>143.87</ele>
      </trkpt>
      <trkpt lat="36.844907" lon="-2.007574">
        <ele>147.727</ele>
      </trkpt>
      <trkpt lat="36.844735" lon="-2.007521">
        <ele>150.168</ele>
      </trkpt>
      <trkpt lat="36.844456" lon="-2.007628">
        <ele>155.514</ele>
      </trkpt>
      <trkpt lat="36.84419" lon="-2.007751">
        <ele>156.909</ele>
      </trkpt>
      <trkpt lat="36.844014" lon="-2.007848">
        <ele>155.833</ele>
      </trkpt>
      <trkpt lat="36.843632" lon="-2.007666">
        <ele>163.363</ele>
      </trkpt>
      <trkpt lat="36.843375" lon="-2.007473">
        <ele>169.157</ele>
      </trkpt>
      <trkpt lat="36.843224" lon="-2.00751">
        <ele>168.79</ele>
      </trkpt>
      <trkpt lat="36.843057" lon="-2.007564">
        <ele>168.271</ele>
      </trkpt>
      <trkpt lat="36.842993" lon="-2.007617">
        <ele>167.354</ele>
      </trkpt>
      <trkpt lat="36.842902" lon="-2.007569">
        <ele>168.754</ele>
      </trkpt>
      <trkpt lat="36.842898" lon="-2.007478">
        <ele>170.766</ele>
      </trkpt>
      <trkpt lat="36.842997" lon="-2.007328">
        <ele>173.66</ele>
      </trkpt>
      <trkpt lat="36.843332" lon="-2.007183">
        <ele>176.516</ele>
      </trkpt>
      <trkpt lat="36.843585" lon="-2.007204">
        <ele>175.976</ele>
      </trkpt>
      <trkpt lat="36.843735" lon="-2.007274">
        <ele>172.613</ele>
      </trkpt>
      <trkpt lat="36.843795" lon="-2.007188">
        <ele>173.309</ele>
      </trkpt>
      <trkpt lat="36.843752" lon="-2.007086">
        <ele>175.192</ele>
      </trkpt>
      <trkpt lat="36.843533" lon="-2.006936">
        <ele>180.282</ele>
      </trkpt>
      <trkpt lat="36.843259" lon="-2.00677">
        <ele>183.936</ele>
      </trkpt>
      <trkpt lat="36.843083" lon="-2.006727">
        <ele>187.049</ele>
      </trkpt>
      <trkpt lat="36.842542" lon="-2.006936">
        <ele>187.45</ele>
      </trkpt>
      <trkpt lat="36.842306" lon="-2.006856">
        <ele>190.733</ele>
      </trkpt>
      <trkpt lat="36.842112" lon="-2.006721">
        <ele>194.283</ele>
      </trkpt>
      <trkpt lat="36.842009" lon="-2.006598">
        <ele>196.595</ele>
      </trkpt>
      <trkpt lat="36.841949" lon="-2.006491">
        <ele>198.819</ele>
      </trkpt>
      <trkpt lat="36.841786" lon="-2.00618">
        <ele>203.373</ele>
      </trkpt>
      <trkpt lat="36.841589" lon="-2.005895">
        <ele>206.585</ele>
      </trkpt>
      <trkpt lat="36.841473" lon="-2.005793">
        <ele>208.813</ele>
      </trkpt>
      <trkpt lat="36.84134" lon="-2.005793">
        <ele>209.809</ele>
      </trkpt>
      <trkpt lat="36.841078" lon="-2.005992">
        <ele>207.148</ele>
      </trkpt>
      <trkpt lat="36.840958" lon="-2.006088">
        <ele>206.868</ele>
      </trkpt>
      <trkpt lat="36.840837" lon="-2.006051">
        <ele>210.962</ele>
      </trkpt>
      <trkpt lat="36.840653" lon="-2.005804">
        <ele>212.995</ele>
      </trkpt>
      <trkpt lat="36.840498" lon="-2.005359">
        <ele>219.096</ele>
      </trkpt>
      <trkpt lat="36.840434" lon="-2.004941">
        <ele>226.289</ele>
      </trkpt>
      <trkpt lat="36.840507" lon="-2.004694">
        <ele>232.319</ele>
      </trkpt>
      <trkpt lat="36.840782" lon="-2.004431">
        <ele>236.381</ele>
      </trkpt>
      <trkpt lat="36.841361" lon="-2.004104">
        <ele>232.715</ele>
      </trkpt>
      <trkpt lat="36.84164" lon="-2.003943">
        <ele>238.415</ele>
      </trkpt>
      <trkpt lat="36.84173" lon="-2.003846">
        <ele>240.765</ele>
      </trkpt>
      <trkpt lat="36.841726" lon="-2.003642">
        <ele>245.711</ele>
      </trkpt>
      <trkpt lat="36.841563" lon="-2.00353">
        <ele>249.209</ele>
      </trkpt>
      <trkpt lat="36.841297" lon="-2.00354">
        <ele>248.392</ele>
      </trkpt>
      <trkpt lat="36.840876" lon="-2.003551">
        <ele>246.722</ele>
      </trkpt>
      <trkpt lat="36.840666" lon="-2.00339">
        <ele>246.836</ele>
      </trkpt>
      <trkpt lat="36.840653" lon="-2.003304">
        <ele>246.699</ele>
      </trkpt>
      <trkpt lat="36.840786" lon="-2.003524">
        <ele>246.62</ele>
      </trkpt>
      <trkpt lat="36.84152" lon="-2.003524">
        <ele>249.343</ele>
      </trkpt>
      <trkpt lat="36.841705" lon="-2.003658">
        <ele>245.453</ele>
      </trkpt>
      <trkpt lat="36.8417" lon="-2.003894">
        <ele>239.635</ele>
      </trkpt>
      <trkpt lat="36.841271" lon="-2.004173">
        <ele>231.269</ele>
      </trkpt>
      <trkpt lat="36.84091" lon="-2.004372">
        <ele>234.961</ele>
      </trkpt>
      <trkpt lat="36.840554" lon="-2.004645">
        <ele>234.221</ele>
      </trkpt>
      <trkpt lat="36.840438" lon="-2.004941">
        <ele>226.413</ele>
      </trkpt>
      <trkpt lat="36.840528" lon="-2.005504">
        <ele>215.709</ele>
      </trkpt>
      <trkpt lat="36.840713" lon="-2.005895">
        <ele>213.027</ele>
      </trkpt>
      <trkpt lat="36.840897" lon="-2.006088">
        <ele>208.647</ele>
      </trkpt>
      <trkpt lat="36.841413" lon="-2.005788">
        <ele>209.311</ele>
      </trkpt>
      <trkpt lat="36.841743" lon="-2.006131">
        <ele>203.714</ele>
      </trkpt>
      <trkpt lat="36.842027" lon="-2.006641">
        <ele>195.815</ele>
      </trkpt>
      <trkpt lat="36.842361" lon="-2.006899">
        <ele>189.458</ele>
      </trkpt>
      <trkpt lat="36.842713" lon="-2.006845">
        <ele>188.098</ele>
      </trkpt>
      <trkpt lat="36.843078" lon="-2.006754">
        <ele>186.73</ele>
      </trkpt>
      <trkpt lat="36.843336" lon="-2.006818">
        <ele>182.814</ele>
      </trkpt>
      <trkpt lat="36.843795" lon="-2.007124">
        <ele>174.235</ele>
      </trkpt>
      <trkpt lat="36.843752" lon="-2.007242">
        <ele>173.486</ele>
      </trkpt>
      <trkpt lat="36.843606" lon="-2.007258">
        <ele>174.914</ele>
      </trkpt>
      <trkpt lat="36.843413" lon="-2.007188">
        <ele>176.609</ele>
      </trkpt>
      <trkpt lat="36.843057" lon="-2.007312">
        <ele>174.024</ele>
      </trkpt>
      <trkpt lat="36.842872" lon="-2.007515">
        <ele>170.354</ele>
      </trkpt>
      <trkpt lat="36.842941" lon="-2.007617">
        <ele>167.878</ele>
      </trkpt>
      <trkpt lat="36.843293" lon="-2.007483">
        <ele>169.521</ele>
      </trkpt>
      <trkpt lat="36.843813" lon="-2.007762">
        <ele>159.952</ele>
      </trkpt>
      <trkpt lat="36.844027" lon="-2.007832">
        <ele>156.545</ele>
      </trkpt>
      <trkpt lat="36.844624" lon="-2.007542">
        <ele>152.975</ele>
      </trkpt>
      <trkpt lat="36.84498" lon="-2.007585">
        <ele>147.337</ele>
      </trkpt>
      <trkpt lat="36.845186" lon="-2.007633">
        <ele>144.461</ele>
      </trkpt>
      <trkpt lat="36.845521" lon="-2.007709">
        <ele>138.567</ele>
      </trkpt>
      <trkpt lat="36.845598" lon="-2.007816">
        <ele>136.881</ele>
      </trkpt>
      <trkpt lat="36.845585" lon="-2.007945">
        <ele>135.719</ele>
      </trkpt>
      <trkpt lat="36.845122" lon="-2.008293">
        <ele>133.909</ele>
      </trkpt>
      <trkpt lat="36.844577" lon="-2.00869">
        <ele>127.347</ele>
      </trkpt>
      <trkpt lat="36.84419" lon="-2.008985">
        <ele>122.717</ele>
      </trkpt>
      <trkpt lat="36.844079" lon="-2.009071">
        <ele>122.731</ele>
      </trkpt>
      <trkpt lat="36.843855" lon="-2.00957">
        <ele>121.694</ele>
      </trkpt>
      <trkpt lat="36.843782" lon="-2.010021">
        <ele>115.765</ele>
      </trkpt>
      <trkpt lat="36.843748" lon="-2.010353">
        <ele>110.168</ele>
      </trkpt>
      <trkpt lat="36.84374" lon="-2.010611">
        <ele>109.378</ele>
      </trkpt>
      <trkpt lat="36.84374" lon="-2.010739">
        <ele>109.67</ele>
      </trkpt>
      <trkpt lat="36.843825" lon="-2.010949">
        <ele>110.964</ele>
      </trkpt>
      <trkpt lat="36.844405" lon="-2.01149">
        <ele>108.359</ele>
      </trkpt>
      <trkpt lat="36.845182" lon="-2.012059">
        <ele>99.603</ele>
      </trkpt>
      <trkpt lat="36.845517" lon="-2.012574">
        <ele>97.223</ele>
      </trkpt>
      <trkpt lat="36.845594" lon="-2.012778">
        <ele>98.209</ele>
      </trkpt>
      <trkpt lat="36.845633" lon="-2.013035">
        <ele>97.696</ele>
      </trkpt>
      <trkpt lat="36.84556" lon="-2.014403">
        <ele>87.646</ele>
      </trkpt>
      <trkpt lat="36.845452" lon="-2.015798">
        <ele>78.83</ele>
      </trkpt>
      <trkpt lat="36.845311" lon="-2.017563">
        <ele>73.243</ele>
      </trkpt>
      <trkpt lat="36.845272" lon="-2.017912">
        <ele>70.444</ele>
      </trkpt>
      <trkpt lat="36.84507" lon="-2.018663">
        <ele>67.647</ele>
      </trkpt>
      <trkpt lat="36.844869" lon="-2.019387">
        <ele>63.497</ele>
      </trkpt>
      <trkpt lat="36.844916" lon="-2.019601">
        <ele>62.159</ele>
      </trkpt>
      <trkpt lat="36.845203" lon="-2.020025">
        <ele>58.433</ele>
      </trkpt>
      <trkpt lat="36.845594" lon="-2.020433">
        <ele>56.243</ele>
      </trkpt>
      <trkpt lat="36.846023" lon="-2.020884">
        <ele>61.364</ele>
      </trkpt>
      <trkpt lat="36.846667" lon="-2.021087">
        <ele>61.01</ele>
      </trkpt>
      <trkpt lat="36.847062" lon="-2.020959">
        <ele>60.009</ele>
      </trkpt>
      <trkpt lat="36.847397" lon="-2.021152">
        <ele>56.775</ele>
      </trkpt>
      <trkpt lat="36.847577" lon="-2.021366">
        <ele>55.325</ele>
      </trkpt>
      <trkpt lat="36.847629" lon="-2.021753">
        <ele>53.479</ele>
      </trkpt>
      <trkpt lat="36.847655" lon="-2.022289">
        <ele>51.092</ele>
      </trkpt>
      <trkpt lat="36.847852" lon="-2.022632">
        <ele>48.123</ele>
      </trkpt>
      <trkpt lat="36.847955" lon="-2.023147">
        <ele>43.326</ele>
      </trkpt>
      <trkpt lat="36.847715" lon="-2.023973">
        <ele>43.226</ele>
      </trkpt>
      <trkpt lat="36.847749" lon="-2.024574">
        <ele>40.058</ele>
      </trkpt>
      <trkpt lat="36.848213" lon="-2.025282">
        <ele>44.362</ele>
      </trkpt>
      <trkpt lat="36.848865" lon="-2.026066">
        <ele>42.976</ele>
      </trkpt>
      <trkpt lat="36.849895" lon="-2.027289">
        <ele>38.79</ele>
      </trkpt>
      <trkpt lat="36.85029" lon="-2.027653">
        <ele>33.319</ele>
      </trkpt>
      <trkpt lat="36.850737" lon="-2.027718">
        <ele>32.509</ele>
      </trkpt>
      <trkpt lat="36.850926" lon="-2.0279">
        <ele>31.138</ele>
      </trkpt>
      <trkpt lat="36.851406" lon="-2.02775">
        <ele>28.738</ele>
      </trkpt>
      <trkpt lat="36.851535" lon="-2.027922">
        <ele>29.952</ele>
      </trkpt>
      <trkpt lat="36.85181" lon="-2.027224">
        <ele>26.345</ele>
      </trkpt>
      <trkpt lat="36.852029" lon="-2.026414">
        <ele>25.566</ele>
      </trkpt>
      <trkpt lat="36.852067" lon="-2.025819">
        <ele>27.079</ele>
      </trkpt>
      <trkpt lat="36.852136" lon="-2.025095">
        <ele>28.179</ele>
      </trkpt>
      <trkpt lat="36.852299" lon="-2.024773">
        <ele>24.731</ele>
      </trkpt>
      <trkpt lat="36.852557" lon="-2.024403">
        <ele>22.875</ele>
      </trkpt>
      <trkpt lat="36.852995" lon="-2.024059">
        <ele>24.135</ele>
      </trkpt>
      <trkpt lat="36.853948" lon="-2.022718">
        <ele>21.786</ele>
      </trkpt>
      <trkpt lat="36.854192" lon="-2.022842">
        <ele>20.514</ele>
      </trkpt>
      <trkpt lat="36.854467" lon="-2.023163">
        <ele>20.309</ele>
      </trkpt>
      <trkpt lat="36.854905" lon="-2.02363">
        <ele>23.334</ele>
      </trkpt>
      <trkpt lat="36.855244" lon="-2.024499">
        <ele>28.064</ele>
      </trkpt>
      <trkpt lat="36.85527" lon="-2.02481">
        <ele>27.988</ele>
      </trkpt>
      <trkpt lat="36.855077" lon="-2.02502">
        <ele>27.921</ele>
      </trkpt>
      <trkpt lat="36.854536" lon="-2.025663">
        <ele>26.252</ele>
      </trkpt>
      <trkpt lat="36.85448" lon="-2.025797">
        <ele>26.765</ele>
      </trkpt>
      <trkpt lat="36.854703" lon="-2.027455">
        <ele>32.565</ele>
      </trkpt>
      <trkpt lat="36.854845" lon="-2.027594">
        <ele>33.887</ele>
      </trkpt>
      <trkpt lat="36.854943" lon="-2.027911">
        <ele>34.131</ele>
      </trkpt>
      <trkpt lat="36.855313" lon="-2.029864">
        <ele>37.811</ele>
      </trkpt>
      <trkpt lat="36.85551" lon="-2.030931">
        <ele>43.521</ele>
      </trkpt>
      <trkpt lat="36.85554" lon="-2.03113">
        <ele>43.003</ele>
      </trkpt>
      <trkpt lat="36.855986" lon="-2.032535">
        <ele>46.609</ele>
      </trkpt>
      <trkpt lat="36.856626" lon="-2.034241">
        <ele>51.022</ele>
      </trkpt>
      <trkpt lat="36.856823" lon="-2.034863">
        <ele>54.382</ele>
      </trkpt>
      <trkpt lat="36.856961" lon="-2.035437">
        <ele>57.026</ele>
      </trkpt>
      <trkpt lat="36.857055" lon="-2.03599">
        <ele>56.679</ele>
      </trkpt>
      <trkpt lat="36.857107" lon="-2.036301">
        <ele>57.86</ele>
      </trkpt>
      <trkpt lat="36.857047" lon="-2.036419">
        <ele>58.923</ele>
      </trkpt>
      <trkpt lat="36.856969" lon="-2.036456">
        <ele>59.483</ele>
      </trkpt>
      <trkpt lat="36.856823" lon="-2.036397">
        <ele>59.575</ele>
      </trkpt>
      <trkpt lat="36.856639" lon="-2.036328">
        <ele>59.269</ele>
      </trkpt>
      <trkpt lat="36.85645" lon="-2.036344">
        <ele>58.117</ele>
      </trkpt>
      <trkpt lat="36.856287" lon="-2.036408">
        <ele>57.887</ele>
      </trkpt>
      <trkpt lat="36.856154" lon="-2.036585">
        <ele>58.015</ele>
      </trkpt>
      <trkpt lat="36.856059" lon="-2.036827">
        <ele>57.809</ele>
      </trkpt>
      <trkpt lat="36.855914" lon="-2.037433">
        <ele>57.372</ele>
      </trkpt>
      <trkpt lat="36.855858" lon="-2.037642">
        <ele>56.632</ele>
      </trkpt>
      <trkpt lat="36.855785" lon="-2.037899">
        <ele>56.516</ele>
      </trkpt>
      <trkpt lat="36.855776" lon="-2.038077">
        <ele>57.319</ele>
      </trkpt>
      <trkpt lat="36.855733" lon="-2.038838">
        <ele>61.99</ele>
      </trkpt>
      <trkpt lat="36.855712" lon="-2.039369">
        <ele>63.043</ele>
      </trkpt>
      <trkpt lat="36.85578" lon="-2.039804">
        <ele>63.223</ele>
      </trkpt>
      <trkpt lat="36.855978" lon="-2.040356">
        <ele>61.565</ele>
      </trkpt>
      <trkpt lat="36.855995" lon="-2.04048">
        <ele>60.939</ele>
      </trkpt>
      <trkpt lat="36.855944" lon="-2.04056">
        <ele>60.332</ele>
      </trkpt>
      <trkpt lat="36.855622" lon="-2.040769">
        <ele>62.292</ele>
      </trkpt>
      <trkpt lat="36.855519" lon="-2.040866">
        <ele>63.611</ele>
      </trkpt>
      <trkpt lat="36.855527" lon="-2.041102">
        <ele>67.809</ele>
      </trkpt>
      <trkpt lat="36.855248" lon="-2.041773">
        <ele>78.224</ele>
      </trkpt>
      <trkpt lat="36.855192" lon="-2.041853">
        <ele>78.534</ele>
      </trkpt>
      <trkpt lat="36.855107" lon="-2.041901">
        <ele>78.778</ele>
      </trkpt>
      <trkpt lat="36.854991" lon="-2.04203">
        <ele>79.991</ele>
      </trkpt>
      <trkpt lat="36.854995" lon="-2.042186">
        <ele>81.632</ele>
      </trkpt>
      <trkpt lat="36.855077" lon="-2.042427">
        <ele>84.435</ele>
      </trkpt>
      <trkpt lat="36.855252" lon="-2.042744">
        <ele>90.285</ele>
      </trkpt>
      <trkpt lat="36.855278" lon="-2.042878">
        <ele>92.557</ele>
      </trkpt>
      <trkpt lat="36.855218" lon="-2.043092">
        <ele>94.991</ele>
      </trkpt>
      <trkpt lat="36.855132" lon="-2.043291">
        <ele>97.777</ele>
      </trkpt>
      <trkpt lat="36.855034" lon="-2.043403">
        <ele>98.361</ele>
      </trkpt>
      <trkpt lat="36.85487" lon="-2.043478">
        <ele>95.927</ele>
      </trkpt>
      <trkpt lat="36.854806" lon="-2.043554">
        <ele>95.309</ele>
      </trkpt>
      <trkpt lat="36.854789" lon="-2.043752">
        <ele>97.118</ele>
      </trkpt>
      <trkpt lat="36.854755" lon="-2.043961">
        <ele>98.558</ele>
      </trkpt>
      <trkpt lat="36.854458" lon="-2.044744">
        <ele>103.952</ele>
      </trkpt>
      <trkpt lat="36.854377" lon="-2.044868">
        <ele>104.945</ele>
      </trkpt>
      <trkpt lat="36.854205" lon="-2.044905">
        <ele>103.146</ele>
      </trkpt>
      <trkpt lat="36.853935" lon="-2.044997">
        <ele>102.519</ele>
      </trkpt>
      <trkpt lat="36.85375" lon="-2.045077">
        <ele>103.689</ele>
      </trkpt>
      <trkpt lat="36.853626" lon="-2.04505">
        <ele>101.871</ele>
      </trkpt>
      <trkpt lat="36.853501" lon="-2.044852">
        <ele>95.965</ele>
      </trkpt>
      <trkpt lat="36.853372" lon="-2.044744">
        <ele>92.914</ele>
      </trkpt>
      <trkpt lat="36.853269" lon="-2.044771">
        <ele>93.054</ele>
      </trkpt>
      <trkpt lat="36.853025" lon="-2.044852">
        <ele>94.109</ele>
      </trkpt>
      <trkpt lat="36.852698" lon="-2.044825">
        <ele>92.609</ele>
      </trkpt>
      <trkpt lat="36.852372" lon="-2.044932">
        <ele>92.472</ele>
      </trkpt>
      <trkpt lat="36.852085" lon="-2.044857">
        <ele>92.882</ele>
      </trkpt>
      <trkpt lat="36.851488" lon="-2.044771">
        <ele>90.626</ele>
      </trkpt>
      <trkpt lat="36.85123" lon="-2.044798">
        <ele>91.269</ele>
      </trkpt>
      <trkpt lat="36.850981" lon="-2.044712">
        <ele>91.36</ele>
      </trkpt>
      <trkpt lat="36.850664" lon="-2.044782">
        <ele>89.743</ele>
      </trkpt>
      <trkpt lat="36.850381" lon="-2.044873">
        <ele>88.363</ele>
      </trkpt>
      <trkpt lat="36.850063" lon="-2.044455">
        <ele>85.285</ele>
      </trkpt>
      <trkpt lat="36.849835" lon="-2.044133">
        <ele>83.549</ele>
      </trkpt>
      <trkpt lat="36.849608" lon="-2.043951">
        <ele>80.217</ele>
      </trkpt>
      <trkpt lat="36.848951" lon="-2.043484">
        <ele>73.787</ele>
      </trkpt>
      <trkpt lat="36.848621" lon="-2.043484">
        <ele>73.515</ele>
      </trkpt>
      <trkpt lat="36.848393" lon="-2.043537">
        <ele>73.109</ele>
      </trkpt>
      <trkpt lat="36.847925" lon="-2.043366">
        <ele>69.192</ele>
      </trkpt>
      <trkpt lat="36.847054" lon="-2.042727">
        <ele>65.852</ele>
      </trkpt>
      <trkpt lat="36.84653" lon="-2.042341">
        <ele>63.956</ele>
      </trkpt>
      <trkpt lat="36.846508" lon="-2.041767">
        <ele>63.889</ele>
      </trkpt>
      <trkpt lat="36.846508" lon="-2.041247">
        <ele>62.61</ele>
      </trkpt>
      <trkpt lat="36.846624" lon="-2.040979">
        <ele>62.353</ele>
      </trkpt>
      <trkpt lat="36.846697" lon="-2.040796">
        <ele>62.173</ele>
      </trkpt>
      <trkpt lat="36.846809" lon="-2.040351">
        <ele>61.065</ele>
      </trkpt>
      <trkpt lat="36.847011" lon="-2.0399">
        <ele>60.489</ele>
      </trkpt>
      <trkpt lat="36.847054" lon="-2.039412">
        <ele>59.277</ele>
      </trkpt>
      <trkpt lat="36.847058" lon="-2.039192">
        <ele>58.161</ele>
      </trkpt>
      <trkpt lat="36.847092" lon="-2.038736">
        <ele>56.627</ele>
      </trkpt>
      <trkpt lat="36.847157" lon="-2.038436">
        <ele>56.209</ele>
      </trkpt>
      <trkpt lat="36.847079" lon="-2.038345">
        <ele>55.968</ele>
      </trkpt>
    </trkseg>
  </trk>
</gpx>
