<?xml version="1.0" encoding="UTF-8"?>
<gpx creator="Wikiloc - https://www.wikiloc.com" version="1.1" schemaLocation="http://www.topografix.com/GPX/1/1 http://www.topografix.com/GPX/1/1/gpx.xsd" xmlns="http://www.topografix.com/GPX/1/1" xmlns:xsi="http://www.w3.org/2001/XMLSchema-instance" xsi:schemaLocation="http://www.topografix.com/GPX/1/1 http://www.topografix.com/GPX/1/1/gpx.xsd http://www.garmin.com/xmlschemas/GpxExtensions/v3 http://www.garmin.com/xmlschemas/GpxExtensionsv3.xsd http://www.garmin.com/xmlschemas/TrackPointExtension/v1 http://www.garmin.com/xmlschemas/TrackPointExtensionv1.xsd http://www.garmin.com/xmlschemas/PowerExtension/v1 http://www.garmin.com/xmlschemas/PowerExtensionv1.xsd http://www.topografix.com/GPX/gpx_style/0/2 http://www.topografix.com/GPX/gpx_style/0/2/gpx_style.xsd" xmlns:gpxtpx="http://www.garmin.com/xmlschemas/TrackPointExtension/v1" xmlns:gpxx="http://www.garmin.com/xmlschemas/GpxExtensions/v3" xmlns:gpxpx="http://www.garmin.com/xmlschemas/PowerExtension/v1" xmlns:gpx_style="http://www.topografix.com/GPX/gpx_style/0/2">
  <metadata>
    <name>Wikiloc - Rodalquilar - La Isleta del Moro</name>
    <author>
      <name>gpx.studio</name>
      <link href="https://gpx.studio"/>
    </author>
    <link href="https://www.wikiloc.com/hiking-trails/rodalquilar-la-isleta-del-moro-116917627">
      <text>Rodalquilar - La Isleta del Moro on Wikiloc</text>
    </link>
  </metadata>
  <wpt lat="36.833851" lon="-2.078428">
    <ele>432.91556377902145</ele>
    <name>Alto de la Rellana: Visualización panorámica del Valle del Hornillo, Rodalquilar y La Isleta</name>
  </wpt>
  <trk>
    <name>Rodalquilar - La Isleta del Moro - Wikiloc</name>
    <trkseg>
      <trkpt lat="36.847204" lon="-2.038392">
        <ele>55.75</ele>
      </trkpt>
      <trkpt lat="36.847142" lon="-2.038494">
        <ele>55.75</ele>
      </trkpt>
      <trkpt lat="36.847102" lon="-2.038633">
        <ele>56</ele>
      </trkpt>
      <trkpt lat="36.847067" lon="-2.038934">
        <ele>56.75</ele>
      </trkpt>
      <trkpt lat="36.847052" lon="-2.03922">
        <ele>57.5</ele>
      </trkpt>
      <trkpt lat="36.847037" lon="-2.03972">
        <ele>58.5</ele>
      </trkpt>
      <trkpt lat="36.847005" lon="-2.039919">
        <ele>58.75</ele>
      </trkpt>
      <trkpt lat="36.84688" lon="-2.040207">
        <ele>59.25</ele>
      </trkpt>
      <trkpt lat="36.846801" lon="-2.040399">
        <ele>59.75</ele>
      </trkpt>
      <trkpt lat="36.846737" lon="-2.040611">
        <ele>60.25</ele>
      </trkpt>
      <trkpt lat="36.846655" lon="-2.040905">
        <ele>61.25</ele>
      </trkpt>
      <trkpt lat="36.84655" lon="-2.041176">
        <ele>62.25</ele>
      </trkpt>
      <trkpt lat="36.846535" lon="-2.041254">
        <ele>62.5</ele>
      </trkpt>
      <trkpt lat="36.846516" lon="-2.04194">
        <ele>64</ele>
      </trkpt>
      <trkpt lat="36.846504" lon="-2.042372">
        <ele>64.25</ele>
      </trkpt>
      <trkpt lat="36.846607" lon="-2.042415">
        <ele>64</ele>
      </trkpt>
      <trkpt lat="36.846687" lon="-2.042462">
        <ele>64</ele>
      </trkpt>
      <trkpt lat="36.846743" lon="-2.042492">
        <ele>64</ele>
      </trkpt>
      <trkpt lat="36.84698" lon="-2.042679">
        <ele>64.75</ele>
      </trkpt>
      <trkpt lat="36.847055" lon="-2.04273">
        <ele>65</ele>
      </trkpt>
      <trkpt lat="36.8471" lon="-2.042757">
        <ele>65.25</ele>
      </trkpt>
      <trkpt lat="36.84743" lon="-2.043031">
        <ele>66.75</ele>
      </trkpt>
      <trkpt lat="36.847605" lon="-2.043165">
        <ele>67.5</ele>
      </trkpt>
      <trkpt lat="36.847665" lon="-2.043197">
        <ele>67.75</ele>
      </trkpt>
      <trkpt lat="36.84797" lon="-2.043357">
        <ele>69.25</ele>
      </trkpt>
      <trkpt lat="36.848229" lon="-2.043529">
        <ele>71.25</ele>
      </trkpt>
      <trkpt lat="36.848317" lon="-2.04354">
        <ele>71.5</ele>
      </trkpt>
      <trkpt lat="36.848527" lon="-2.043535">
        <ele>72.25</ele>
      </trkpt>
      <trkpt lat="36.848897" lon="-2.043488">
        <ele>72.75</ele>
      </trkpt>
      <trkpt lat="36.848997" lon="-2.043508">
        <ele>73.25</ele>
      </trkpt>
      <trkpt lat="36.849123" lon="-2.043563">
        <ele>74.25</ele>
      </trkpt>
      <trkpt lat="36.849283" lon="-2.043675">
        <ele>76</ele>
      </trkpt>
      <trkpt lat="36.84939" lon="-2.043772">
        <ele>77.5</ele>
      </trkpt>
      <trkpt lat="36.849582" lon="-2.043905">
        <ele>79.25</ele>
      </trkpt>
      <trkpt lat="36.84987" lon="-2.044182">
        <ele>82.75</ele>
      </trkpt>
      <trkpt lat="36.850028" lon="-2.044407">
        <ele>85</ele>
      </trkpt>
      <trkpt lat="36.850134" lon="-2.044546">
        <ele>86.25</ele>
      </trkpt>
      <trkpt lat="36.850283" lon="-2.044792">
        <ele>89</ele>
      </trkpt>
      <trkpt lat="36.850342" lon="-2.04487">
        <ele>90</ele>
      </trkpt>
      <trkpt lat="36.850393" lon="-2.04487">
        <ele>90</ele>
      </trkpt>
      <trkpt lat="36.850497" lon="-2.044807">
        <ele>89.75</ele>
      </trkpt>
      <trkpt lat="36.850548" lon="-2.044802">
        <ele>90</ele>
      </trkpt>
      <trkpt lat="36.850597" lon="-2.044818">
        <ele>90.25</ele>
      </trkpt>
      <trkpt lat="36.850748" lon="-2.044907">
        <ele>91.5</ele>
      </trkpt>
      <trkpt lat="36.850989" lon="-2.045016">
        <ele>93.25</ele>
      </trkpt>
      <trkpt lat="36.851319" lon="-2.045146">
        <ele>95.5</ele>
      </trkpt>
      <trkpt lat="36.851452" lon="-2.045217">
        <ele>96.75</ele>
      </trkpt>
      <trkpt lat="36.851697" lon="-2.045414">
        <ele>99.75</ele>
      </trkpt>
      <trkpt lat="36.851707" lon="-2.04548">
        <ele>100.75</ele>
      </trkpt>
      <trkpt lat="36.851678" lon="-2.045552">
        <ele>101.75</ele>
      </trkpt>
      <trkpt lat="36.851653" lon="-2.045597">
        <ele>102.5</ele>
      </trkpt>
      <trkpt lat="36.850993" lon="-2.045614">
        <ele>102</ele>
      </trkpt>
      <trkpt lat="36.850917" lon="-2.045652">
        <ele>102.25</ele>
      </trkpt>
      <trkpt lat="36.850892" lon="-2.045702">
        <ele>103</ele>
      </trkpt>
      <trkpt lat="36.850878" lon="-2.045778">
        <ele>104.25</ele>
      </trkpt>
      <trkpt lat="36.85091" lon="-2.045846">
        <ele>105.25</ele>
      </trkpt>
      <trkpt lat="36.85097" lon="-2.04588">
        <ele>106.5</ele>
      </trkpt>
      <trkpt lat="36.850966" lon="-2.045892">
        <ele>104.893</ele>
      </trkpt>
      <trkpt lat="36.851661" lon="-2.045914">
        <ele>107.829</ele>
      </trkpt>
      <trkpt lat="36.852082" lon="-2.046247">
        <ele>112.358</ele>
      </trkpt>
      <trkpt lat="36.852202" lon="-2.046601">
        <ele>120.214</ele>
      </trkpt>
      <trkpt lat="36.853115" lon="-2.046973">
        <ele>128.489</ele>
      </trkpt>
      <trkpt lat="36.853433" lon="-2.046908">
        <ele>133.514</ele>
      </trkpt>
      <trkpt lat="36.853613" lon="-2.046318">
        <ele>127.954</ele>
      </trkpt>
      <trkpt lat="36.854317" lon="-2.045771">
        <ele>132.109</ele>
      </trkpt>
      <trkpt lat="36.854274" lon="-2.045943">
        <ele>135.909</ele>
      </trkpt>
      <trkpt lat="36.853759" lon="-2.046586">
        <ele>137.862</ele>
      </trkpt>
      <trkpt lat="36.853724" lon="-2.047391">
        <ele>142.352</ele>
      </trkpt>
      <trkpt lat="36.853587" lon="-2.04796">
        <ele>139.727</ele>
      </trkpt>
      <trkpt lat="36.853518" lon="-2.048582">
        <ele>134.78</ele>
      </trkpt>
      <trkpt lat="36.853278" lon="-2.048968">
        <ele>141.522</ele>
      </trkpt>
      <trkpt lat="36.85302" lon="-2.050234">
        <ele>142.318</ele>
      </trkpt>
      <trkpt lat="36.852614" lon="-2.050799">
        <ele>145.457</ele>
      </trkpt>
      <trkpt lat="36.852254" lon="-2.050874">
        <ele>146.923</ele>
      </trkpt>
      <trkpt lat="36.851429" lon="-2.051003">
        <ele>165.078</ele>
      </trkpt>
      <trkpt lat="36.850511" lon="-2.051775">
        <ele>149.656</ele>
      </trkpt>
      <trkpt lat="36.849792" lon="-2.05233">
        <ele>158.259</ele>
      </trkpt>
      <trkpt lat="36.849518" lon="-2.053006">
        <ele>155.214</ele>
      </trkpt>
      <trkpt lat="36.849492" lon="-2.053531">
        <ele>151.509</ele>
      </trkpt>
      <trkpt lat="36.849621" lon="-2.054057">
        <ele>154.846</ele>
      </trkpt>
      <trkpt lat="36.849861" lon="-2.054776">
        <ele>164.736</ele>
      </trkpt>
      <trkpt lat="36.849732" lon="-2.055835">
        <ele>173.891</ele>
      </trkpt>
      <trkpt lat="36.849492" lon="-2.056714">
        <ele>174.284</ele>
      </trkpt>
      <trkpt lat="36.849054" lon="-2.059246">
        <ele>167.656</ele>
      </trkpt>
      <trkpt lat="36.848922" lon="-2.060165">
        <ele>173.552</ele>
      </trkpt>
      <trkpt lat="36.848175" lon="-2.061592">
        <ele>181.621</ele>
      </trkpt>
      <trkpt lat="36.848691" lon="-2.064135">
        <ele>194.267</ele>
      </trkpt>
      <trkpt lat="36.84896" lon="-2.065451">
        <ele>200.092</ele>
      </trkpt>
      <trkpt lat="36.849174" lon="-2.066095">
        <ele>200.113</ele>
      </trkpt>
      <trkpt lat="36.849741" lon="-2.066492">
        <ele>209.543</ele>
      </trkpt>
      <trkpt lat="36.850316" lon="-2.066599">
        <ele>213.507</ele>
      </trkpt>
      <trkpt lat="36.851295" lon="-2.066213">
        <ele>219.109</ele>
      </trkpt>
      <trkpt lat="36.851621" lon="-2.066835">
        <ele>218.412</ele>
      </trkpt>
      <trkpt lat="36.851724" lon="-2.067543">
        <ele>225.622</ele>
      </trkpt>
      <trkpt lat="36.851578" lon="-2.068176">
        <ele>229.677</ele>
      </trkpt>
      <trkpt lat="36.851321" lon="-2.068917">
        <ele>236.96</ele>
      </trkpt>
      <trkpt lat="36.851183" lon="-2.069764">
        <ele>234.612</ele>
      </trkpt>
      <trkpt lat="36.851655" lon="-2.071195">
        <ele>219.768</ele>
      </trkpt>
      <trkpt lat="36.851999" lon="-2.072114">
        <ele>219.767</ele>
      </trkpt>
      <trkpt lat="36.852462" lon="-2.073047">
        <ele>221.093</ele>
      </trkpt>
      <trkpt lat="36.852729" lon="-2.074045">
        <ele>218.188</ele>
      </trkpt>
      <trkpt lat="36.850608" lon="-2.073991">
        <ele>232.649</ele>
      </trkpt>
      <trkpt lat="36.849684" lon="-2.073973">
        <ele>235.802</ele>
      </trkpt>
      <trkpt lat="36.849469" lon="-2.074049">
        <ele>236.622</ele>
      </trkpt>
      <trkpt lat="36.849229" lon="-2.074038">
        <ele>234.909</ele>
      </trkpt>
      <trkpt lat="36.848593" lon="-2.07407">
        <ele>239.845</ele>
      </trkpt>
      <trkpt lat="36.847829" lon="-2.074327">
        <ele>241.775</ele>
      </trkpt>
      <trkpt lat="36.847188" lon="-2.074488">
        <ele>243.89</ele>
      </trkpt>
      <trkpt lat="36.846956" lon="-2.074649">
        <ele>245.693</ele>
      </trkpt>
      <trkpt lat="36.846493" lon="-2.074842">
        <ele>247.915</ele>
      </trkpt>
      <trkpt lat="36.846364" lon="-2.074939">
        <ele>247.851</ele>
      </trkpt>
      <trkpt lat="36.846252" lon="-2.0751">
        <ele>248.22</ele>
      </trkpt>
      <trkpt lat="36.845557" lon="-2.075293">
        <ele>248.036</ele>
      </trkpt>
      <trkpt lat="36.84477" lon="-2.075461">
        <ele>250.681</ele>
      </trkpt>
      <trkpt lat="36.844358" lon="-2.075579">
        <ele>250.173</ele>
      </trkpt>
      <trkpt lat="36.844186" lon="-2.075719">
        <ele>251.685</ele>
      </trkpt>
      <trkpt lat="36.843971" lon="-2.076169">
        <ele>256.413</ele>
      </trkpt>
      <trkpt lat="36.843765" lon="-2.076352">
        <ele>257.109</ele>
      </trkpt>
      <trkpt lat="36.843499" lon="-2.076684">
        <ele>261.198</ele>
      </trkpt>
      <trkpt lat="36.843104" lon="-2.077065">
        <ele>263.778</ele>
      </trkpt>
      <trkpt lat="36.842821" lon="-2.07729">
        <ele>269.663</ele>
      </trkpt>
      <trkpt lat="36.842533" lon="-2.077741">
        <ele>278.426</ele>
      </trkpt>
      <trkpt lat="36.842095" lon="-2.077875">
        <ele>281.658</ele>
      </trkpt>
      <trkpt lat="36.841818" lon="-2.077952">
        <ele>284.754</ele>
      </trkpt>
      <trkpt lat="36.841556" lon="-2.07821">
        <ele>290.423</ele>
      </trkpt>
      <trkpt lat="36.84141" lon="-2.078215">
        <ele>293.579</ele>
      </trkpt>
      <trkpt lat="36.84126" lon="-2.078456">
        <ele>302.534</ele>
      </trkpt>
      <trkpt lat="36.84092" lon="-2.078376">
        <ele>309.429</ele>
      </trkpt>
      <trkpt lat="36.840819" lon="-2.078277">
        <ele>311.5</ele>
      </trkpt>
      <trkpt lat="36.840527" lon="-2.078111">
        <ele>323.02</ele>
      </trkpt>
      <trkpt lat="36.840076" lon="-2.078176">
        <ele>339.809</ele>
      </trkpt>
      <trkpt lat="36.839484" lon="-2.078472">
        <ele>349.863</ele>
      </trkpt>
      <trkpt lat="36.839429" lon="-2.07863">
        <ele>351.613</ele>
      </trkpt>
      <trkpt lat="36.839713" lon="-2.078673">
        <ele>352.228</ele>
      </trkpt>
      <trkpt lat="36.838751" lon="-2.079113">
        <ele>375.051</ele>
      </trkpt>
      <trkpt lat="36.838369" lon="-2.079039">
        <ele>380.913</ele>
      </trkpt>
      <trkpt lat="36.837939" lon="-2.079045">
        <ele>381.649</ele>
      </trkpt>
      <trkpt lat="36.837566" lon="-2.079238">
        <ele>389.548</ele>
      </trkpt>
      <trkpt lat="36.836966" lon="-2.079569">
        <ele>402.924</ele>
      </trkpt>
      <trkpt lat="36.836305" lon="-2.079735">
        <ele>409.259</ele>
      </trkpt>
      <trkpt lat="36.835934" lon="-2.079849">
        <ele>413.062</ele>
      </trkpt>
      <trkpt lat="36.835673" lon="-2.079758">
        <ele>412.883</ele>
      </trkpt>
      <trkpt lat="36.835415" lon="-2.079828">
        <ele>413.111</ele>
      </trkpt>
      <trkpt lat="36.835187" lon="-2.079704">
        <ele>412.809</ele>
      </trkpt>
      <trkpt lat="36.834865" lon="-2.079361">
        <ele>421.027</ele>
      </trkpt>
      <trkpt lat="36.834367" lon="-2.079009">
        <ele>433.537</ele>
      </trkpt>
      <trkpt lat="36.833801" lon="-2.078564">
        <ele>432.522</ele>
      </trkpt>
      <trkpt lat="36.834561" lon="-2.076026">
        <ele>444.245</ele>
      </trkpt>
      <trkpt lat="36.834925" lon="-2.075334">
        <ele>447.117</ele>
      </trkpt>
      <trkpt lat="36.835647" lon="-2.075166">
        <ele>454.423</ele>
      </trkpt>
      <trkpt lat="36.836325" lon="-2.075134">
        <ele>454.712</ele>
      </trkpt>
      <trkpt lat="36.836548" lon="-2.075032">
        <ele>455.998</ele>
      </trkpt>
      <trkpt lat="36.836527" lon="-2.074898">
        <ele>457.623</ele>
      </trkpt>
      <trkpt lat="36.836342" lon="-2.07463">
        <ele>462.549</ele>
      </trkpt>
      <trkpt lat="36.836076" lon="-2.074388">
        <ele>463.002</ele>
      </trkpt>
      <trkpt lat="36.836063" lon="-2.073852">
        <ele>459.222</ele>
      </trkpt>
      <trkpt lat="36.836196" lon="-2.073262">
        <ele>461.509</ele>
      </trkpt>
      <trkpt lat="36.836567" lon="-2.072956">
        <ele>455.575</ele>
      </trkpt>
      <trkpt lat="36.837044" lon="-2.072784">
        <ele>448.775</ele>
      </trkpt>
      <trkpt lat="36.837198" lon="-2.072607">
        <ele>445.43</ele>
      </trkpt>
      <trkpt lat="36.837207" lon="-2.072414">
        <ele>444.353</ele>
      </trkpt>
      <trkpt lat="36.837104" lon="-2.072312">
        <ele>443.845</ele>
      </trkpt>
      <trkpt lat="36.836357" lon="-2.071947">
        <ele>439.811</ele>
      </trkpt>
      <trkpt lat="36.835969" lon="-2.071722">
        <ele>432.18</ele>
      </trkpt>
      <trkpt lat="36.835539" lon="-2.071609">
        <ele>424.846</ele>
      </trkpt>
      <trkpt lat="36.835269" lon="-2.071583">
        <ele>418.771</ele>
      </trkpt>
      <trkpt lat="36.835316" lon="-2.071486">
        <ele>415.556</ele>
      </trkpt>
      <trkpt lat="36.835776" lon="-2.071218">
        <ele>413.159</ele>
      </trkpt>
      <trkpt lat="36.836059" lon="-2.071164">
        <ele>411.414</ele>
      </trkpt>
      <trkpt lat="36.835999" lon="-2.071025">
        <ele>407.109</ele>
      </trkpt>
      <trkpt lat="36.835608" lon="-2.070971">
        <ele>403.066</ele>
      </trkpt>
      <trkpt lat="36.835174" lon="-2.071003">
        <ele>399.096</ele>
      </trkpt>
      <trkpt lat="36.834825" lon="-2.070901">
        <ele>389.931</ele>
      </trkpt>
      <trkpt lat="36.834593" lon="-2.070606">
        <ele>381.234</ele>
      </trkpt>
      <trkpt lat="36.834512" lon="-2.070403">
        <ele>380.016</ele>
      </trkpt>
      <trkpt lat="36.834542" lon="-2.070166">
        <ele>379.752</ele>
      </trkpt>
      <trkpt lat="36.83443" lon="-2.069737">
        <ele>379.051</ele>
      </trkpt>
      <trkpt lat="36.834353" lon="-2.068139">
        <ele>388.677</ele>
      </trkpt>
      <trkpt lat="36.834452" lon="-2.067699">
        <ele>391.542</ele>
      </trkpt>
      <trkpt lat="36.834881" lon="-2.067146">
        <ele>389.641</ele>
      </trkpt>
      <trkpt lat="36.835123" lon="-2.066812">
        <ele>390.581</ele>
      </trkpt>
      <trkpt lat="36.835106" lon="-2.066613">
        <ele>391.909</ele>
      </trkpt>
      <trkpt lat="36.83496" lon="-2.066533">
        <ele>392.609</ele>
      </trkpt>
      <trkpt lat="36.834655" lon="-2.066383">
        <ele>394.325</ele>
      </trkpt>
      <trkpt lat="36.834161" lon="-2.06582">
        <ele>393.945</ele>
      </trkpt>
      <trkpt lat="36.833534" lon="-2.065204">
        <ele>400.61</ele>
      </trkpt>
      <trkpt lat="36.83323" lon="-2.064974">
        <ele>402.533</ele>
      </trkpt>
      <trkpt lat="36.833135" lon="-2.064705">
        <ele>402.555</ele>
      </trkpt>
      <trkpt lat="36.833217" lon="-2.06441">
        <ele>401.781</ele>
      </trkpt>
      <trkpt lat="36.833474" lon="-2.064212">
        <ele>400.74</ele>
      </trkpt>
      <trkpt lat="36.833715" lon="-2.06389">
        <ele>400.716</ele>
      </trkpt>
      <trkpt lat="36.834024" lon="-2.062957">
        <ele>400.451</ele>
      </trkpt>
      <trkpt lat="36.834058" lon="-2.062612">
        <ele>400.563</ele>
      </trkpt>
      <trkpt lat="36.833929" lon="-2.062005">
        <ele>402.344</ele>
      </trkpt>
      <trkpt lat="36.83371" lon="-2.061367">
        <ele>396.818</ele>
      </trkpt>
      <trkpt lat="36.833612" lon="-2.061211">
        <ele>396.209</ele>
      </trkpt>
      <trkpt lat="36.833367" lon="-2.061093">
        <ele>394.067</ele>
      </trkpt>
      <trkpt lat="36.833131" lon="-2.061018">
        <ele>391.347</ele>
      </trkpt>
      <trkpt lat="36.832873" lon="-2.060981">
        <ele>390.752</ele>
      </trkpt>
      <trkpt lat="36.83266" lon="-2.061174">
        <ele>386.065</ele>
      </trkpt>
      <trkpt lat="36.832703" lon="-2.061346">
        <ele>383.947</ele>
      </trkpt>
      <trkpt lat="36.832471" lon="-2.06149">
        <ele>376.633</ele>
      </trkpt>
      <trkpt lat="36.832516" lon="-2.061571">
        <ele>376.082</ele>
      </trkpt>
      <trkpt lat="36.832149" lon="-2.06185">
        <ele>365.858</ele>
      </trkpt>
      <trkpt lat="36.831874" lon="-2.062022">
        <ele>357.633</ele>
      </trkpt>
      <trkpt lat="36.831636" lon="-2.062073">
        <ele>350.827</ele>
      </trkpt>
      <trkpt lat="36.831446" lon="-2.062054">
        <ele>347.668</ele>
      </trkpt>
      <trkpt lat="36.831116" lon="-2.062252">
        <ele>336.514</ele>
      </trkpt>
      <trkpt lat="36.83091" lon="-2.062279">
        <ele>331.909</ele>
      </trkpt>
      <trkpt lat="36.830629" lon="-2.062209">
        <ele>329.933</ele>
      </trkpt>
      <trkpt lat="36.830406" lon="-2.061914">
        <ele>324.483</ele>
      </trkpt>
      <trkpt lat="36.830204" lon="-2.061533">
        <ele>320.398</ele>
      </trkpt>
      <trkpt lat="36.830079" lon="-2.061281">
        <ele>318.141</ele>
      </trkpt>
      <trkpt lat="36.830028" lon="-2.060895">
        <ele>312.443</ele>
      </trkpt>
      <trkpt lat="36.829976" lon="-2.060686">
        <ele>308.589</ele>
      </trkpt>
      <trkpt lat="36.829676" lon="-2.060224">
        <ele>296.548</ele>
      </trkpt>
      <trkpt lat="36.829397" lon="-2.059869">
        <ele>293.764</ele>
      </trkpt>
      <trkpt lat="36.829354" lon="-2.059665">
        <ele>294.439</ele>
      </trkpt>
      <trkpt lat="36.829246" lon="-2.059246">
        <ele>292.741</ele>
      </trkpt>
      <trkpt lat="36.829375" lon="-2.058957">
        <ele>289.181</ele>
      </trkpt>
      <trkpt lat="36.829435" lon="-2.05856">
        <ele>282.609</ele>
      </trkpt>
      <trkpt lat="36.829455" lon="-2.058383">
        <ele>280.609</ele>
      </trkpt>
      <trkpt lat="36.829417" lon="-2.057993">
        <ele>277.255</ele>
      </trkpt>
      <trkpt lat="36.829535" lon="-2.057725">
        <ele>274.215</ele>
      </trkpt>
      <trkpt lat="36.829556" lon="-2.057564">
        <ele>272.08</ele>
      </trkpt>
      <trkpt lat="36.829684" lon="-2.057456">
        <ele>270.473</ele>
      </trkpt>
      <trkpt lat="36.829929" lon="-2.057376">
        <ele>269.015</ele>
      </trkpt>
      <trkpt lat="36.830316" lon="-2.057354">
        <ele>267.811</ele>
      </trkpt>
      <trkpt lat="36.830629" lon="-2.057322">
        <ele>266.17</ele>
      </trkpt>
      <trkpt lat="36.830852" lon="-2.057172">
        <ele>262.656</ele>
      </trkpt>
      <trkpt lat="36.830921" lon="-2.056947">
        <ele>259.821</ele>
      </trkpt>
      <trkpt lat="36.830977" lon="-2.056754">
        <ele>259.121</ele>
      </trkpt>
      <trkpt lat="36.831273" lon="-2.056502">
        <ele>251.541</ele>
      </trkpt>
      <trkpt lat="36.83138" lon="-2.056248">
        <ele>245.105</ele>
      </trkpt>
      <trkpt lat="36.831419" lon="-2.055904">
        <ele>243.109</ele>
      </trkpt>
      <trkpt lat="36.831436" lon="-2.055604">
        <ele>242.763</ele>
      </trkpt>
      <trkpt lat="36.831393" lon="-2.055336">
        <ele>240.433</ele>
      </trkpt>
      <trkpt lat="36.83126" lon="-2.054971">
        <ele>238.538</ele>
      </trkpt>
      <trkpt lat="36.831136" lon="-2.054601">
        <ele>228.351</ele>
      </trkpt>
      <trkpt lat="36.831136" lon="-2.054161">
        <ele>221.353</ele>
      </trkpt>
      <trkpt lat="36.831307" lon="-2.053678">
        <ele>218.359</ele>
      </trkpt>
      <trkpt lat="36.831329" lon="-2.053469">
        <ele>218.258</ele>
      </trkpt>
      <trkpt lat="36.831518" lon="-2.053163">
        <ele>213.384</ele>
      </trkpt>
      <trkpt lat="36.831621" lon="-2.052893">
        <ele>208.319</ele>
      </trkpt>
      <trkpt lat="36.831629" lon="-2.052625">
        <ele>207.264</ele>
      </trkpt>
      <trkpt lat="36.831784" lon="-2.052056">
        <ele>204.506</ele>
      </trkpt>
      <trkpt lat="36.831896" lon="-2.051863">
        <ele>202.916</ele>
      </trkpt>
      <trkpt lat="36.832226" lon="-2.051686">
        <ele>200.009</ele>
      </trkpt>
      <trkpt lat="36.832338" lon="-2.051557">
        <ele>199.217</ele>
      </trkpt>
      <trkpt lat="36.832269" lon="-2.051343">
        <ele>197.447</ele>
      </trkpt>
      <trkpt lat="36.832222" lon="-2.050924">
        <ele>190.622</ele>
      </trkpt>
      <trkpt lat="36.832196" lon="-2.050678">
        <ele>188.095</ele>
      </trkpt>
      <trkpt lat="36.832119" lon="-2.050635">
        <ele>187.947</ele>
      </trkpt>
      <trkpt lat="36.832231" lon="-2.050522">
        <ele>187.643</ele>
      </trkpt>
      <trkpt lat="36.831913" lon="-2.050399">
        <ele>185.922</ele>
      </trkpt>
      <trkpt lat="36.831687" lon="-2.050182">
        <ele>182.048</ele>
      </trkpt>
      <trkpt lat="36.831498" lon="-2.050043">
        <ele>178.583</ele>
      </trkpt>
      <trkpt lat="36.831244" lon="-2.050231">
        <ele>172.056</ele>
      </trkpt>
      <trkpt lat="36.831171" lon="-2.050273">
        <ele>170.359</ele>
      </trkpt>
      <trkpt lat="36.830957" lon="-2.050349">
        <ele>167.214</ele>
      </trkpt>
      <trkpt lat="36.830785" lon="-2.050273">
        <ele>164.709</ele>
      </trkpt>
      <trkpt lat="36.83057" lon="-2.050075">
        <ele>162.436</ele>
      </trkpt>
      <trkpt lat="36.830443" lon="-2.049748">
        <ele>153.756</ele>
      </trkpt>
      <trkpt lat="36.830327" lon="-2.049512">
        <ele>147.481</ele>
      </trkpt>
      <trkpt lat="36.830224" lon="-2.049351">
        <ele>142.464</ele>
      </trkpt>
      <trkpt lat="36.829902" lon="-2.04927">
        <ele>136.896</ele>
      </trkpt>
      <trkpt lat="36.8296" lon="-2.049226">
        <ele>130.752</ele>
      </trkpt>
      <trkpt lat="36.829334" lon="-2.049193">
        <ele>123.581</ele>
      </trkpt>
      <trkpt lat="36.829162" lon="-2.049075">
        <ele>120.117</ele>
      </trkpt>
      <trkpt lat="36.828917" lon="-2.048904">
        <ele>115.522</ele>
      </trkpt>
      <trkpt lat="36.828511" lon="-2.048773">
        <ele>105.537</ele>
      </trkpt>
      <trkpt lat="36.82836" lon="-2.048639">
        <ele>101.749</ele>
      </trkpt>
      <trkpt lat="36.828232" lon="-2.048805">
        <ele>100.513</ele>
      </trkpt>
      <trkpt lat="36.827807" lon="-2.04858">
        <ele>98.309</ele>
      </trkpt>
      <trkpt lat="36.82745" lon="-2.048265">
        <ele>86.544</ele>
      </trkpt>
      <trkpt lat="36.827158" lon="-2.048169">
        <ele>82.014</ele>
      </trkpt>
      <trkpt lat="36.826875" lon="-2.048206">
        <ele>79.669</ele>
      </trkpt>
      <trkpt lat="36.826656" lon="-2.048153">
        <ele>75.512</ele>
      </trkpt>
      <trkpt lat="36.826369" lon="-2.048124">
        <ele>71.894</ele>
      </trkpt>
      <trkpt lat="36.826138" lon="-2.048011">
        <ele>69.11</ele>
      </trkpt>
      <trkpt lat="36.825592" lon="-2.048006">
        <ele>69.079</ele>
      </trkpt>
      <trkpt lat="36.825592" lon="-2.047824">
        <ele>65.735</ele>
      </trkpt>
      <trkpt lat="36.825519" lon="-2.047663">
        <ele>62.51</ele>
      </trkpt>
      <trkpt lat="36.825459" lon="-2.04728">
        <ele>55.783</ele>
      </trkpt>
      <trkpt lat="36.825472" lon="-2.046942">
        <ele>53.325</ele>
      </trkpt>
      <trkpt lat="36.825438" lon="-2.046679">
        <ele>52.317</ele>
      </trkpt>
      <trkpt lat="36.825429" lon="-2.046331">
        <ele>53.509</ele>
      </trkpt>
      <trkpt lat="36.825395" lon="-2.045853">
        <ele>55.069</ele>
      </trkpt>
      <trkpt lat="36.825348" lon="-2.045596">
        <ele>53.629</ele>
      </trkpt>
      <trkpt lat="36.825283" lon="-2.045183">
        <ele>51.744</ele>
      </trkpt>
      <trkpt lat="36.825163" lon="-2.044737">
        <ele>47.137</ele>
      </trkpt>
      <trkpt lat="36.82506" lon="-2.044523">
        <ele>44.479</ele>
      </trkpt>
      <trkpt lat="36.824287" lon="-2.044516">
        <ele>32.755</ele>
      </trkpt>
      <trkpt lat="36.8239" lon="-2.044462">
        <ele>28.494</ele>
      </trkpt>
      <trkpt lat="36.823618" lon="-2.044221">
        <ele>27.31</ele>
      </trkpt>
      <trkpt lat="36.823494" lon="-2.043915">
        <ele>28.735</ele>
      </trkpt>
      <trkpt lat="36.823262" lon="-2.043775">
        <ele>27.095</ele>
      </trkpt>
      <trkpt lat="36.822901" lon="-2.043593">
        <ele>23.549</ele>
      </trkpt>
      <trkpt lat="36.822432" lon="-2.043521">
        <ele>18.823</ele>
      </trkpt>
      <trkpt lat="36.822243" lon="-2.043806">
        <ele>18.509</ele>
      </trkpt>
      <trkpt lat="36.822174" lon="-2.04417">
        <ele>21.41</ele>
      </trkpt>
      <trkpt lat="36.822286" lon="-2.044873">
        <ele>27.07</ele>
      </trkpt>
      <trkpt lat="36.82244" lon="-2.045453">
        <ele>34.025</ele>
      </trkpt>
      <trkpt lat="36.822531" lon="-2.045699">
        <ele>35.098</ele>
      </trkpt>
      <trkpt lat="36.822531" lon="-2.045968">
        <ele>36.08</ele>
      </trkpt>
      <trkpt lat="36.822393" lon="-2.046241">
        <ele>37.416</ele>
      </trkpt>
      <trkpt lat="36.822296" lon="-2.046475">
        <ele>37.395</ele>
      </trkpt>
      <trkpt lat="36.822171" lon="-2.046947">
        <ele>33.741</ele>
      </trkpt>
      <trkpt lat="36.822064" lon="-2.047318">
        <ele>32.216</ele>
      </trkpt>
      <trkpt lat="36.822034" lon="-2.047436">
        <ele>32.877</ele>
      </trkpt>
      <trkpt lat="36.821716" lon="-2.047876">
        <ele>37.761</ele>
      </trkpt>
      <trkpt lat="36.821622" lon="-2.048278">
        <ele>39.827</ele>
      </trkpt>
      <trkpt lat="36.821427" lon="-2.048589">
        <ele>39.109</ele>
      </trkpt>
      <trkpt lat="36.821268" lon="-2.048675">
        <ele>39.378</ele>
      </trkpt>
      <trkpt lat="36.821135" lon="-2.048841">
        <ele>39.248</ele>
      </trkpt>
      <trkpt lat="36.820912" lon="-2.048943">
        <ele>38.263</ele>
      </trkpt>
      <trkpt lat="36.82059" lon="-2.049415">
        <ele>35.336</ele>
      </trkpt>
      <trkpt lat="36.820529" lon="-2.049689">
        <ele>33.248</ele>
      </trkpt>
      <trkpt lat="36.820416" lon="-2.049762">
        <ele>32.474</ele>
      </trkpt>
      <trkpt lat="36.820223" lon="-2.049751">
        <ele>31.673</ele>
      </trkpt>
      <trkpt lat="36.820038" lon="-2.04988">
        <ele>30.389</ele>
      </trkpt>
      <trkpt lat="36.819781" lon="-2.050041">
        <ele>28.074</ele>
      </trkpt>
      <trkpt lat="36.819562" lon="-2.050309">
        <ele>27.124</ele>
      </trkpt>
      <trkpt lat="36.819054" lon="-2.050704">
        <ele>20.804</ele>
      </trkpt>
      <trkpt lat="36.818847" lon="-2.050753">
        <ele>18.714</ele>
      </trkpt>
      <trkpt lat="36.818744" lon="-2.050688">
        <ele>18.009</ele>
      </trkpt>
      <trkpt lat="36.818667" lon="-2.050474">
        <ele>17.633</ele>
      </trkpt>
      <trkpt lat="36.818332" lon="-2.050778">
        <ele>15.023</ele>
      </trkpt>
      <trkpt lat="36.8181" lon="-2.050901">
        <ele>14.058</ele>
      </trkpt>
      <trkpt lat="36.817921" lon="-2.051268">
        <ele>14.171</ele>
      </trkpt>
      <trkpt lat="36.817784" lon="-2.051466">
        <ele>15.593</ele>
      </trkpt>
      <trkpt lat="36.817423" lon="-2.051337">
        <ele>15.269</ele>
      </trkpt>
      <trkpt lat="36.817041" lon="-2.05115">
        <ele>14.178</ele>
      </trkpt>
      <trkpt lat="36.816556" lon="-2.051289">
        <ele>11.374</ele>
      </trkpt>
      <trkpt lat="36.816368" lon="-2.051563">
        <ele>11.319</ele>
      </trkpt>
      <trkpt lat="36.815836" lon="-2.051493">
        <ele>11.586</ele>
      </trkpt>
      <trkpt lat="36.815518" lon="-2.051522">
        <ele>11.46</ele>
      </trkpt>
      <trkpt lat="36.815337" lon="-2.051725">
        <ele>10.526</ele>
      </trkpt>
      <trkpt lat="36.815327" lon="-2.051783">
        <ele>11.25</ele>
      </trkpt>
      <trkpt lat="36.81486" lon="-2.051663">
        <ele>9.5</ele>
      </trkpt>
      <trkpt lat="36.814786" lon="-2.051648">
        <ele>9.25</ele>
      </trkpt>
      <trkpt lat="36.814641" lon="-2.051619">
        <ele>8.75</ele>
      </trkpt>
      <trkpt lat="36.814388" lon="-2.051567">
        <ele>8</ele>
      </trkpt>
      <trkpt lat="36.814277" lon="-2.051561">
        <ele>7.75</ele>
      </trkpt>
      <trkpt lat="36.814195" lon="-2.051625">
        <ele>7.75</ele>
      </trkpt>
      <trkpt lat="36.814142" lon="-2.051734">
        <ele>8</ele>
      </trkpt>
      <trkpt lat="36.813982" lon="-2.051661">
        <ele>7</ele>
      </trkpt>
      <trkpt lat="36.813838" lon="-2.051575">
        <ele>6</ele>
      </trkpt>
      <trkpt lat="36.813805" lon="-2.051653">
        <ele>6.5</ele>
      </trkpt>
    </trkseg>
  </trk>
</gpx>
