<?xml version="1.0" encoding="UTF-8"?>
<gpx creator="Wikiloc - https://www.wikiloc.com" version="1.1" schemaLocation="http://www.topografix.com/GPX/1/1 http://www.topografix.com/GPX/1/1/gpx.xsd" xmlns="http://www.topografix.com/GPX/1/1" xmlns:xsi="http://www.w3.org/2001/XMLSchema-instance" xsi:schemaLocation="http://www.topografix.com/GPX/1/1 http://www.topografix.com/GPX/1/1/gpx.xsd http://www.garmin.com/xmlschemas/GpxExtensions/v3 http://www.garmin.com/xmlschemas/GpxExtensionsv3.xsd http://www.garmin.com/xmlschemas/TrackPointExtension/v1 http://www.garmin.com/xmlschemas/TrackPointExtensionv1.xsd http://www.garmin.com/xmlschemas/PowerExtension/v1 http://www.garmin.com/xmlschemas/PowerExtensionv1.xsd http://www.topografix.com/GPX/gpx_style/0/2 http://www.topografix.com/GPX/gpx_style/0/2/gpx_style.xsd" xmlns:gpxtpx="http://www.garmin.com/xmlschemas/TrackPointExtension/v1" xmlns:gpxx="http://www.garmin.com/xmlschemas/GpxExtensions/v3" xmlns:gpxpx="http://www.garmin.com/xmlschemas/PowerExtension/v1" xmlns:gpx_style="http://www.topografix.com/GPX/gpx_style/0/2">
  <metadata>
    <name>Wikiloc - La Isleta - San José</name>
    <author>
      <name>gpx.studio</name>
      <link href="https://gpx.studio"/>
    </author>
    <link href="https://www.wikiloc.com/hiking-trails/la-isleta-san-jose-116918645">
      <text>La Isleta - San José on Wikiloc</text>
    </link>
  </metadata>
  <wpt lat="36.801444" lon="-2.0633">
    <ele>3.4106513214038827</ele>
    <name>Castillo de San Felipe</name>
  </wpt>
  <wpt lat="36.765062" lon="-2.089146">
    <ele>94.43813969102743</ele>
    <name>Torre de Cala Higuera, Bahía del Sollarete y Castillo de San José</name>
  </wpt>
  <trk>
    <name>La Isleta - San José - Wikiloc</name>
    <trkseg>
      <trkpt lat="36.81383" lon="-2.051594">
        <ele>6</ele>
      </trkpt>
      <trkpt lat="36.813838" lon="-2.051575">
        <ele>6</ele>
      </trkpt>
      <trkpt lat="36.813982" lon="-2.051661">
        <ele>7</ele>
      </trkpt>
      <trkpt lat="36.814142" lon="-2.051734">
        <ele>8</ele>
      </trkpt>
      <trkpt lat="36.814131" lon="-2.051801">
        <ele>8.25</ele>
      </trkpt>
      <trkpt lat="36.814128" lon="-2.051813">
        <ele>8.5</ele>
      </trkpt>
      <trkpt lat="36.814116" lon="-2.05185">
        <ele>8.75</ele>
      </trkpt>
      <trkpt lat="36.814117" lon="-2.051849">
        <ele>8.75</ele>
      </trkpt>
      <trkpt lat="36.81409" lon="-2.051935">
        <ele>8.75</ele>
      </trkpt>
      <trkpt lat="36.814022" lon="-2.052151">
        <ele>9.25</ele>
      </trkpt>
      <trkpt lat="36.813952" lon="-2.052305">
        <ele>9.5</ele>
      </trkpt>
      <trkpt lat="36.813929" lon="-2.052377">
        <ele>9.75</ele>
      </trkpt>
      <trkpt lat="36.813923" lon="-2.052444">
        <ele>10</ele>
      </trkpt>
      <trkpt lat="36.813923" lon="-2.052442">
        <ele>9.644</ele>
      </trkpt>
      <trkpt lat="36.81394" lon="-2.052711">
        <ele>11.334</ele>
      </trkpt>
      <trkpt lat="36.814018" lon="-2.053059">
        <ele>15.979</ele>
      </trkpt>
      <trkpt lat="36.814112" lon="-2.053633">
        <ele>18.192</ele>
      </trkpt>
      <trkpt lat="36.814082" lon="-2.053998">
        <ele>15.334</ele>
      </trkpt>
      <trkpt lat="36.814237" lon="-2.05427">
        <ele>15.981</ele>
      </trkpt>
      <trkpt lat="36.814477" lon="-2.054281">
        <ele>17.439</ele>
      </trkpt>
      <trkpt lat="36.814546" lon="-2.054527">
        <ele>18.617</ele>
      </trkpt>
      <trkpt lat="36.814421" lon="-2.054721">
        <ele>20.958</ele>
      </trkpt>
      <trkpt lat="36.814224" lon="-2.054903">
        <ele>20.513</ele>
      </trkpt>
      <trkpt lat="36.814144" lon="-2.055327">
        <ele>19.643</ele>
      </trkpt>
      <trkpt lat="36.814075" lon="-2.055536">
        <ele>18.707</ele>
      </trkpt>
      <trkpt lat="36.814152" lon="-2.05575">
        <ele>19.209</ele>
      </trkpt>
      <trkpt lat="36.814156" lon="-2.055895">
        <ele>18.332</ele>
      </trkpt>
      <trkpt lat="36.814195" lon="-2.055974">
        <ele>18.022</ele>
      </trkpt>
      <trkpt lat="36.814277" lon="-2.056054">
        <ele>18.377</ele>
      </trkpt>
      <trkpt lat="36.814313" lon="-2.056194">
        <ele>17.88</ele>
      </trkpt>
      <trkpt lat="36.814292" lon="-2.056312">
        <ele>16.922</ele>
      </trkpt>
      <trkpt lat="36.8143" lon="-2.05643">
        <ele>16.449</ele>
      </trkpt>
      <trkpt lat="36.814348" lon="-2.056513">
        <ele>16.557</ele>
      </trkpt>
      <trkpt lat="36.814307" lon="-2.056626">
        <ele>15.885</ele>
      </trkpt>
      <trkpt lat="36.81444" lon="-2.056728">
        <ele>16.476</ele>
      </trkpt>
      <trkpt lat="36.814494" lon="-2.056891">
        <ele>17.127</ele>
      </trkpt>
      <trkpt lat="36.81465" lon="-2.057047">
        <ele>18.068</ele>
      </trkpt>
      <trkpt lat="36.814757" lon="-2.057181">
        <ele>18.914</ele>
      </trkpt>
      <trkpt lat="36.814819" lon="-2.057412">
        <ele>22.509</ele>
      </trkpt>
      <trkpt lat="36.814836" lon="-2.057605">
        <ele>25.233</ele>
      </trkpt>
      <trkpt lat="36.814832" lon="-2.057701">
        <ele>26.743</ele>
      </trkpt>
      <trkpt lat="36.814961" lon="-2.058123">
        <ele>28.818</ele>
      </trkpt>
      <trkpt lat="36.814997" lon="-2.058311">
        <ele>31.771</ele>
      </trkpt>
      <trkpt lat="36.814985" lon="-2.058515">
        <ele>34.163</ele>
      </trkpt>
      <trkpt lat="36.815066" lon="-2.058754">
        <ele>35.45</ele>
      </trkpt>
      <trkpt lat="36.815025" lon="-2.058995">
        <ele>37.718</ele>
      </trkpt>
      <trkpt lat="36.815007" lon="-2.059542">
        <ele>40.846</ele>
      </trkpt>
      <trkpt lat="36.814982" lon="-2.059617">
        <ele>41.397</ele>
      </trkpt>
      <trkpt lat="36.814879" lon="-2.059759">
        <ele>41.766</ele>
      </trkpt>
      <trkpt lat="36.814696" lon="-2.0598">
        <ele>41.029</ele>
      </trkpt>
      <trkpt lat="36.81455" lon="-2.059931">
        <ele>40.821</ele>
      </trkpt>
      <trkpt lat="36.814248" lon="-2.060138">
        <ele>38.709</ele>
      </trkpt>
      <trkpt lat="36.81419" lon="-2.060258">
        <ele>38.277</ele>
      </trkpt>
      <trkpt lat="36.814033" lon="-2.060379">
        <ele>37.617</ele>
      </trkpt>
      <trkpt lat="36.813694" lon="-2.060545">
        <ele>37.482</ele>
      </trkpt>
      <trkpt lat="36.8132" lon="-2.060282">
        <ele>35.155</ele>
      </trkpt>
      <trkpt lat="36.812904" lon="-2.060115">
        <ele>33.137</ele>
      </trkpt>
      <trkpt lat="36.812792" lon="-2.060169">
        <ele>33.364</ele>
      </trkpt>
      <trkpt lat="36.81268" lon="-2.060319">
        <ele>33.362</ele>
      </trkpt>
      <trkpt lat="36.812504" lon="-2.060378">
        <ele>32.11</ele>
      </trkpt>
      <trkpt lat="36.812294" lon="-2.060341">
        <ele>30.041</ele>
      </trkpt>
      <trkpt lat="36.811442" lon="-2.059618">
        <ele>22.548</ele>
      </trkpt>
      <trkpt lat="36.810815" lon="-2.0591">
        <ele>17.661</ele>
      </trkpt>
      <trkpt lat="36.810652" lon="-2.059089">
        <ele>13.717</ele>
      </trkpt>
      <trkpt lat="36.810523" lon="-2.059304">
        <ele>13.109</ele>
      </trkpt>
      <trkpt lat="36.810399" lon="-2.059534">
        <ele>12.325</ele>
      </trkpt>
      <trkpt lat="36.810373" lon="-2.059717">
        <ele>11.135</ele>
      </trkpt>
      <trkpt lat="36.810467" lon="-2.059979">
        <ele>11.27</ele>
      </trkpt>
      <trkpt lat="36.810453" lon="-2.060072">
        <ele>10.883</ele>
      </trkpt>
      <trkpt lat="36.810324" lon="-2.060292">
        <ele>9.515</ele>
      </trkpt>
      <trkpt lat="36.810187" lon="-2.060212">
        <ele>9.112</ele>
      </trkpt>
      <trkpt lat="36.810048" lon="-2.06031">
        <ele>10.37</ele>
      </trkpt>
      <trkpt lat="36.810013" lon="-2.060482">
        <ele>12.358</ele>
      </trkpt>
      <trkpt lat="36.809769" lon="-2.060536">
        <ele>13.659</ele>
      </trkpt>
      <trkpt lat="36.809925" lon="-2.060781">
        <ele>15.664</ele>
      </trkpt>
      <trkpt lat="36.810162" lon="-2.061047">
        <ele>16.906</ele>
      </trkpt>
      <trkpt lat="36.810244" lon="-2.061465">
        <ele>19.116</ele>
      </trkpt>
      <trkpt lat="36.810218" lon="-2.06161">
        <ele>19.209</ele>
      </trkpt>
      <trkpt lat="36.8099" lon="-2.061734">
        <ele>19.177</ele>
      </trkpt>
      <trkpt lat="36.809505" lon="-2.061809">
        <ele>14.487</ele>
      </trkpt>
      <trkpt lat="36.809205" lon="-2.06183">
        <ele>10.972</ele>
      </trkpt>
      <trkpt lat="36.809097" lon="-2.061873">
        <ele>10.175</ele>
      </trkpt>
      <trkpt lat="36.8089" lon="-2.061916">
        <ele>9.297</ele>
      </trkpt>
      <trkpt lat="36.808749" lon="-2.061771">
        <ele>9.234</ele>
      </trkpt>
      <trkpt lat="36.808194" lon="-2.061728">
        <ele>6.672</ele>
      </trkpt>
      <trkpt lat="36.807859" lon="-2.061712">
        <ele>5.49</ele>
      </trkpt>
      <trkpt lat="36.807415" lon="-2.061877">
        <ele>4.191</ele>
      </trkpt>
      <trkpt lat="36.807089" lon="-2.062107">
        <ele>5.284</ele>
      </trkpt>
      <trkpt lat="36.806603" lon="-2.062456">
        <ele>6.907</ele>
      </trkpt>
      <trkpt lat="36.806032" lon="-2.062769">
        <ele>1.517</ele>
      </trkpt>
      <trkpt lat="36.805602" lon="-2.062967">
        <ele>0.509</ele>
      </trkpt>
      <trkpt lat="36.805362" lon="-2.063184">
        <ele>-1.439</ele>
      </trkpt>
      <trkpt lat="36.80516" lon="-2.063195">
        <ele>-1.779</ele>
      </trkpt>
      <trkpt lat="36.804864" lon="-2.063168">
        <ele>-0.634</ele>
      </trkpt>
      <trkpt lat="36.804666" lon="-2.063093">
        <ele>1.527</ele>
      </trkpt>
      <trkpt lat="36.804477" lon="-2.063119">
        <ele>1.439</ele>
      </trkpt>
      <trkpt lat="36.804331" lon="-2.063393">
        <ele>1.136</ele>
      </trkpt>
      <trkpt lat="36.804314" lon="-2.063801">
        <ele>5.354</ele>
      </trkpt>
      <trkpt lat="36.804062" lon="-2.06409">
        <ele>6.042</ele>
      </trkpt>
      <trkpt lat="36.803826" lon="-2.064055">
        <ele>5.313</ele>
      </trkpt>
      <trkpt lat="36.803628" lon="-2.063422">
        <ele>7.148</ele>
      </trkpt>
      <trkpt lat="36.802872" lon="-2.063336">
        <ele>6.161</ele>
      </trkpt>
      <trkpt lat="36.802473" lon="-2.063339">
        <ele>8.017</ele>
      </trkpt>
      <trkpt lat="36.802026" lon="-2.063538">
        <ele>4.509</ele>
      </trkpt>
      <trkpt lat="36.801665" lon="-2.063468">
        <ele>1.745</ele>
      </trkpt>
      <trkpt lat="36.801412" lon="-2.063286">
        <ele>3.335</ele>
      </trkpt>
      <trkpt lat="36.801344" lon="-2.063193">
        <ele>3.84</ele>
      </trkpt>
      <trkpt lat="36.80125" lon="-2.063279">
        <ele>3.893</ele>
      </trkpt>
      <trkpt lat="36.800799" lon="-2.0633">
        <ele>5.395</ele>
      </trkpt>
      <trkpt lat="36.800419" lon="-2.063282">
        <ele>6.722</ele>
      </trkpt>
      <trkpt lat="36.800119" lon="-2.063432">
        <ele>8.75</ele>
      </trkpt>
      <trkpt lat="36.7999" lon="-2.063518">
        <ele>9.458</ele>
      </trkpt>
      <trkpt lat="36.799526" lon="-2.063422">
        <ele>10.039</ele>
      </trkpt>
      <trkpt lat="36.799185" lon="-2.063368">
        <ele>9.364</ele>
      </trkpt>
      <trkpt lat="36.798885" lon="-2.063336">
        <ele>9.306</ele>
      </trkpt>
      <trkpt lat="36.798429" lon="-2.063325">
        <ele>8.316</ele>
      </trkpt>
      <trkpt lat="36.798008" lon="-2.063314">
        <ele>9.609</ele>
      </trkpt>
      <trkpt lat="36.797669" lon="-2.063309">
        <ele>11.347</ele>
      </trkpt>
      <trkpt lat="36.797341" lon="-2.063395">
        <ele>11.047</ele>
      </trkpt>
      <trkpt lat="36.796301" lon="-2.063352">
        <ele>7.482</ele>
      </trkpt>
      <trkpt lat="36.795418" lon="-2.063397">
        <ele>8.845</ele>
      </trkpt>
      <trkpt lat="36.794915" lon="-2.063418">
        <ele>6.167</ele>
      </trkpt>
      <trkpt lat="36.794101" lon="-2.063445">
        <ele>7.864</ele>
      </trkpt>
      <trkpt lat="36.793766" lon="-2.063434">
        <ele>10.732</ele>
      </trkpt>
      <trkpt lat="36.793296" lon="-2.06345">
        <ele>10.06</ele>
      </trkpt>
      <trkpt lat="36.793021" lon="-2.063622">
        <ele>10.471</ele>
      </trkpt>
      <trkpt lat="36.79272" lon="-2.064051">
        <ele>15.853</ele>
      </trkpt>
      <trkpt lat="36.792304" lon="-2.064484">
        <ele>20.304</ele>
      </trkpt>
      <trkpt lat="36.791663" lon="-2.064398">
        <ele>22.014</ele>
      </trkpt>
      <trkpt lat="36.790684" lon="-2.06408">
        <ele>33.009</ele>
      </trkpt>
      <trkpt lat="36.789261" lon="-2.063522">
        <ele>41.386</ele>
      </trkpt>
      <trkpt lat="36.78863" lon="-2.063245">
        <ele>43.886</ele>
      </trkpt>
      <trkpt lat="36.787952" lon="-2.063443">
        <ele>52.531</ele>
      </trkpt>
      <trkpt lat="36.787519" lon="-2.063819">
        <ele>51.374</ele>
      </trkpt>
      <trkpt lat="36.787218" lon="-2.064291">
        <ele>53.566</ele>
      </trkpt>
      <trkpt lat="36.786815" lon="-2.064666">
        <ele>50.973</ele>
      </trkpt>
      <trkpt lat="36.786617" lon="-2.064773">
        <ele>50.991</ele>
      </trkpt>
      <trkpt lat="36.786394" lon="-2.064752">
        <ele>48.869</ele>
      </trkpt>
      <trkpt lat="36.785766" lon="-2.064562">
        <ele>57.01</ele>
      </trkpt>
      <trkpt lat="36.785238" lon="-2.064326">
        <ele>62.697</ele>
      </trkpt>
      <trkpt lat="36.784825" lon="-2.064443">
        <ele>69.823</ele>
      </trkpt>
      <trkpt lat="36.784233" lon="-2.065129">
        <ele>64.425</ele>
      </trkpt>
      <trkpt lat="36.783794" lon="-2.065609">
        <ele>64.309</ele>
      </trkpt>
      <trkpt lat="36.783597" lon="-2.06571">
        <ele>63.41</ele>
      </trkpt>
      <trkpt lat="36.782952" lon="-2.065727">
        <ele>62.28</ele>
      </trkpt>
      <trkpt lat="36.781847" lon="-2.065578">
        <ele>62.955</ele>
      </trkpt>
      <trkpt lat="36.781408" lon="-2.065315">
        <ele>65.718</ele>
      </trkpt>
      <trkpt lat="36.780996" lon="-2.065172">
        <ele>73.71</ele>
      </trkpt>
      <trkpt lat="36.780777" lon="-2.065204">
        <ele>74.597</ele>
      </trkpt>
      <trkpt lat="36.780115" lon="-2.065494">
        <ele>80.785</ele>
      </trkpt>
      <trkpt lat="36.779982" lon="-2.065805">
        <ele>83.773</ele>
      </trkpt>
      <trkpt lat="36.780137" lon="-2.066481">
        <ele>83.874</ele>
      </trkpt>
      <trkpt lat="36.780012" lon="-2.067103">
        <ele>81.899</ele>
      </trkpt>
      <trkpt lat="36.780001" lon="-2.067547">
        <ele>86.607</ele>
      </trkpt>
      <trkpt lat="36.780202" lon="-2.068169">
        <ele>93.527</ele>
      </trkpt>
      <trkpt lat="36.779992" lon="-2.06848">
        <ele>93.409</ele>
      </trkpt>
      <trkpt lat="36.779803" lon="-2.068448">
        <ele>94.62</ele>
      </trkpt>
      <trkpt lat="36.779292" lon="-2.067885">
        <ele>88.13</ele>
      </trkpt>
      <trkpt lat="36.778573" lon="-2.067363">
        <ele>88.765</ele>
      </trkpt>
      <trkpt lat="36.778341" lon="-2.067497">
        <ele>91.278</ele>
      </trkpt>
      <trkpt lat="36.778203" lon="-2.067663">
        <ele>93.11</ele>
      </trkpt>
      <trkpt lat="36.778195" lon="-2.068012">
        <ele>92.957</ele>
      </trkpt>
      <trkpt lat="36.778306" lon="-2.06843">
        <ele>88.055</ele>
      </trkpt>
      <trkpt lat="36.778683" lon="-2.068959">
        <ele>89.643</ele>
      </trkpt>
      <trkpt lat="36.778971" lon="-2.069651">
        <ele>85.764</ele>
      </trkpt>
      <trkpt lat="36.779014" lon="-2.070006">
        <ele>85.687</ele>
      </trkpt>
      <trkpt lat="36.778945" lon="-2.070295">
        <ele>83.442</ele>
      </trkpt>
      <trkpt lat="36.778825" lon="-2.070547">
        <ele>82.526</ele>
      </trkpt>
      <trkpt lat="36.778636" lon="-2.070665">
        <ele>82.909</ele>
      </trkpt>
      <trkpt lat="36.778416" lon="-2.070698">
        <ele>82.269</ele>
      </trkpt>
      <trkpt lat="36.778017" lon="-2.070681">
        <ele>82.419</ele>
      </trkpt>
      <trkpt lat="36.777739" lon="-2.070853">
        <ele>81.174</ele>
      </trkpt>
      <trkpt lat="36.777662" lon="-2.071143">
        <ele>80.357</ele>
      </trkpt>
      <trkpt lat="36.777653" lon="-2.071438">
        <ele>80.339</ele>
      </trkpt>
      <trkpt lat="36.777549" lon="-2.071849">
        <ele>81.336</ele>
      </trkpt>
      <trkpt lat="36.777368" lon="-2.072062">
        <ele>82.284</ele>
      </trkpt>
      <trkpt lat="36.776943" lon="-2.072529">
        <ele>86.482</ele>
      </trkpt>
      <trkpt lat="36.776689" lon="-2.072824">
        <ele>85.863</ele>
      </trkpt>
      <trkpt lat="36.77647" lon="-2.072893">
        <ele>84.574</ele>
      </trkpt>
      <trkpt lat="36.776242" lon="-2.072926">
        <ele>86.056</ele>
      </trkpt>
      <trkpt lat="36.776105" lon="-2.072872">
        <ele>86.421</ele>
      </trkpt>
      <trkpt lat="36.77551" lon="-2.072795">
        <ele>93.509</ele>
      </trkpt>
      <trkpt lat="36.775248" lon="-2.072908">
        <ele>95.238</ele>
      </trkpt>
      <trkpt lat="36.774991" lon="-2.073069">
        <ele>97.098</ele>
      </trkpt>
      <trkpt lat="36.774819" lon="-2.073217">
        <ele>93.153</ele>
      </trkpt>
      <trkpt lat="36.774761" lon="-2.073403">
        <ele>91.726</ele>
      </trkpt>
      <trkpt lat="36.774865" lon="-2.073628">
        <ele>89.948</ele>
      </trkpt>
      <trkpt lat="36.775372" lon="-2.073961">
        <ele>91.725</ele>
      </trkpt>
      <trkpt lat="36.775721" lon="-2.074208">
        <ele>91.133</ele>
      </trkpt>
      <trkpt lat="36.775781" lon="-2.074347">
        <ele>90.471</ele>
      </trkpt>
      <trkpt lat="36.775751" lon="-2.074562">
        <ele>88.222</ele>
      </trkpt>
      <trkpt lat="36.775575" lon="-2.074862">
        <ele>84.236</ele>
      </trkpt>
      <trkpt lat="36.775162" lon="-2.075323">
        <ele>83.417</ele>
      </trkpt>
      <trkpt lat="36.774879" lon="-2.075286">
        <ele>84.718</ele>
      </trkpt>
      <trkpt lat="36.774526" lon="-2.075114">
        <ele>83.809</ele>
      </trkpt>
      <trkpt lat="36.774194" lon="-2.075127">
        <ele>80.834</ele>
      </trkpt>
      <trkpt lat="36.774065" lon="-2.075497">
        <ele>89.184</ele>
      </trkpt>
      <trkpt lat="36.774019" lon="-2.075933">
        <ele>92.499</ele>
      </trkpt>
      <trkpt lat="36.774148" lon="-2.076486">
        <ele>95.762</ele>
      </trkpt>
      <trkpt lat="36.77417" lon="-2.076754">
        <ele>95.854</ele>
      </trkpt>
      <trkpt lat="36.774084" lon="-2.076952">
        <ele>94.041</ele>
      </trkpt>
      <trkpt lat="36.773641" lon="-2.077178">
        <ele>91.739</ele>
      </trkpt>
      <trkpt lat="36.773292" lon="-2.077507">
        <ele>98.257</ele>
      </trkpt>
      <trkpt lat="36.773275" lon="-2.07777">
        <ele>98.588</ele>
      </trkpt>
      <trkpt lat="36.773373" lon="-2.078328">
        <ele>94.098</ele>
      </trkpt>
      <trkpt lat="36.773777" lon="-2.079175">
        <ele>89.915</ele>
      </trkpt>
      <trkpt lat="36.773886" lon="-2.079399">
        <ele>87.726</ele>
      </trkpt>
      <trkpt lat="36.773873" lon="-2.079645">
        <ele>83.609</ele>
      </trkpt>
      <trkpt lat="36.77365" lon="-2.080107">
        <ele>83.23</ele>
      </trkpt>
      <trkpt lat="36.772967" lon="-2.081094">
        <ele>83.43</ele>
      </trkpt>
      <trkpt lat="36.772468" lon="-2.081861">
        <ele>79.255</ele>
      </trkpt>
      <trkpt lat="36.772301" lon="-2.082247">
        <ele>80.978</ele>
      </trkpt>
      <trkpt lat="36.772064" lon="-2.082392">
        <ele>86.72</ele>
      </trkpt>
      <trkpt lat="36.771944" lon="-2.082354">
        <ele>87.237</ele>
      </trkpt>
      <trkpt lat="36.77163" lon="-2.082193">
        <ele>84.855</ele>
      </trkpt>
      <trkpt lat="36.770814" lon="-2.082324">
        <ele>93.273</ele>
      </trkpt>
      <trkpt lat="36.770436" lon="-2.082415">
        <ele>92.934</ele>
      </trkpt>
      <trkpt lat="36.770287" lon="-2.082517">
        <ele>93.189</ele>
      </trkpt>
      <trkpt lat="36.769788" lon="-2.083579">
        <ele>106.406</ele>
      </trkpt>
      <trkpt lat="36.769685" lon="-2.083683">
        <ele>108.626</ele>
      </trkpt>
      <trkpt lat="36.769518" lon="-2.083683">
        <ele>109.109</ele>
      </trkpt>
      <trkpt lat="36.769247" lon="-2.083592">
        <ele>106.559</ele>
      </trkpt>
      <trkpt lat="36.769092" lon="-2.083426">
        <ele>102.119</ele>
      </trkpt>
      <trkpt lat="36.76892" lon="-2.08334">
        <ele>100.514</ele>
      </trkpt>
      <trkpt lat="36.768101" lon="-2.083198">
        <ele>97.737</ele>
      </trkpt>
      <trkpt lat="36.767955" lon="-2.083336">
        <ele>100.859</ele>
      </trkpt>
      <trkpt lat="36.767912" lon="-2.083615">
        <ele>108.196</ele>
      </trkpt>
      <trkpt lat="36.76777" lon="-2.083846">
        <ele>114.954</ele>
      </trkpt>
      <trkpt lat="36.76762" lon="-2.083991">
        <ele>119.822</ele>
      </trkpt>
      <trkpt lat="36.767388" lon="-2.084087">
        <ele>121.483</ele>
      </trkpt>
      <trkpt lat="36.767164" lon="-2.084355">
        <ele>124.966</ele>
      </trkpt>
      <trkpt lat="36.766984" lon="-2.084827">
        <ele>132.629</ele>
      </trkpt>
      <trkpt lat="36.766743" lon="-2.085049">
        <ele>123.121</ele>
      </trkpt>
      <trkpt lat="36.766558" lon="-2.085425">
        <ele>127.909</ele>
      </trkpt>
      <trkpt lat="36.766459" lon="-2.085543">
        <ele>127.657</ele>
      </trkpt>
      <trkpt lat="36.766253" lon="-2.08565">
        <ele>121.677</ele>
      </trkpt>
      <trkpt lat="36.76603" lon="-2.085929">
        <ele>123.072</ele>
      </trkpt>
      <trkpt lat="36.76558" lon="-2.086748">
        <ele>125.685</ele>
      </trkpt>
      <trkpt lat="36.765447" lon="-2.08715">
        <ele>126.247</ele>
      </trkpt>
      <trkpt lat="36.765305" lon="-2.08744">
        <ele>123.754</ele>
      </trkpt>
      <trkpt lat="36.765142" lon="-2.087622">
        <ele>110.982</ele>
      </trkpt>
      <trkpt lat="36.765111" lon="-2.088228">
        <ele>117.01</ele>
      </trkpt>
      <trkpt lat="36.765169" lon="-2.088549">
        <ele>120.051</ele>
      </trkpt>
      <trkpt lat="36.765104" lon="-2.088951">
        <ele>110.349</ele>
      </trkpt>
      <trkpt lat="36.765048" lon="-2.089144">
        <ele>103.102</ele>
      </trkpt>
      <trkpt lat="36.765878" lon="-2.08967">
        <ele>90.322</ele>
      </trkpt>
      <trkpt lat="36.766816" lon="-2.089702">
        <ele>82.209</ele>
      </trkpt>
      <trkpt lat="36.76733" lon="-2.089609">
        <ele>81.885</ele>
      </trkpt>
      <trkpt lat="36.767532" lon="-2.089507">
        <ele>80.555</ele>
      </trkpt>
      <trkpt lat="36.76764" lon="-2.08933">
        <ele>82.01</ele>
      </trkpt>
      <trkpt lat="36.767721" lon="-2.089142">
        <ele>84.473</ele>
      </trkpt>
      <trkpt lat="36.767941" lon="-2.089131">
        <ele>79.285</ele>
      </trkpt>
      <trkpt lat="36.768177" lon="-2.088922">
        <ele>79.312</ele>
      </trkpt>
      <trkpt lat="36.768353" lon="-2.088675">
        <ele>84.67</ele>
      </trkpt>
      <trkpt lat="36.768642" lon="-2.088654">
        <ele>85.398</ele>
      </trkpt>
      <trkpt lat="36.768952" lon="-2.088772">
        <ele>82.589</ele>
      </trkpt>
      <trkpt lat="36.76919" lon="-2.088808">
        <ele>78.536</ele>
      </trkpt>
      <trkpt lat="36.769354" lon="-2.088681">
        <ele>77.917</ele>
      </trkpt>
      <trkpt lat="36.769668" lon="-2.088461">
        <ele>83.018</ele>
      </trkpt>
      <trkpt lat="36.769651" lon="-2.089062">
        <ele>78.409</ele>
      </trkpt>
      <trkpt lat="36.769636" lon="-2.089684">
        <ele>70.694</ele>
      </trkpt>
      <trkpt lat="36.76974" lon="-2.090017">
        <ele>68.654</ele>
      </trkpt>
      <trkpt lat="36.770015" lon="-2.09029">
        <ele>67.569</ele>
      </trkpt>
      <trkpt lat="36.770317" lon="-2.090573">
        <ele>67.752</ele>
      </trkpt>
      <trkpt lat="36.77039" lon="-2.090819">
        <ele>67.614</ele>
      </trkpt>
      <trkpt lat="36.770398" lon="-2.091039">
        <ele>68.031</ele>
      </trkpt>
      <trkpt lat="36.770313" lon="-2.091313">
        <ele>67.099</ele>
      </trkpt>
      <trkpt lat="36.770278" lon="-2.091672">
        <ele>66.487</ele>
      </trkpt>
      <trkpt lat="36.770184" lon="-2.091962">
        <ele>65.558</ele>
      </trkpt>
      <trkpt lat="36.769883" lon="-2.09201">
        <ele>59.878</ele>
      </trkpt>
      <trkpt lat="36.769715" lon="-2.092166">
        <ele>57.733</ele>
      </trkpt>
      <trkpt lat="36.769634" lon="-2.092413">
        <ele>55.626</ele>
      </trkpt>
      <trkpt lat="36.769797" lon="-2.093035">
        <ele>56.909</ele>
      </trkpt>
      <trkpt lat="36.769826" lon="-2.093632">
        <ele>49.288</ele>
      </trkpt>
      <trkpt lat="36.769752" lon="-2.094067">
        <ele>46.758</ele>
      </trkpt>
      <trkpt lat="36.769551" lon="-2.095113">
        <ele>44.973</ele>
      </trkpt>
      <trkpt lat="36.769361" lon="-2.096447">
        <ele>36.216</ele>
      </trkpt>
      <trkpt lat="36.769237" lon="-2.097015">
        <ele>36.548</ele>
      </trkpt>
      <trkpt lat="36.769061" lon="-2.097334">
        <ele>37.255</ele>
      </trkpt>
      <trkpt lat="36.769117" lon="-2.09882">
        <ele>40.293</ele>
      </trkpt>
      <trkpt lat="36.769119" lon="-2.099962">
        <ele>33.751</ele>
      </trkpt>
      <trkpt lat="36.769012" lon="-2.100756">
        <ele>31.942</ele>
      </trkpt>
      <trkpt lat="36.768776" lon="-2.101813">
        <ele>32.592</ele>
      </trkpt>
      <trkpt lat="36.768468" lon="-2.102584">
        <ele>29.273</ele>
      </trkpt>
      <trkpt lat="36.767978" lon="-2.103512">
        <ele>23.12</ele>
      </trkpt>
      <trkpt lat="36.767849" lon="-2.104021">
        <ele>15.809</ele>
      </trkpt>
      <trkpt lat="36.768074" lon="-2.104007">
        <ele>13.17</ele>
      </trkpt>
      <trkpt lat="36.768499" lon="-2.103841">
        <ele>14.54</ele>
      </trkpt>
      <trkpt lat="36.768771" lon="-2.104443">
        <ele>11.895</ele>
      </trkpt>
      <trkpt lat="36.767847" lon="-2.105398">
        <ele>10.968</ele>
      </trkpt>
      <trkpt lat="36.767276" lon="-2.106208">
        <ele>10.82</ele>
      </trkpt>
      <trkpt lat="36.766919" lon="-2.106589">
        <ele>11.827</ele>
      </trkpt>
      <trkpt lat="36.766922" lon="-2.106599">
        <ele>9.75</ele>
      </trkpt>
      <trkpt lat="36.766915" lon="-2.106604">
        <ele>9.75</ele>
      </trkpt>
      <trkpt lat="36.766627" lon="-2.106842">
        <ele>9.75</ele>
      </trkpt>
      <trkpt lat="36.766447" lon="-2.106915">
        <ele>9.75</ele>
      </trkpt>
      <trkpt lat="36.7664" lon="-2.106983">
        <ele>9.75</ele>
      </trkpt>
      <trkpt lat="36.766344" lon="-2.107146">
        <ele>9.75</ele>
      </trkpt>
      <trkpt lat="36.76614" lon="-2.107318">
        <ele>9.75</ele>
      </trkpt>
      <trkpt lat="36.765898" lon="-2.107487">
        <ele>9.75</ele>
      </trkpt>
      <trkpt lat="36.765547" lon="-2.107768">
        <ele>8.25</ele>
      </trkpt>
      <trkpt lat="36.765482" lon="-2.10782">
        <ele>8</ele>
      </trkpt>
      <trkpt lat="36.765343" lon="-2.107932">
        <ele>7.5</ele>
      </trkpt>
      <trkpt lat="36.765105" lon="-2.108146">
        <ele>6.5</ele>
      </trkpt>
      <trkpt lat="36.764903" lon="-2.108323">
        <ele>6</ele>
      </trkpt>
      <trkpt lat="36.764192" lon="-2.107771">
        <ele>6</ele>
      </trkpt>
      <trkpt lat="36.763826" lon="-2.107464">
        <ele>5</ele>
      </trkpt>
      <trkpt lat="36.763417" lon="-2.107123">
        <ele>4.5</ele>
      </trkpt>
      <trkpt lat="36.763255" lon="-2.106984">
        <ele>4.25</ele>
      </trkpt>
      <trkpt lat="36.763092" lon="-2.107242">
        <ele>4</ele>
      </trkpt>
      <trkpt lat="36.762883" lon="-2.107502">
        <ele>4</ele>
      </trkpt>
      <trkpt lat="36.762834" lon="-2.107559">
        <ele>4</ele>
      </trkpt>
      <trkpt lat="36.762575" lon="-2.107878">
        <ele>4.75</ele>
      </trkpt>
      <trkpt lat="36.762402" lon="-2.108123">
        <ele>5.75</ele>
      </trkpt>
      <trkpt lat="36.762388" lon="-2.108141">
        <ele>6</ele>
      </trkpt>
      <trkpt lat="36.762381" lon="-2.10813">
        <ele>6.28</ele>
      </trkpt>
      <trkpt lat="36.762388" lon="-2.108141">
        <ele>5.75</ele>
      </trkpt>
      <trkpt lat="36.762402" lon="-2.108123">
        <ele>5.75</ele>
      </trkpt>
      <trkpt lat="36.762424" lon="-2.108149">
        <ele>5.75</ele>
      </trkpt>
      <trkpt lat="36.762515" lon="-2.108293">
        <ele>5.75</ele>
      </trkpt>
      <trkpt lat="36.762477" lon="-2.108333">
        <ele>6</ele>
      </trkpt>
      <trkpt lat="36.762504" lon="-2.108373">
        <ele>6</ele>
      </trkpt>
      <trkpt lat="36.762531" lon="-2.108412">
        <ele>6</ele>
      </trkpt>
    </trkseg>
  </trk>
</gpx>
