{"type":"FeatureCollection","features":[{"type":"Feature","properties":{"name":"Agua Amarga - Las Negras"},"geometry":{"type":"LineString","coordinates":[[-1.933299,36.93977,5.74696],[-1.933319,36.939843,6.10255],[-1.933556,36.939766,6.36709],[-1.933814,36.939643,5.94708],[-1.934105,36.939517,5.54279],[-1.934606,36.939516,6.34075],[-1.934777,36.939518,6.48141],[-1.934774,36.939558,6.67113],[-1.934963,36.939642,6.23212],[-1.935112,36.939809,6.02544],[-1.935183,36.939914,5.77008],[-1.935389,36.940134,5.10034],[-1.935506,36.940247,4.75612],[-1.935765,36.940559,4.09843],[-1.935854,36.940652,4.13028],[-1.936017,36.940751,4.25511],[-1.936251,36.940705,4.30377],[-1.936395,36.940698,4.29734],[-1.936694,36.940725,4.42411],[-1.936741,36.940774,4.5282],[-1.936859,36.940633,4.91018],[-1.937041,36.940506,5.94392],[-1.937062,36.940389,6.22568],[-1.937104,36.940379,6.50941],[-1.937099,36.940371,6.48613],[-1.937774,36.940637,9.2815],[-1.938268,36.940826,13.78042],[-1.938654,36.940877,17.5023],[-1.939191,36.940851,23.39653],[-1.93947,36.940671,25.85419],[-1.939791,36.940448,27.53971],[-1.940188,36.940423,30.74521],[-1.940757,36.940508,36.52709],[-1.941347,36.940363,49.01699],[-1.942048,36.939997,65.38155],[-1.942767,36.939808,81.47622],[-1.943275,36.939842,81.81837],[-1.944047,36.939491,83.27838],[-1.94423,36.939431,84.21109],[-1.944433,36.939148,84.35089],[-1.944866,36.938959,82.15545],[-1.945403,36.938522,81.05627],[-1.945574,36.938282,82.52527],[-1.945918,36.937853,81.49965],[-1.946304,36.937501,79.44868],[-1.946647,36.937201,80.10489],[-1.946765,36.93703,82.97558],[-1.946926,36.936987,82.54385],[-1.947709,36.936704,75.35463],[-1.948099,36.936649,68.73554],[-1.948314,36.936547,63.35327],[-1.948786,36.936478,62.32985],[-1.949108,36.936195,60.07025],[-1.94914,36.93592,52.0383],[-1.949226,36.93568,47.20098],[-1.949247,36.935174,37.33046],[-1.949011,36.934874,29.89274],[-1.94914,36.934548,28.14912],[-1.948614,36.934145,16.42605],[-1.948339,36.933754,12.94029],[-1.947845,36.933462,7.41705],[-1.947395,36.933205,6.33709],[-1.947395,36.933042,8.67892],[-1.948167,36.933128,7.50028],[-1.948954,36.933095,8.27012],[-1.949641,36.932885,9.09083],[-1.950386,36.93228,11.54209],[-1.950647,36.932078,12.20554],[-1.950889,36.932036,11.92861],[-1.951114,36.932117,11.57788],[-1.951323,36.932336,11.25227],[-1.951795,36.932417,14.03683],[-1.952176,36.93297,14.25203],[-1.952351,36.932066,14.20785],[-1.952428,36.931871,14.93292],[-1.952482,36.931811,15.22622],[-1.952353,36.931477,16.32382],[-1.952353,36.931322,16.83356],[-1.952391,36.931155,17.41269],[-1.952477,36.931035,17.58709],[-1.952573,36.930876,19.50569],[-1.952847,36.930756,21.91444],[-1.953093,36.930739,21.80653],[-1.953362,36.930722,21.98182],[-1.953694,36.930713,21.52169],[-1.954097,36.930492,24.51175],[-1.954381,36.930329,26.485],[-1.954644,36.930243,26.20813],[-1.954853,36.930239,25.15029],[-1.954982,36.930252,24.36369],[-1.955148,36.930127,25.98228],[-1.95532,36.929982,27.27486],[-1.9554,36.92963,34.53367],[-1.955497,36.92945,38.70186],[-1.955711,36.929338,39.87949],[-1.955878,36.929257,40.38964],[-1.95628,36.929227,38.55744],[-1.956425,36.929098,40.63982],[-1.956645,36.928884,42.10983],[-1.956709,36.928729,41.71345],[-1.956634,36.928506,39.44733],[-1.956659,36.928319,36.65239],[-1.956536,36.928182,36.13933],[-1.956616,36.927959,32.49991],[-1.956627,36.92786,31.35612],[-1.956543,36.927812,32.93898],[-1.956596,36.927735,31.21807],[-1.956602,36.927615,30.70665],[-1.956645,36.927494,29.41641],[-1.956865,36.927327,24.46239],[-1.956941,36.927214,23.6566],[-1.956829,36.927163,26.60328],[-1.956802,36.927107,27.79742],[-1.956984,36.926751,22.29692],[-1.957026,36.92663,20.13558],[-1.956854,36.926484,21.69168],[-1.956891,36.926377,19.51884],[-1.956967,36.926334,17.71432],[-1.956999,36.926252,16.23211],[-1.957106,36.926038,12.28512],[-1.957085,36.925828,10.79239],[-1.956881,36.92563,11.81628],[-1.957131,36.925186,5.65071],[-1.957018,36.924924,5.12338],[-1.956793,36.924573,4.26819],[-1.956434,36.924014,2.44323],[-1.955919,36.923533,1.26671],[-1.955352,36.922922,3.49245],[-1.955218,36.922643,3.78775],[-1.95533,36.922381,5.37268],[-1.955495,36.922227,7.85843],[-1.955613,36.922021,12.94751],[-1.955731,36.921849,19.63307],[-1.956182,36.922021,24.7221],[-1.956493,36.922278,23.33182],[-1.956654,36.922398,21.06371],[-1.956933,36.922244,26.93779],[-1.957083,36.922158,28.42043],[-1.956857,36.921832,42.46691],[-1.956664,36.921695,47.05219],[-1.956342,36.921584,44.29804],[-1.956385,36.921343,50.1982],[-1.956525,36.921343,54.81766],[-1.956836,36.921429,58.29746],[-1.956836,36.921275,62.51028],[-1.957126,36.920949,74.58244],[-1.95733,36.920649,86.62834],[-1.957415,36.920297,102.39621],[-1.95743,36.920005,113.18028],[-1.95744,36.919559,120.528],[-1.957322,36.919311,120.9176],[-1.957451,36.918985,124.18112],[-1.958867,36.91835,137.46592],[-1.959193,36.918201,142.03311],[-1.95944,36.918004,145.4259],[-1.959847,36.917935,153.05212],[-1.960105,36.917858,152.86472],[-1.960856,36.917343,154.91877],[-1.960942,36.917283,154.91483],[-1.960942,36.917129,153.99572],[-1.961167,36.916949,152.50525],[-1.961457,36.916803,150.66525],[-1.961596,36.916606,149.36765],[-1.961886,36.916383,148.23295],[-1.963087,36.91608,150.29382],[-1.963795,36.915977,146.02335],[-1.964396,36.915805,140.27817],[-1.964976,36.915805,141.50571],[-1.965115,36.915788,140.69443],[-1.965802,36.915951,145.04686],[-1.966006,36.915951,146.99709],[-1.96622,36.916054,150.66936],[-1.967014,36.915874,156.89703],[-1.967236,36.915756,159.4191],[-1.967375,36.915662,161.72489],[-1.967472,36.915576,163.72127],[-1.967611,36.915508,166.5477],[-1.967772,36.915113,175.27209],[-1.96788,36.914427,193.46585],[-1.967901,36.914015,204.14058],[-1.968008,36.913792,211.15566],[-1.968133,36.913638,217.68025],[-1.968219,36.913449,221.78741],[-1.968316,36.913406,225.13897],[-1.968402,36.913157,228.17334],[-1.968552,36.912969,230.78041],[-1.969346,36.911871,238.26967],[-1.969686,36.911239,239.96489],[-1.970029,36.910269,239.57583],[-1.970115,36.90912,229.32097],[-1.970029,36.908519,225.80188],[-1.970258,36.908125,227.55947],[-1.970258,36.908022,227.49244],[-1.97088,36.907902,224.10795],[-1.971738,36.907267,220.75632],[-1.972532,36.907335,215.16683],[-1.97309,36.907095,209.88594],[-1.97309,36.906889,209.90665],[-1.972747,36.90658,214.74207],[-1.972897,36.906409,215.93812],[-1.973155,36.906426,214.49981],[-1.973648,36.906563,209.57305],[-1.974163,36.906752,193.39357],[-1.974442,36.906632,184.05949],[-1.974657,36.906146,181.11494],[-1.974864,36.906037,168.5824],[-1.974864,36.905917,166.38422],[-1.975046,36.905857,154.86103],[-1.97524,36.905291,132.34796],[-1.975365,36.905302,125.20967],[-1.975687,36.904856,109.48401],[-1.975869,36.905148,99.46062],[-1.97647,36.904607,71.30358],[-1.97691,36.904324,55.41767],[-1.977049,36.904367,51.31602],[-1.977417,36.904233,38.46162],[-1.977471,36.904121,35.7458],[-1.978061,36.903898,18.47827],[-1.978447,36.903864,11.70223],[-1.97849,36.903469,6.11786],[-1.978608,36.903332,4.21266],[-1.978705,36.903237,3.62832],[-1.978973,36.90322,3.06552],[-1.979123,36.903375,2.61379],[-1.979359,36.903752,5.02481],[-1.97952,36.904181,7.31714],[-1.979831,36.904164,14.76344],[-1.980089,36.904095,21.09062],[-1.980282,36.903984,25.23824],[-1.980411,36.903889,27.54416],[-1.980561,36.903701,27.24081],[-1.980969,36.903546,30.34624],[-1.981441,36.903475,36.2232],[-1.981602,36.903389,36.892],[-1.981848,36.90338,44.58611],[-1.982095,36.903398,55.39165],[-1.98261,36.903003,54.70174],[-1.983104,36.902831,75.12021],[-1.983157,36.90272,69.43596],[-1.983436,36.902668,82.06036],[-1.983479,36.90254,73.734],[-1.983941,36.902359,81.10464],[-1.984187,36.901939,62.62941],[-1.985561,36.900901,71.62679],[-1.985668,36.900601,74.88796],[-1.985668,36.900446,73.91102],[-1.985765,36.900232,75.0678],[-1.985883,36.900077,76.86577],[-1.98614,36.899983,84.34014],[-1.986151,36.899691,73.71869],[-1.986376,36.899623,80.49198],[-1.986516,36.899468,81.65554],[-1.986598,36.899268,80.52431],[-1.986855,36.899225,89.85037],[-1.986973,36.899105,91.7526],[-1.986995,36.898993,90.18605],[-1.986887,36.89883,84.14022],[-1.986866,36.89871,82.19446],[-1.986984,36.898599,83.59584],[-1.987113,36.898367,82.60881],[-1.987209,36.898256,81.9925],[-1.987531,36.89817,85.97907],[-1.987681,36.898067,85.08526],[-1.988336,36.897912,97.46324],[-1.988561,36.897758,98.08336],[-1.988829,36.897621,95.82748],[-1.989237,36.897827,92.67134],[-1.989505,36.897861,90.30948],[-1.989774,36.897981,95.35513],[-1.990031,36.897921,94.28058],[-1.990403,36.897858,93.68447],[-1.990564,36.897901,96.88504],[-1.990757,36.897649,87.21477],[-1.991218,36.897623,90.27634],[-1.991519,36.897529,91.38599],[-1.991808,36.897598,95.86564],[-1.992141,36.897684,98.72997],[-1.992602,36.897821,94.06568],[-1.992806,36.897992,92.40841],[-1.992999,36.897992,89.03743],[-1.993521,36.898118,93.84879],[-1.993951,36.897878,94.13954],[-1.994551,36.897869,95.4275],[-1.996007,36.896608,103.67102],[-1.996329,36.896008,97.79214],[-1.996919,36.895141,100.19483],[-1.997266,36.8946,93.57877],[-1.997674,36.894223,85.60138],[-1.998339,36.89412,87.78345],[-1.998843,36.893862,91.67955],[-1.99894,36.893451,90.76932],[-1.998714,36.892738,92.86205],[-1.998621,36.892427,87.57214],[-1.998771,36.89186,86.87],[-1.998278,36.890711,106.76562],[-1.997999,36.890084,109.04296],[-1.998392,36.888583,87.7218],[-1.998746,36.88793,80.3931],[-1.998907,36.887759,80.13817],[-1.999222,36.887278,69.05386],[-1.999694,36.887107,69.88759],[-2.000048,36.886652,66.60738],[-2.000166,36.886025,58.23807],[-2.000946,36.885001,46.68282],[-2.001354,36.884795,43.05702],[-2.001944,36.884984,41.0296],[-2.003285,36.88508,31.66486],[-2.00513,36.886349,18.98607],[-2.005463,36.886331,16.40133],[-2.005785,36.88616,14.4147],[-2.005624,36.886048,14.42602],[-2.004594,36.885877,14.62821],[-2.003746,36.885568,13.85451],[-2.003263,36.885224,13.63181],[-2.003081,36.884933,11.70964],[-2.002963,36.884323,8.08111],[-2.002484,36.883259,3.67574],[-2.002559,36.88277,0.91365],[-2.002784,36.882427,0.44859],[-2.003535,36.881783,3.21224],[-2.003793,36.881454,4.18392],[-2.003921,36.881094,4.78818],[-2.004029,36.880356,7.32036],[-2.004586,36.880173,9.74966],[-2.004582,36.880155,9.65703],[-2.004587,36.880155,9.67451],[-2.004547,36.880024,8.81636],[-2.004523,36.879991,8.51225],[-2.004474,36.8799,7.77223],[-2.00446,36.879896,7.69999],[-2.004492,36.87987,7.66281],[-2.004416,36.879479,7.17576],[-2.004459,36.879431,7.49617],[-2.004475,36.879413,7.61798]]}},{"type":"Feature","properties":{"name":"Visualización Torre de Mesa Roldán y Ensenada de Agua Amarga"},"geometry":{"type":"Point","coordinates":[-1.941177,36.940403,45.2028]}},{"type":"Feature","properties":{"name":"Castillo de San Pedro"},"geometry":{"type":"Point","coordinates":[-1.981026,36.903539,31.02358]}}]}