{"type":"FeatureCollection","features":[{"type":"Feature","properties":{"name":"Etapa 02, Las Negras - Lobos - Rodalquilar"},"geometry":{"type":"LineString","coordinates":[[-2.004434,36.87946,7.25],[-2.004459,36.879431,7.25],[-2.004528,36.879349,7.5],[-2.004526,36.879128,7],[-2.004494,36.878901,6],[-2.004487,36.878795,5.5],[-2.00452,36.878741,5.5],[-2.004772,36.87845,5.75],[-2.004849,36.87838,6],[-2.004464,36.878278,4],[-2.004467,36.878229,4.25],[-2.004458,36.87823,3.709],[-2.004608,36.878067,3.666],[-2.00493,36.878059,6.236],[-2.005123,36.877793,11.15],[-2.00464,36.877638,6.913],[-2.004533,36.877509,7.514],[-2.004769,36.876891,17.977],[-2.004769,36.876136,25.437],[-2.004522,36.875733,27.249],[-2.004415,36.875038,35.683],[-2.004061,36.87436,24.735],[-2.004286,36.874008,32.286],[-2.004286,36.87375,27.514],[-2.004672,36.87327,24.809],[-2.004973,36.873124,24.734],[-2.004994,36.873012,20.924],[-2.004844,36.872995,18.688],[-2.004404,36.87315,17.851],[-2.004243,36.873072,16.142],[-2.004404,36.872901,14.745],[-2.005316,36.872532,13.775],[-2.005337,36.872373,10.937],[-2.005075,36.87224,6.721],[-2.004667,36.872235,6.025],[-2.004055,36.87218,2.526],[-2.003653,36.87221,3.708],[-2.003342,36.87227,6.909],[-2.002988,36.872296,8.943],[-2.00287,36.872253,10.523],[-2.00272,36.87218,14.367],[-2.002655,36.872111,18.12],[-2.002612,36.871987,24.221],[-2.002612,36.871871,28.164],[-2.002704,36.871763,31.074],[-2.002596,36.871768,30.946],[-2.002704,36.871626,35.45],[-2.00294,36.871467,39.235],[-2.003181,36.871223,46.086],[-2.003326,36.871012,51.914],[-2.003337,36.870806,59.209],[-2.003288,36.870695,61.644],[-2.003331,36.870493,63.364],[-2.003326,36.870321,64.548],[-2.00331,36.869982,60.241],[-2.003331,36.869875,59.092],[-2.003449,36.869639,61.095],[-2.003342,36.869433,56.555],[-2.003283,36.869287,56.487],[-2.003272,36.869167,57.831],[-2.003294,36.868867,59.743],[-2.003202,36.868635,54.764],[-2.003181,36.868601,54.01],[-2.00317,36.86851,54.009],[-2.003154,36.868304,53.865],[-2.003213,36.868214,54.745],[-2.003363,36.868133,57.339],[-2.003438,36.867983,56.322],[-2.003599,36.867699,55.483],[-2.00353,36.867386,47.266],[-2.003615,36.867262,45.116],[-2.003701,36.867013,39.428],[-2.003707,36.866927,37.552],[-2.003664,36.866738,32.949],[-2.003996,36.866116,23.202],[-2.004431,36.865953,22.722],[-2.004731,36.865768,23.309],[-2.004908,36.865562,24.135],[-2.005005,36.865476,24.655],[-2.005064,36.865408,24.399],[-2.005021,36.865283,21.332],[-2.005016,36.865167,21.133],[-2.005278,36.864798,23.446],[-2.005568,36.864429,21.856],[-2.005729,36.864386,22.448],[-2.005906,36.86448,25.582],[-2.006067,36.864493,28.113],[-2.006233,36.864489,30.743],[-2.00633,36.864489,32.307],[-2.006453,36.864472,33.809],[-2.006598,36.864463,35.242],[-2.006579,36.864414,35.092],[-2.006512,36.864313,34.236],[-2.006392,36.864244,31.459],[-2.006349,36.864174,29.87],[-2.006284,36.864047,27.863],[-2.006276,36.863944,27.353],[-2.006231,36.863646,24.585],[-2.006067,36.863345,21.199],[-2.006054,36.863255,20.654],[-2.005799,36.863008,14.956],[-2.005734,36.862614,11.511],[-2.005579,36.86233,9.209],[-2.005826,36.862086,9.626],[-2.006115,36.861965,10.836],[-2.006603,36.862098,13.93],[-2.006813,36.862026,15.273],[-2.006931,36.861755,12.084],[-2.007043,36.861489,10.237],[-2.007108,36.861257,8.247],[-2.007097,36.86112,5.939],[-2.007199,36.860961,7.373],[-2.007414,36.860656,8.872],[-2.007435,36.860437,7.713],[-2.007349,36.86027,5.414],[-2.007317,36.860043,2.409],[-2.00707,36.859716,0.528],[-2.006861,36.859322,-0.598],[-2.006834,36.85918,-0.342],[-2.006738,36.858841,0.745],[-2.006636,36.858493,1.716],[-2.006416,36.857789,3.569],[-2.006421,36.857618,4.089],[-2.006491,36.857476,4.091],[-2.00662,36.857261,4.585],[-2.006743,36.85712,5.084],[-2.006791,36.856901,6.107],[-2.006679,36.856725,6.517],[-2.006582,36.856682,6.609],[-2.006384,36.856798,7.119],[-2.006303,36.856806,7.139],[-2.006174,36.856673,6.623],[-2.005885,36.856313,5.636],[-2.006003,36.856253,5.637],[-2.006185,36.856094,5.76],[-2.006335,36.855832,6.87],[-2.00662,36.855553,5.052],[-2.006797,36.855235,8.216],[-2.006936,36.855029,10.468],[-2.007022,36.854836,15.142],[-2.007274,36.854729,13.526],[-2.007617,36.854622,11.709],[-2.007751,36.854463,14.567],[-2.008014,36.854334,14.227],[-2.008384,36.854145,11.861],[-2.008985,36.853918,11.914],[-2.009291,36.853853,11.895],[-2.009946,36.85381,13.138],[-2.01009,36.853703,14.948],[-2.010509,36.853707,14.65],[-2.010745,36.8539,12.564],[-2.011056,36.854136,10.674],[-2.011244,36.854291,10.456],[-2.011244,36.854566,9.321],[-2.011582,36.854647,9.609],[-2.011941,36.854858,9.558],[-2.012209,36.854918,10.858],[-2.012424,36.854952,11.862],[-2.012697,36.854901,11.525],[-2.013116,36.854901,10.856],[-2.01347,36.855012,11.029],[-2.013985,36.855038,10.469],[-2.014269,36.854982,10.841],[-2.014532,36.854926,11.335],[-2.015004,36.85484,13.995],[-2.015364,36.85481,14.349],[-2.015707,36.854982,15.923],[-2.016254,36.855162,17.409],[-2.01656,36.85539,16.34],[-2.016935,36.85533,15.35],[-2.017702,36.855184,15.894],[-2.018582,36.85518,16.127],[-2.019049,36.855184,16.458],[-2.019478,36.855085,18.741],[-2.0198,36.855046,20.931],[-2.020326,36.855029,21.353],[-2.020192,36.854793,22.577],[-2.020143,36.854518,23.766],[-2.020181,36.854124,24.329],[-2.020159,36.85381,25.521],[-2.020492,36.853587,26.009],[-2.02068,36.853475,26.797],[-2.020749,36.853274,29.117],[-2.020948,36.853188,28.971],[-2.02112,36.853038,29.274],[-2.021195,36.852797,26.625],[-2.021173,36.85251,28.778],[-2.021125,36.852025,33.188],[-2.020975,36.851454,34.17],[-2.020808,36.851149,36.364],[-2.02098,36.850535,47.589],[-2.021173,36.850063,48.806],[-2.021318,36.849634,53.826],[-2.021377,36.849483,54.309],[-2.021377,36.849342,53.949],[-2.021286,36.849153,54.189],[-2.021366,36.848947,54.353],[-2.02157,36.848685,54.366],[-2.021538,36.848582,54.877],[-2.021441,36.848569,55.16],[-2.021173,36.848646,57.03],[-2.020776,36.848797,57.792],[-2.020631,36.848904,58.846],[-2.020497,36.849191,62.183],[-2.020374,36.849234,63.025],[-2.020283,36.849136,63.417],[-2.020202,36.849033,63.509],[-2.020326,36.848608,61.329],[-2.02046,36.848243,62.479],[-2.020642,36.847792,61.653],[-2.020905,36.847217,59.696],[-2.021039,36.846869,60.557],[-2.021044,36.846697,61.22],[-2.020926,36.846268,62.78],[-2.02091,36.846135,61.922],[-2.020707,36.84583,60.416],[-2.020438,36.84562,56.619],[-2.020068,36.845208,57.809],[-2.01965,36.844942,61.519],[-2.019371,36.844856,63.409],[-2.018791,36.845036,65.982],[-2.01818,36.845208,68.732],[-2.017794,36.845328,70.956],[-2.015122,36.845508,81.159],[-2.013019,36.845628,97.57],[-2.012799,36.845598,97.963],[-2.012494,36.845478,96.673],[-2.012064,36.845199,99.075],[-2.01163,36.844577,104.469],[-2.010965,36.843838,110.729],[-2.010793,36.843757,109.5],[-2.010568,36.84374,108.92],[-2.010042,36.843778,115.009],[-2.009377,36.84392,122.123],[-2.009076,36.844066,122.623],[-2.00861,36.844688,127.777],[-2.007934,36.845573,135.85],[-2.007869,36.84562,135.721],[-2.007751,36.845581,137.294],[-2.007676,36.845521,138.374],[-2.007671,36.845384,140.726],[-2.007682,36.845105,143.87],[-2.007574,36.844907,147.727],[-2.007521,36.844735,150.168],[-2.007628,36.844456,155.514],[-2.007751,36.84419,156.909],[-2.007848,36.844014,155.833],[-2.007666,36.843632,163.363],[-2.007473,36.843375,169.157],[-2.00751,36.843224,168.79],[-2.007564,36.843057,168.271],[-2.007617,36.842993,167.354],[-2.007569,36.842902,168.754],[-2.007478,36.842898,170.766],[-2.007328,36.842997,173.66],[-2.007183,36.843332,176.516],[-2.007204,36.843585,175.976],[-2.007274,36.843735,172.613],[-2.007188,36.843795,173.309],[-2.007086,36.843752,175.192],[-2.006936,36.843533,180.282],[-2.00677,36.843259,183.936],[-2.006727,36.843083,187.049],[-2.006936,36.842542,187.45],[-2.006856,36.842306,190.733],[-2.006721,36.842112,194.283],[-2.006598,36.842009,196.595],[-2.006491,36.841949,198.819],[-2.00618,36.841786,203.373],[-2.005895,36.841589,206.585],[-2.005793,36.841473,208.813],[-2.005793,36.84134,209.809],[-2.005992,36.841078,207.148],[-2.006088,36.840958,206.868],[-2.006051,36.840837,210.962],[-2.005804,36.840653,212.995],[-2.005359,36.840498,219.096],[-2.004941,36.840434,226.289],[-2.004694,36.840507,232.319],[-2.004431,36.840782,236.381],[-2.004104,36.841361,232.715],[-2.003943,36.84164,238.415],[-2.003846,36.84173,240.765],[-2.003642,36.841726,245.711],[-2.00353,36.841563,249.209],[-2.00354,36.841297,248.392],[-2.003551,36.840876,246.722],[-2.00339,36.840666,246.836],[-2.003304,36.840653,246.699],[-2.003524,36.840786,246.62],[-2.003524,36.84152,249.343],[-2.003658,36.841705,245.453],[-2.003894,36.8417,239.635],[-2.004173,36.841271,231.269],[-2.004372,36.84091,234.961],[-2.004645,36.840554,234.221],[-2.004941,36.840438,226.413],[-2.005504,36.840528,215.709],[-2.005895,36.840713,213.027],[-2.006088,36.840897,208.647],[-2.005788,36.841413,209.311],[-2.006131,36.841743,203.714],[-2.006641,36.842027,195.815],[-2.006899,36.842361,189.458],[-2.006845,36.842713,188.098],[-2.006754,36.843078,186.73],[-2.006818,36.843336,182.814],[-2.007124,36.843795,174.235],[-2.007242,36.843752,173.486],[-2.007258,36.843606,174.914],[-2.007188,36.843413,176.609],[-2.007312,36.843057,174.024],[-2.007515,36.842872,170.354],[-2.007617,36.842941,167.878],[-2.007483,36.843293,169.521],[-2.007762,36.843813,159.952],[-2.007832,36.844027,156.545],[-2.007542,36.844624,152.975],[-2.007585,36.84498,147.337],[-2.007633,36.845186,144.461],[-2.007709,36.845521,138.567],[-2.007816,36.845598,136.881],[-2.007945,36.845585,135.719],[-2.008293,36.845122,133.909],[-2.00869,36.844577,127.347],[-2.008985,36.84419,122.717],[-2.009071,36.844079,122.731],[-2.00957,36.843855,121.694],[-2.010021,36.843782,115.765],[-2.010353,36.843748,110.168],[-2.010611,36.84374,109.378],[-2.010739,36.84374,109.67],[-2.010949,36.843825,110.964],[-2.01149,36.844405,108.359],[-2.012059,36.845182,99.603],[-2.012574,36.845517,97.223],[-2.012778,36.845594,98.209],[-2.013035,36.845633,97.696],[-2.014403,36.84556,87.646],[-2.015798,36.845452,78.83],[-2.017563,36.845311,73.243],[-2.017912,36.845272,70.444],[-2.018663,36.84507,67.647],[-2.019387,36.844869,63.497],[-2.019601,36.844916,62.159],[-2.020025,36.845203,58.433],[-2.020433,36.845594,56.243],[-2.020884,36.846023,61.364],[-2.021087,36.846667,61.01],[-2.020959,36.847062,60.009],[-2.021152,36.847397,56.775],[-2.021366,36.847577,55.325],[-2.021753,36.847629,53.479],[-2.022289,36.847655,51.092],[-2.022632,36.847852,48.123],[-2.023147,36.847955,43.326],[-2.023973,36.847715,43.226],[-2.024574,36.847749,40.058],[-2.025282,36.848213,44.362],[-2.026066,36.848865,42.976],[-2.027289,36.849895,38.79],[-2.027653,36.85029,33.319],[-2.027718,36.850737,32.509],[-2.0279,36.850926,31.138],[-2.02775,36.851406,28.738],[-2.027922,36.851535,29.952],[-2.027224,36.85181,26.345],[-2.026414,36.852029,25.566],[-2.025819,36.852067,27.079],[-2.025095,36.852136,28.179],[-2.024773,36.852299,24.731],[-2.024403,36.852557,22.875],[-2.024059,36.852995,24.135],[-2.022718,36.853948,21.786],[-2.022842,36.854192,20.514],[-2.023163,36.854467,20.309],[-2.02363,36.854905,23.334],[-2.024499,36.855244,28.064],[-2.02481,36.85527,27.988],[-2.02502,36.855077,27.921],[-2.025663,36.854536,26.252],[-2.025797,36.85448,26.765],[-2.027455,36.854703,32.565],[-2.027594,36.854845,33.887],[-2.027911,36.854943,34.131],[-2.029864,36.855313,37.811],[-2.030931,36.85551,43.521],[-2.03113,36.85554,43.003],[-2.032535,36.855986,46.609],[-2.034241,36.856626,51.022],[-2.034863,36.856823,54.382],[-2.035437,36.856961,57.026],[-2.03599,36.857055,56.679],[-2.036301,36.857107,57.86],[-2.036419,36.857047,58.923],[-2.036456,36.856969,59.483],[-2.036397,36.856823,59.575],[-2.036328,36.856639,59.269],[-2.036344,36.85645,58.117],[-2.036408,36.856287,57.887],[-2.036585,36.856154,58.015],[-2.036827,36.856059,57.809],[-2.037433,36.855914,57.372],[-2.037642,36.855858,56.632],[-2.037899,36.855785,56.516],[-2.038077,36.855776,57.319],[-2.038838,36.855733,61.99],[-2.039369,36.855712,63.043],[-2.039804,36.85578,63.223],[-2.040356,36.855978,61.565],[-2.04048,36.855995,60.939],[-2.04056,36.855944,60.332],[-2.040769,36.855622,62.292],[-2.040866,36.855519,63.611],[-2.041102,36.855527,67.809],[-2.041773,36.855248,78.224],[-2.041853,36.855192,78.534],[-2.041901,36.855107,78.778],[-2.04203,36.854991,79.991],[-2.042186,36.854995,81.632],[-2.042427,36.855077,84.435],[-2.042744,36.855252,90.285],[-2.042878,36.855278,92.557],[-2.043092,36.855218,94.991],[-2.043291,36.855132,97.777],[-2.043403,36.855034,98.361],[-2.043478,36.85487,95.927],[-2.043554,36.854806,95.309],[-2.043752,36.854789,97.118],[-2.043961,36.854755,98.558],[-2.044744,36.854458,103.952],[-2.044868,36.854377,104.945],[-2.044905,36.854205,103.146],[-2.044997,36.853935,102.519],[-2.045077,36.85375,103.689],[-2.04505,36.853626,101.871],[-2.044852,36.853501,95.965],[-2.044744,36.853372,92.914],[-2.044771,36.853269,93.054],[-2.044852,36.853025,94.109],[-2.044825,36.852698,92.609],[-2.044932,36.852372,92.472],[-2.044857,36.852085,92.882],[-2.044771,36.851488,90.626],[-2.044798,36.85123,91.269],[-2.044712,36.850981,91.36],[-2.044782,36.850664,89.743],[-2.044873,36.850381,88.363],[-2.044455,36.850063,85.285],[-2.044133,36.849835,83.549],[-2.043951,36.849608,80.217],[-2.043484,36.848951,73.787],[-2.043484,36.848621,73.515],[-2.043537,36.848393,73.109],[-2.043366,36.847925,69.192],[-2.042727,36.847054,65.852],[-2.042341,36.84653,63.956],[-2.041767,36.846508,63.889],[-2.041247,36.846508,62.61],[-2.040979,36.846624,62.353],[-2.040796,36.846697,62.173],[-2.040351,36.846809,61.065],[-2.0399,36.847011,60.489],[-2.039412,36.847054,59.277],[-2.039192,36.847058,58.161],[-2.038736,36.847092,56.627],[-2.038436,36.847157,56.209],[-2.038345,36.847079,55.968]]}},{"type":"Feature","properties":{"name":"Torre de los Alumbres"},"geometry":{"type":"Point","coordinates":[-2.014983,36.854853,13.886034236619786]}},{"type":"Feature","properties":{"name":"Torre de los Lobos"},"geometry":{"type":"Point","coordinates":[-2.003306,36.840657,242.78486510051647]}},{"type":"Feature","properties":{"name":"Castillo de San Ramón"},"geometry":{"type":"Point","coordinates":[-2.003953,36.866267,23.79726885092914]}}]}