{"type":"FeatureCollection","features":[{"type":"Feature","properties":{"name":"Ruta 03, Rodalquilar - La Isleta del Moro"},"geometry":{"type":"LineString","coordinates":[[-2.038392,36.847204,55.75],[-2.038494,36.847142,55.75],[-2.038633,36.847102,56],[-2.038934,36.847067,56.75],[-2.03922,36.847052,57.5],[-2.03972,36.847037,58.5],[-2.039919,36.847005,58.75],[-2.040207,36.84688,59.25],[-2.040399,36.846801,59.75],[-2.040611,36.846737,60.25],[-2.041095,36.846655,61.25],[-2.041176,36.84655,62.25],[-2.041254,36.846535,62.5],[-2.04194,36.846516,64],[-2.042372,36.846504,64.25],[-2.042415,36.846607,64],[-2.042462,36.846687,64],[-2.042492,36.846743,64],[-2.042679,36.84698,64.75],[-2.04273,36.847055,65],[-2.042757,36.8471,65.25],[-2.043031,36.84743,66.75],[-2.043165,36.847605,67.5],[-2.043197,36.847665,67.75],[-2.043357,36.84797,69.25],[-2.043529,36.848229,71.25],[-2.04354,36.848317,71.5],[-2.043535,36.848527,72.25],[-2.043488,36.848897,72.75],[-2.043508,36.848997,73.25],[-2.043563,36.849123,74.25],[-2.043675,36.849283,76],[-2.043772,36.84939,77.5],[-2.043905,36.849582,79.25],[-2.044182,36.84987,82.75],[-2.044407,36.850028,85],[-2.044546,36.850134,86.25],[-2.044792,36.850283,89],[-2.04487,36.850342,90],[-2.04487,36.850393,90],[-2.044807,36.850497,89.75],[-2.044802,36.850548,90],[-2.044818,36.850597,90.25],[-2.044907,36.850748,91.5],[-2.045016,36.850989,93.25],[-2.045146,36.851319,95.5],[-2.045217,36.851452,96.75],[-2.045414,36.851697,99.75],[-2.04548,36.851707,100.75],[-2.045552,36.851678,101.75],[-2.045597,36.851653,102.5],[-2.045614,36.850993,102],[-2.045652,36.850917,102.25],[-2.045702,36.850892,103],[-2.045778,36.850878,104.25],[-2.045846,36.85091,105.25],[-2.04588,36.85097,106.5],[-2.045892,36.850966,104.893],[-2.045914,36.851661,107.829],[-2.046247,36.852082,112.358],[-2.046601,36.852202,120.214],[-2.046973,36.853115,128.489],[-2.046908,36.853433,133.514],[-2.046318,36.853613,127.954],[-2.045771,36.854317,132.109],[-2.045943,36.854274,135.909],[-2.046586,36.853759,137.862],[-2.047391,36.853724,142.352],[-2.04796,36.853587,139.727],[-2.048582,36.853518,134.78],[-2.048968,36.853278,141.522],[-2.050234,36.85302,142.318],[-2.050799,36.852614,145.457],[-2.050874,36.852254,146.923],[-2.051003,36.851429,165.078],[-2.051775,36.850511,149.656],[-2.05233,36.849792,158.259],[-2.053006,36.849518,155.214],[-2.053531,36.849492,151.509],[-2.054057,36.849621,154.846],[-2.054776,36.849861,164.736],[-2.055835,36.849732,173.891],[-2.056714,36.849492,174.284],[-2.059246,36.849054,167.656],[-2.060165,36.848922,173.552],[-2.061592,36.848175,181.621],[-2.064135,36.848691,194.267],[-2.065451,36.84896,200.092],[-2.066095,36.849174,200.113],[-2.066492,36.849741,209.543],[-2.066599,36.850316,213.507],[-2.066213,36.851295,219.109],[-2.066835,36.851621,218.412],[-2.067543,36.851724,225.622],[-2.068176,36.851578,229.677],[-2.068917,36.851321,236.96],[-2.069764,36.851183,234.612],[-2.071195,36.851655,219.768],[-2.072114,36.851999,219.767],[-2.073047,36.852462,221.093],[-2.074045,36.852729,218.188],[-2.073991,36.850608,232.649],[-2.073973,36.849684,235.802],[-2.074049,36.849469,236.622],[-2.074038,36.849229,234.909],[-2.07407,36.848593,239.845],[-2.074327,36.847829,241.775],[-2.074488,36.847188,243.89],[-2.074649,36.846956,245.693],[-2.074842,36.846493,247.915],[-2.074939,36.846364,247.851],[-2.0751,36.846252,248.22],[-2.075293,36.845557,248.036],[-2.075461,36.84477,250.681],[-2.075579,36.844358,250.173],[-2.075719,36.844186,251.685],[-2.076169,36.843971,256.413],[-2.076352,36.843765,257.109],[-2.076684,36.843499,261.198],[-2.077065,36.843104,263.778],[-2.07729,36.842821,269.663],[-2.077741,36.842533,278.426],[-2.077875,36.842095,281.658],[-2.077952,36.841818,284.754],[-2.07821,36.841556,290.423],[-2.078215,36.84141,293.579],[-2.078456,36.84126,302.534],[-2.078376,36.84092,309.429],[-2.078277,36.840819,311.5],[-2.078111,36.840527,323.02],[-2.078176,36.840076,339.809],[-2.078472,36.839484,349.863],[-2.07863,36.839429,351.613],[-2.078673,36.839713,352.228],[-2.079113,36.838751,375.051],[-2.079039,36.838369,380.913],[-2.079045,36.837939,381.649],[-2.079238,36.837566,389.548],[-2.079569,36.836966,402.924],[-2.079735,36.836305,409.259],[-2.079849,36.835934,413.062],[-2.079758,36.835673,412.883],[-2.079828,36.835415,413.111],[-2.079704,36.835187,412.809],[-2.079361,36.834865,421.027],[-2.079009,36.834367,433.537],[-2.078564,36.833801,432.522],[-2.076026,36.834561,444.245],[-2.075334,36.834925,447.117],[-2.075166,36.835647,454.423],[-2.075134,36.836325,454.712],[-2.075032,36.836548,455.998],[-2.074898,36.836527,457.623],[-2.07463,36.836342,462.549],[-2.074388,36.836076,463.002],[-2.073852,36.836063,459.222],[-2.073262,36.836196,461.509],[-2.072956,36.836567,455.575],[-2.072784,36.837044,448.775],[-2.072607,36.837198,445.43],[-2.072414,36.837207,444.353],[-2.072312,36.837104,443.845],[-2.071947,36.836357,439.811],[-2.071722,36.835969,432.18],[-2.071609,36.835539,424.846],[-2.071583,36.835269,418.771],[-2.071486,36.835316,415.556],[-2.071218,36.835776,413.159],[-2.071164,36.836059,411.414],[-2.071025,36.835999,407.109],[-2.070971,36.835608,403.066],[-2.071003,36.835174,399.096],[-2.070901,36.834825,389.931],[-2.070606,36.834593,381.234],[-2.070403,36.834512,380.016],[-2.070166,36.834542,379.752],[-2.069737,36.83443,379.051],[-2.068139,36.834353,388.677],[-2.067699,36.834452,391.542],[-2.067146,36.834881,389.641],[-2.066812,36.835123,390.581],[-2.066613,36.835106,391.909],[-2.066533,36.83496,392.609],[-2.066383,36.834655,394.325],[-2.06582,36.834161,393.945],[-2.065204,36.833534,400.61],[-2.064974,36.83323,402.533],[-2.064705,36.833135,402.555],[-2.06441,36.833217,401.781],[-2.064212,36.833474,400.74],[-2.06389,36.833715,400.716],[-2.062957,36.834024,400.451],[-2.062612,36.834058,400.563],[-2.062005,36.833929,402.344],[-2.061367,36.83371,396.818],[-2.061211,36.833612,396.209],[-2.061093,36.833367,394.067],[-2.061018,36.833131,391.347],[-2.060981,36.832873,390.752],[-2.061174,36.83266,386.065],[-2.061346,36.832703,383.947],[-2.06149,36.832471,376.633],[-2.061571,36.832516,376.082],[-2.06185,36.832149,365.858],[-2.062022,36.831874,357.633],[-2.062073,36.831636,350.827],[-2.062054,36.831446,347.668],[-2.062252,36.831116,336.514],[-2.062279,36.83091,331.909],[-2.062209,36.830629,329.933],[-2.061914,36.830406,324.483],[-2.061533,36.830204,320.398],[-2.061281,36.830079,318.141],[-2.060895,36.830028,312.443],[-2.060686,36.829976,308.589],[-2.060224,36.829676,296.548],[-2.059869,36.829397,293.764],[-2.059665,36.829354,294.439],[-2.059246,36.829246,292.741],[-2.058957,36.829375,289.181],[-2.05856,36.829435,282.609],[-2.058383,36.829455,280.609],[-2.057993,36.829417,277.255],[-2.057725,36.829535,274.215],[-2.057564,36.829556,272.08],[-2.057456,36.829684,270.473],[-2.057376,36.829929,269.015],[-2.057354,36.830316,267.811],[-2.057322,36.830629,266.17],[-2.057172,36.830852,262.656],[-2.056947,36.830921,259.821],[-2.056754,36.830977,259.121],[-2.056502,36.831273,251.541],[-2.056248,36.83138,245.105],[-2.055904,36.831419,243.109],[-2.055604,36.831436,242.763],[-2.055336,36.831393,240.433],[-2.054971,36.83126,238.538],[-2.054601,36.831136,228.351],[-2.054161,36.831136,221.353],[-2.053678,36.831307,218.359],[-2.053469,36.831329,218.258],[-2.053163,36.831518,213.384],[-2.052893,36.831621,208.319],[-2.052625,36.831629,207.264],[-2.052056,36.831784,204.506],[-2.051863,36.831896,202.916],[-2.051686,36.832226,200.009],[-2.051557,36.832338,199.217],[-2.051343,36.832269,197.447],[-2.050924,36.832222,190.622],[-2.050678,36.832196,188.095],[-2.050635,36.832119,187.947],[-2.050522,36.832231,187.643],[-2.050399,36.831913,185.922],[-2.050182,36.831687,182.048],[-2.050043,36.831498,178.583],[-2.050231,36.831244,172.056],[-2.050273,36.831171,170.359],[-2.050349,36.830957,167.214],[-2.050273,36.830785,164.709],[-2.050075,36.83057,162.436],[-2.049748,36.830443,153.756],[-2.049512,36.830327,147.481],[-2.049351,36.830224,142.464],[-2.04927,36.829902,136.896],[-2.049226,36.8296,130.752],[-2.049193,36.829334,123.581],[-2.049075,36.829162,120.117],[-2.048904,36.828917,115.522],[-2.048773,36.828511,105.537],[-2.048639,36.82836,101.749],[-2.048805,36.828232,100.513],[-2.04858,36.827807,98.309],[-2.048265,36.82745,86.544],[-2.048169,36.827158,82.014],[-2.048206,36.826875,79.669],[-2.048153,36.826656,75.512],[-2.048124,36.826369,71.894],[-2.048011,36.826138,69.11],[-2.048006,36.825592,69.079],[-2.047824,36.825592,65.735],[-2.047663,36.825519,62.51],[-2.04728,36.825459,55.783],[-2.046942,36.825472,53.325],[-2.046679,36.825438,52.317],[-2.046331,36.825429,53.509],[-2.045853,36.825395,55.069],[-2.045596,36.825348,53.629],[-2.045183,36.825283,51.744],[-2.044737,36.825163,47.137],[-2.044523,36.82506,44.479],[-2.044516,36.824287,32.755],[-2.044462,36.8239,28.494],[-2.044221,36.823618,27.31],[-2.043915,36.823494,28.735],[-2.043775,36.823262,27.095],[-2.043593,36.822901,23.549],[-2.043521,36.822432,18.823],[-2.043806,36.822243,18.509],[-2.04417,36.822174,21.41],[-2.044873,36.822286,27.07],[-2.045453,36.82244,34.025],[-2.045699,36.822531,35.098],[-2.045968,36.822531,36.08],[-2.046241,36.822393,37.416],[-2.046475,36.822296,37.395],[-2.046947,36.822171,33.741],[-2.047318,36.822064,32.216],[-2.047436,36.822034,32.877],[-2.047876,36.821716,37.761],[-2.048278,36.821622,39.827],[-2.048589,36.821427,39.109],[-2.048675,36.821268,39.378],[-2.048841,36.821135,39.248],[-2.048943,36.820912,38.263],[-2.049415,36.82059,35.336],[-2.049689,36.820529,33.248],[-2.049762,36.820416,32.474],[-2.049751,36.820223,31.673],[-2.04988,36.820038,30.389],[-2.050041,36.819781,28.074],[-2.050309,36.819562,27.124],[-2.050704,36.819054,20.804],[-2.050753,36.818847,18.714],[-2.050688,36.818744,18.009],[-2.050474,36.818667,17.633],[-2.050778,36.818332,15.023],[-2.050901,36.8181,14.058],[-2.051268,36.817921,14.171],[-2.051466,36.817784,15.593],[-2.051337,36.817423,15.269],[-2.05115,36.817041,14.178],[-2.051289,36.816556,11.374],[-2.051563,36.816368,11.319],[-2.051493,36.815836,11.586],[-2.051522,36.815518,11.46],[-2.051725,36.815337,10.526],[-2.051783,36.815327,11.25],[-2.051663,36.81486,9.5],[-2.051648,36.814786,9.25],[-2.051619,36.814641,8.75],[-2.051567,36.814388,8],[-2.051561,36.814277,7.75],[-2.051625,36.814195,7.75],[-2.051734,36.814142,8],[-2.051661,36.813982,7],[-2.051575,36.813838,6],[-2.051653,36.813805,6.5]]}},{"type":"Feature","properties":{"name":"Alto de la Rellana: Visualización panorámica del Valle del Hornillo, Rodalquilar y La Isleta"},"geometry":{"type":"Point","coordinates":[-2.078428,36.833851,432.91556]}}]}