{"type":"FeatureCollection","features":[{"type":"Feature","properties":{"name":"Etapa 04, La Isleta - San José"},"geometry":{"type":"LineString","coordinates":[[-2.051661,36.813982],[-2.051734,36.814142],[-2.051801,36.814131],[-2.051813,36.814128],[-2.05185,36.814116],[-2.051849,36.814117],[-2.051935,36.81409],[-2.052151,36.814022],[-2.052305,36.813952],[-2.052377,36.813929],[-2.052444,36.813923],[-2.052442,36.813923],[-2.052711,36.81394],[-2.053059,36.814018],[-2.053633,36.814112],[-2.053998,36.814082],[-2.05427,36.814237],[-2.054281,36.814477],[-2.054527,36.814546],[-2.054721,36.814421],[-2.054903,36.814224],[-2.055327,36.814144],[-2.055536,36.814075],[-2.05575,36.814152],[-2.055895,36.814156],[-2.055974,36.814195],[-2.056054,36.814277],[-2.056194,36.814313],[-2.056312,36.814292],[-2.05643,36.8143],[-2.056513,36.814348],[-2.056619,36.814374],[-2.056728,36.81444],[-2.056891,36.814494],[-2.057047,36.81465],[-2.057181,36.814757],[-2.057412,36.814819],[-2.057605,36.814836],[-2.057701,36.814832],[-2.058123,36.814961],[-2.058311,36.814997],[-2.058515,36.814985],[-2.058754,36.815066],[-2.058995,36.815025],[-2.059542,36.815007],[-2.059617,36.814982],[-2.059759,36.814879],[-2.0598,36.814696],[-2.059931,36.81455],[-2.060138,36.814248],[-2.060258,36.81419],[-2.060379,36.814033],[-2.060545,36.813694],[-2.060282,36.8132],[-2.060115,36.812904],[-2.060169,36.812792],[-2.060319,36.81268],[-2.060378,36.812504],[-2.060341,36.812294],[-2.059618,36.811442],[-2.0591,36.810815],[-2.059089,36.810652],[-2.059304,36.810523],[-2.059534,36.810399],[-2.059717,36.810373],[-2.059979,36.810467],[-2.060072,36.810453],[-2.060292,36.810324],[-2.060212,36.810187],[-2.06031,36.810048],[-2.060482,36.810013],[-2.060536,36.809769],[-2.060781,36.809925],[-2.061047,36.810162],[-2.061465,36.810244],[-2.06161,36.810218],[-2.061734,36.8099],[-2.061809,36.809505],[-2.06183,36.809205],[-2.061873,36.809097],[-2.061916,36.8089],[-2.061771,36.808749],[-2.061728,36.808194],[-2.061712,36.807859],[-2.061877,36.807415],[-2.062107,36.807089],[-2.062456,36.806603],[-2.062769,36.806032],[-2.062967,36.805602],[-2.063184,36.805362],[-2.063195,36.80516],[-2.063168,36.804864],[-2.063093,36.804666],[-2.063119,36.804477],[-2.063393,36.804331],[-2.063801,36.804314],[-2.06409,36.804062],[-2.064055,36.803826],[-2.063422,36.803628],[-2.063336,36.802872],[-2.063339,36.802473],[-2.063538,36.802026],[-2.063468,36.801665],[-2.063286,36.801412],[-2.063193,36.801344],[-2.063279,36.80125],[-2.0633,36.800799],[-2.063282,36.800419],[-2.063432,36.800119],[-2.063518,36.7999],[-2.063422,36.799526],[-2.063368,36.799185],[-2.063336,36.798885],[-2.063325,36.798429],[-2.063314,36.798008],[-2.063309,36.797669],[-2.063395,36.797341],[-2.063352,36.796301],[-2.063397,36.795418],[-2.063418,36.794915],[-2.063445,36.794101],[-2.063434,36.793766],[-2.06345,36.793296],[-2.063622,36.793021],[-2.064051,36.79272],[-2.064484,36.792304],[-2.064398,36.791663],[-2.06408,36.790684],[-2.063522,36.789261],[-2.063245,36.78863],[-2.063443,36.787952],[-2.063819,36.787519],[-2.064291,36.787218],[-2.064666,36.786815],[-2.064773,36.786617],[-2.064752,36.786394],[-2.064562,36.785766],[-2.064326,36.785238],[-2.064443,36.784825],[-2.065129,36.784233],[-2.065609,36.783794],[-2.06571,36.783597],[-2.065727,36.782952],[-2.065578,36.781847],[-2.065315,36.781408],[-2.065172,36.780996],[-2.065204,36.780777],[-2.065494,36.780115],[-2.065805,36.779982],[-2.066481,36.780137],[-2.067103,36.780012],[-2.067547,36.780001],[-2.068169,36.780202],[-2.06848,36.779992],[-2.068448,36.779803],[-2.067885,36.779292],[-2.067363,36.778573],[-2.067497,36.778341],[-2.067663,36.778203],[-2.068012,36.778195],[-2.06843,36.778306],[-2.068959,36.778683],[-2.069651,36.778971],[-2.070006,36.779014],[-2.070295,36.778945],[-2.070547,36.778825],[-2.070665,36.778636],[-2.070698,36.778416],[-2.070681,36.778017],[-2.070853,36.777739],[-2.071143,36.777662],[-2.071438,36.777653],[-2.071849,36.777549],[-2.072062,36.777368],[-2.072529,36.776943],[-2.072824,36.776689],[-2.072893,36.77647],[-2.072926,36.776242],[-2.072872,36.776105],[-2.072795,36.77551],[-2.072908,36.775248],[-2.073069,36.774991],[-2.073217,36.774819],[-2.073403,36.774761],[-2.073628,36.774865],[-2.073961,36.775372],[-2.074208,36.775721],[-2.074347,36.775781],[-2.074562,36.775751],[-2.074862,36.775575],[-2.075323,36.775162],[-2.075286,36.774879],[-2.075114,36.774526],[-2.075127,36.774194],[-2.075497,36.774065],[-2.075933,36.774019],[-2.076486,36.774148],[-2.076754,36.77417],[-2.076952,36.774084],[-2.077178,36.773641],[-2.077507,36.773292],[-2.07777,36.773275],[-2.078328,36.773373],[-2.079175,36.773777],[-2.079399,36.773886],[-2.079645,36.773873],[-2.080107,36.77365],[-2.081094,36.772967],[-2.081861,36.772468],[-2.082247,36.772301],[-2.082392,36.772064],[-2.082354,36.771944],[-2.082193,36.77163],[-2.082324,36.770814],[-2.082415,36.770436],[-2.082517,36.770287],[-2.083579,36.769788],[-2.083683,36.769685],[-2.083683,36.769518],[-2.083592,36.769247],[-2.083426,36.769092],[-2.08334,36.76892],[-2.083198,36.768101],[-2.083336,36.767955],[-2.083615,36.767912],[-2.083846,36.76777],[-2.083991,36.76762],[-2.084087,36.767388],[-2.084355,36.767164],[-2.084827,36.766984],[-2.085049,36.766743],[-2.085425,36.766558],[-2.085543,36.766459],[-2.08565,36.766253],[-2.085929,36.76603],[-2.086748,36.76558],[-2.08715,36.765447],[-2.08744,36.765305],[-2.087622,36.765142],[-2.088228,36.765111],[-2.088549,36.765169],[-2.088951,36.765104],[-2.089144,36.765048],[-2.08967,36.765878],[-2.08981,36.766149],[-2.089981,36.766314],[-2.090061,36.766461],[-2.090069,36.766617],[-2.090291,36.766717],[-2.090546,36.766719],[-2.09068,36.766589],[-2.090903,36.766656],[-2.091116,36.766682],[-2.091186,36.76674],[-2.091266,36.766888],[-2.091358,36.766832],[-2.091349,36.766717],[-2.091063,36.766027],[-2.091043,36.765937],[-2.091065,36.765855],[-2.091269,36.765808],[-2.091574,36.765769],[-2.09183,36.765661],[-2.09212,36.765597],[-2.092463,36.765416],[-2.092567,36.765423],[-2.092927,36.7658],[-2.093208,36.766056],[-2.093857,36.766396],[-2.094323,36.766564],[-2.094499,36.766712],[-2.094591,36.767556],[-2.094591,36.768432],[-2.095005,36.768623],[-2.09535,36.768691],[-2.095805,36.76894],[-2.096486,36.76897],[-2.097095,36.769113],[-2.097269,36.769169],[-2.098713,36.76936],[-2.10076,36.769603],[-2.102734,36.769846],[-2.103895,36.769554],[-2.10404,36.769502],[-2.103971,36.769283],[-2.104443,36.768771],[-2.105398,36.767847],[-2.106208,36.767276],[-2.106589,36.766919],[-2.106599,36.766922],[-2.106604,36.766915],[-2.106842,36.766627],[-2.106915,36.766447],[-2.106983,36.7664],[-2.107146,36.766344],[-2.107318,36.76614],[-2.107487,36.765898],[-2.107768,36.765547],[-2.10782,36.765482],[-2.107932,36.765343],[-2.108146,36.765105],[-2.108323,36.764903],[-2.107771,36.764192],[-2.107464,36.763826],[-2.107123,36.763417],[-2.106984,36.763255],[-2.107242,36.763092],[-2.107502,36.762883],[-2.107559,36.762834],[-2.107878,36.762575],[-2.108123,36.762402],[-2.108141,36.762388],[-2.10813,36.762381],[-2.108141,36.762388],[-2.108123,36.762402],[-2.108149,36.762424],[-2.108293,36.762515],[-2.108333,36.762477],[-2.108373,36.762504],[-2.108412,36.762531]]}},{"type":"Feature","properties":{"name":"San José - La Fabriquilla"},"geometry":{"type":"LineString","coordinates":[[-2.108387,36.762513],[-2.108373,36.762504],[-2.108333,36.762477]]}},{"type":"Feature","properties":{"name":"Castillo de San Felipe"},"geometry":{"type":"Point","coordinates":[-2.063519,36.80208,5.731302]}},{"type":"Feature","properties":{"name":"Torre de Cala Higuera y Bahía de San José"},"geometry":{"type":"Point","coordinates":[-2.089144,36.765084,112.453925]}}]}