{"type":"FeatureCollection","features":[{"type":"Feature","properties":{"name":"Etapa 05, San José - La Fabriquilla"},"geometry":{"type":"LineString","coordinates":[[-2.108333,36.762477,2.116377],[-2.108293,36.762515,2.124721],[-2.108149,36.762424,2.072902],[-2.108123,36.762402,2.10803],[-2.108183,36.762355,2.261532],[-2.108192,36.762306,2.446131],[-2.108293,36.76199,3.281681],[-2.108355,36.761834,3.847248],[-2.108414,36.76175,3.828375],[-2.108667,36.761669,4.058159],[-2.10831,36.761158,6.904183],[-2.108442,36.760632,10.568133],[-2.108525,36.760466,10.982039],[-2.108517,36.760459,10.721173],[-2.10852,36.760456,10.737703],[-2.108517,36.760459,10.721173],[-2.108525,36.760466,10.982039],[-2.108584,36.760411,11.603164],[-2.108725,36.760308,14.059188],[-2.109129,36.760173,16.546162],[-2.10935,36.760133,15.002097],[-2.109385,36.76013,16.296387],[-2.109449,36.760049,15.76089],[-2.109441,36.759956,16.096365],[-2.109427,36.759891,16.824913],[-2.109412,36.75981,18.18232],[-2.109279,36.759532,15.584043],[-2.109252,36.759381,16.557354],[-2.109245,36.759338,16.290512],[-2.109298,36.759031,17.372745],[-2.109346,36.758948,17.990372],[-2.109353,36.758793,15.869143],[-2.109444,36.758403,18.539936],[-2.109529,36.758224,17.760354],[-2.10967,36.757954,16.265805],[-2.109713,36.757942,16.899091],[-2.110129,36.757605,20.861919],[-2.11043,36.757401,21.531922],[-2.110538,36.757339,21.507911],[-2.110745,36.757265,22.410848],[-2.110971,36.757222,22.238154],[-2.111115,36.757242,22.568641],[-2.111496,36.757346,21.876798],[-2.111816,36.757416,21.072683],[-2.112155,36.75743,21.805666],[-2.112155,36.75743,21.805666],[-2.112262,36.757435,22.578857],[-2.112418,36.757341,21.707521],[-2.1125,36.757313,22.587941],[-2.112559,36.757302,23.292196],[-2.112587,36.757304,23.52538],[-2.112635,36.757289,24.115147],[-2.112666,36.757257,24.472085],[-2.112671,36.757236,24.692726],[-2.112735,36.757192,25.278193],[-2.112838,36.757158,26.54777],[-2.112984,36.757115,28.813878],[-2.113749,36.756965,28.733605],[-2.114006,36.756911,28.523302],[-2.114242,36.756829,30.868791],[-2.114203,36.756663,34.546508],[-2.114874,36.75627,37.445783],[-2.11493,36.756229,37.6632],[-2.114995,36.756183,37.51601],[-2.115101,36.755756,39.968453],[-2.115334,36.755555,41.175918],[-2.115387,36.755429,42.781062],[-2.115475,36.755388,44.005069],[-2.115592,36.755405,44.873614],[-2.115738,36.755488,46.222559],[-2.115924,36.755524,46.359041],[-2.116027,36.755586,45.775171],[-2.116062,36.75567,45.414987],[-2.1161,36.755792,43.191397],[-2.116129,36.755785,42.768543],[-2.11619,36.755709,42.790305],[-2.116334,36.755581,40.666806],[-2.116396,36.755484,38.75725],[-2.116441,36.755417,37.220033],[-2.11642,36.755185,34.850494],[-2.116419,36.755066,34.959742],[-2.116452,36.755012,34.999377],[-2.11651,36.754964,34.806671],[-2.116732,36.75484,33.762013],[-2.117252,36.754422,28.353308],[-2.11752,36.754233,26.646884],[-2.117676,36.75414,25.24587],[-2.118517,36.753483,18.253218],[-2.118892,36.753273,16.222014],[-2.119634,36.753048,11.808431],[-2.119883,36.752913,11.499511],[-2.119914,36.752822,11.284648],[-2.119848,36.752522,10.086413],[-2.119849,36.752369,9.683449],[-2.120013,36.75187,8.2204],[-2.120254,36.751319,6.571337],[-2.120651,36.750587,4.746342],[-2.120919,36.750058,5.193841],[-2.121383,36.749458,4.695805],[-2.121748,36.749166,3.790831],[-2.12195,36.748869,6.340221],[-2.122251,36.748639,6.774883],[-2.122624,36.748387,7.011299],[-2.122634,36.748292,5.875073],[-2.12251,36.748099,4.65682],[-2.122385,36.747552,6.0068],[-2.122324,36.747013,4.906395],[-2.122341,36.746508,3.936028],[-2.122335,36.746319,3.071148],[-2.122415,36.746234,3.112062],[-2.122483,36.746139,2.817947],[-2.123026,36.746047,1.386165],[-2.123519,36.746031,1.108063],[-2.124263,36.745556,1.42449],[-2.124853,36.745023,1.759761],[-2.12539,36.744378,2.818164],[-2.127718,36.743533,6.248007],[-2.128394,36.743283,7.390031],[-2.128994,36.743438,10.04705],[-2.129499,36.74324,9.966626],[-2.132066,36.742521,14.823576],[-2.134019,36.741945,21.664288],[-2.135646,36.741512,26.85295],[-2.136333,36.741263,25.183063],[-2.137299,36.740506,22.775049],[-2.138211,36.739552,21.28645],[-2.138779,36.738586,20.624923],[-2.139541,36.737692,17.396276],[-2.140002,36.737434,17.310643],[-2.140657,36.736431,14.137084],[-2.14114,36.73564,11.965608],[-2.141451,36.734642,10.049534],[-2.141984,36.733957,8.636627],[-2.142445,36.733485,7.312316],[-2.143282,36.732969,6.158337],[-2.143883,36.732779,5.446912],[-2.144855,36.732473,3.935534],[-2.146121,36.732051,3.001422],[-2.146336,36.732051,3.095552],[-2.146393,36.732888,7.721541],[-2.148281,36.733078,10.791455],[-2.149676,36.73337,9.576035],[-2.150416,36.733533,8.710155],[-2.15042,36.73352,8.6879],[-2.150893,36.733614,8.053461],[-2.151936,36.733833,9.134233],[-2.153696,36.734162,15.677883],[-2.154643,36.734207,17.817749],[-2.155271,36.734181,17.479065],[-2.158112,36.734066,34.143174],[-2.158728,36.73399,37.195406],[-2.15942,36.733783,37.556457],[-2.159802,36.733544,38.933226],[-2.159911,36.733316,42.616091],[-2.159946,36.733233,43.184996],[-2.160022,36.733255,43.874303],[-2.159851,36.732585,49.260275],[-2.15969,36.731561,54.734781],[-2.159775,36.730822,55.985546],[-2.159708,36.729781,66.888314],[-2.159879,36.729592,67.331227],[-2.160212,36.729661,69.944679],[-2.160823,36.72985,75.71116],[-2.16122,36.729799,77.05508],[-2.161542,36.729627,79.108923],[-2.161714,36.729102,83.670598],[-2.161918,36.728595,87.792091],[-2.162515,36.728592,93.310507],[-2.163759,36.728996,93.34343],[-2.164811,36.7302,103.521307],[-2.165204,36.730607,106.95996],[-2.165526,36.73065,105.825871],[-2.166095,36.730366,108.719418],[-2.166427,36.730383,110.221454],[-2.167672,36.73114,123.677316],[-2.168502,36.731387,126.206551],[-2.169167,36.731387,131.89577],[-2.169296,36.731111,135.478673],[-2.169081,36.730286,138.896833],[-2.169199,36.729942,145.159342],[-2.169081,36.729598,147.846425],[-2.169167,36.729177,150.22493],[-2.169049,36.72834,158.793735],[-2.168459,36.727746,157.525892],[-2.168545,36.727041,165.099806],[-2.168627,36.726591,172.258242],[-2.169946,36.725963,184.792911],[-2.169956,36.725976,185.191031],[-2.169995,36.725961,185.451794],[-2.170125,36.726195,187.513545],[-2.17035,36.726433,184.562882],[-2.170839,36.726629,180.521299],[-2.171026,36.726922,181.921683],[-2.171267,36.727133,177.384381],[-2.172267,36.72765,166.650355],[-2.172419,36.727845,166.861557],[-2.172531,36.728324,166.708988],[-2.172512,36.728726,167.570777],[-2.172543,36.72879,165.525858],[-2.172628,36.728813,161.939229],[-2.172673,36.728784,160.018867],[-2.1727,36.728574,159.12594],[-2.172911,36.728141,148.759392],[-2.172915,36.727612,142.101057],[-2.172669,36.727308,139.951682],[-2.172607,36.726965,132.121503],[-2.172278,36.726669,126.73838],[-2.172204,36.726534,128.573616],[-2.172302,36.726093,125.72904],[-2.172357,36.726058,123.315488],[-2.172358,36.726057,123.264691],[-2.172408,36.726025,121.691032],[-2.172522,36.726041,120.485219],[-2.172618,36.726095,120.221961],[-2.172652,36.726343,118.119791],[-2.172762,36.726447,114.777229],[-2.173183,36.726654,110.345273],[-2.173356,36.726931,107.579488],[-2.173422,36.726982,104.73921],[-2.173514,36.727,102.993058],[-2.173833,36.726983,97.575109],[-2.174012,36.727007,94.449621],[-2.174148,36.727086,94.275596],[-2.174277,36.727397,89.789372],[-2.174388,36.727427,87.078611],[-2.175068,36.727383,73.71365],[-2.175069,36.727382,73.656146],[-2.175484,36.727356,67.356295],[-2.176012,36.727203,61.164304],[-2.176181,36.727231,60.607076],[-2.176513,36.727491,56.129247],[-2.176733,36.727533,52.259902],[-2.176899,36.727495,50.18275],[-2.177068,36.727204,47.464584],[-2.177125,36.727078,46.168874],[-2.176769,36.727054,46.877223],[-2.17623,36.726328,39.84867],[-2.176319,36.7253,33.249208],[-2.176295,36.725018,29.745926],[-2.176354,36.724983,28.961705],[-2.176401,36.725009,28.498527],[-2.176742,36.724943,24.157038],[-2.176878,36.724945,22.241089],[-2.177228,36.724931,20.241133],[-2.177333,36.724922,19.723495],[-2.177441,36.724897,18.304626],[-2.17767,36.724802,17.087484],[-2.177912,36.724728,24.674167],[-2.17814,36.724726,24.455434],[-2.178261,36.724678,21.843124],[-2.178395,36.72468,18.718521],[-2.17865,36.724639,17.452249],[-2.178846,36.724675,16.684206],[-2.178988,36.72468,16.098742],[-2.179271,36.72457,18.866602],[-2.179436,36.724521,17.330545],[-2.179692,36.724328,10.583266],[-2.180014,36.724285,17.338845],[-2.180118,36.724345,17.331676],[-2.180286,36.72425,14.348671],[-2.180456,36.724227,14.788738],[-2.180705,36.724068,18.366353],[-2.180946,36.723917,20.085858],[-2.181168,36.723897,21.410936],[-2.181268,36.723848,20.536851],[-2.181372,36.723767,20.128136],[-2.181458,36.723656,18.096333],[-2.181528,36.723603,17.92888],[-2.181539,36.723492,15.090647],[-2.181615,36.723403,16.830735],[-2.181685,36.723349,17.774415],[-2.181782,36.723329,18.314727],[-2.181836,36.723283,17.906495],[-2.181997,36.723073,17.16853],[-2.182156,36.722936,18.448429],[-2.182305,36.722805,17.306033],[-2.182451,36.722715,17.910186],[-2.182591,36.722606,19.297774],[-2.182789,36.722432,22.291295],[-2.18326,36.722318,22.606356],[-2.183754,36.722273,22.531375],[-2.184116,36.722285,24.514142],[-2.18448,36.722376,23.702119],[-2.184785,36.722405,22.789902],[-2.185164,36.722394,23.861379],[-2.185489,36.72244,26.789843],[-2.185774,36.722417,29.795811],[-2.185895,36.72244,32.445132],[-2.185978,36.722803,35.399526],[-2.186029,36.722899,35.290455],[-2.18603,36.723136,38.705428],[-2.186069,36.723181,38.985067],[-2.186268,36.723191,37.100718],[-2.186542,36.723168,36.661664],[-2.186756,36.723166,37.93598],[-2.186891,36.723215,41.454228],[-2.186933,36.723267,42.792121],[-2.187026,36.723494,43.853897],[-2.187133,36.723617,41.386699],[-2.187296,36.723691,39.37515],[-2.187416,36.723717,37.74871],[-2.187408,36.723738,38.371782],[-2.188214,36.723626,33.750028],[-2.188944,36.723033,22.059104],[-2.189378,36.72268,17.560922],[-2.189555,36.722409,16.942998],[-2.189941,36.722396,14.360203],[-2.19021,36.722173,11.73396],[-2.190467,36.72219,9.747578],[-2.190832,36.72225,16.980762],[-2.191057,36.72219,20.365837],[-2.191325,36.722044,23.29715],[-2.19154,36.721983,25.865901],[-2.191819,36.72213,22.894222],[-2.192241,36.722313,22.753499],[-2.192675,36.722562,20.814724],[-2.192858,36.722786,20.054312],[-2.192804,36.723332,15.820462],[-2.192738,36.724229,14.495782],[-2.192679,36.724973,16.373623],[-2.192616,36.726037,21.70109],[-2.192541,36.727454,31.843655],[-2.192407,36.727871,34.552038],[-2.191924,36.728748,36.869336],[-2.191874,36.729091,40.242413],[-2.192218,36.729439,46.468994],[-2.192717,36.729671,51.008123],[-2.193022,36.729757,53.030654],[-2.19373,36.729632,58.007469],[-2.194439,36.729323,65.207378],[-2.194739,36.729273,70.607932],[-2.194862,36.729191,73.25958],[-2.194836,36.728374,76.697996],[-2.195141,36.728082,80.066563],[-2.195399,36.727884,83.126335],[-2.196,36.727841,88.863449],[-2.196665,36.728033,95.345156],[-2.197427,36.728054,92.244596],[-2.197768,36.727961,88.321797],[-2.198187,36.728077,88.542789],[-2.19905,36.728004,79.765273],[-2.199152,36.728103,84.737477],[-2.199007,36.728546,89.292016],[-2.199216,36.728881,80.220004],[-2.19974,36.729264,74.973573],[-2.200121,36.729419,74.04678],[-2.2004,36.729711,73.6807],[-2.200708,36.730537,66.559062],[-2.201596,36.731654,55.158227],[-2.201897,36.731951,51.568943],[-2.202482,36.732258,44.49659],[-2.202653,36.732662,42.53189],[-2.20307,36.733335,35.256449],[-2.203596,36.734135,30.052013],[-2.203973,36.734803,27.071475],[-2.204295,36.735302,24.373356],[-2.204504,36.735838,22.05477],[-2.204767,36.735898,21.152538],[-2.205078,36.73613,19.417784],[-2.205234,36.736263,18.187438],[-2.205464,36.736306,16.305715],[-2.20604,36.736571,10.68492],[-2.206587,36.736915,4.890479],[-2.206904,36.737152,4.23047],[-2.207168,36.737556,4.430952],[-2.207383,36.73787,4.655252],[-2.207606,36.738268,4.541331],[-2.207842,36.738586,4.492427],[-2.20803,36.73884,4.383]]}},{"type":"Feature","properties":{"name":"Torre de la Vela Blanca"},"geometry":{"type":"Point","coordinates":[-2.169887,36.726007,183.633187]}},{"type":"Feature","properties":{"name":"Faro de Cabo de Gata"},"geometry":{"type":"Point","coordinates":[-2.191927,36.722184,22.431373]}}]}